{"type":"FeatureCollection","features":[{"type":"Feature","properties":{"name":"Beaver"},"geometry":{"type":"Polygon","coordinates":[[[-100.94557,36.998152],[-100.00256,37.001706],[-100.00367,36.499642],[-100.954146,36.499621],[-100.95383,36.848087],[-100.94549,36.848615],[-100.94557,36.998152]]]}},{"type":"Feature","properties":{"name":"Woods"},"geometry":{"type":"Polygon","coordinates":[[[-99.4562,36.999471],[-98.54487,36.998997],[-98.53355,36.397592],[-98.55254,36.402318],[-98.625361,36.392595],[-98.697071,36.415155],[-98.72681,36.445332],[-98.7777,36.448442],[-98.80782,36.460744],[-98.843646,36.506248],[-98.96033,36.506914],[-98.959973,36.598992],[-98.97391,36.601515],[-99.02254,36.642434],[-99.02295,36.660227],[-99.04843,36.686823],[-99.044447,36.695198],[-99.05855,36.712764],[-99.08449,36.721582],[-99.13985,36.78304],[-99.16528,36.790642],[-99.25141,36.785079],[-99.29272,36.804568],[-99.29524,36.819806],[-99.31742,36.842331],[-99.31429,36.856191],[-99.37422,36.879597],[-99.39748,36.920794],[-99.42479,36.947702],[-99.44119,36.993434],[-99.4562,36.999471]]]}},{"type":"Feature","properties":{"name":"Caddo"},"geometry":{"type":"Polygon","coordinates":[[[-98.623149,35.551597],[-98.3083,35.551505],[-98.30637,35.377177],[-98.09596,35.377726],[-98.09264,34.854919],[-98.61982,34.854953],[-98.623149,35.551597]]]}},{"type":"Feature","properties":{"name":"Mcclain"},"geometry":{"type":"Polygon","coordinates":[[[-97.671555,35.334212],[-97.650223,35.332326],[-97.620074,35.303463],[-97.571442,35.300059],[-97.554355,35.279297],[-97.564465,35.257255],[-97.552896,35.24969],[-97.566264,35.244173],[-97.547578,35.217365],[-97.52937,35.209119],[-97.518211,35.216566],[-97.504045,35.202372],[-97.491547,35.202358],[-97.434317,35.145047],[-97.406742,35.138433],[-97.403567,35.090209],[-97.385936,35.080847],[-97.363555,35.084988],[-97.354604,35.076295],[-97.348144,34.972684],[-97.321482,34.968427],[-97.323639,34.953678],[-97.281083,34.965904],[-97.282319,34.954662],[-97.2593,34.95584],[-97.234501,34.945397],[-97.224818,34.932202],[-97.212902,34.94512],[-97.189531,34.92898],[-97.135225,34.926571],[-97.125955,34.935584],[-97.115537,34.921396],[-97.087172,34.931956],[-97.013034,34.90861],[-96.930481,34.965493],[-96.93082,34.854564],[-97.67084,34.855217],[-97.671555,35.334212]]]}},{"type":"Feature","properties":{"name":"Le Flore"},"geometry":{"type":"Polygon","coordinates":[[[-94.43391,35.387391],[-94.461149,34.507457],[-94.937604,34.506887],[-94.937752,34.680877],[-95.059616,34.680736],[-95.059512,34.855019],[-94.997651,34.855055],[-94.998074,34.942157],[-94.927832,34.942213],[-94.927941,35.202564],[-94.814284,35.202331],[-94.813629,35.323344],[-94.794374,35.327086],[-94.769709,35.355294],[-94.725697,35.349702],[-94.683459,35.326252],[-94.6738,35.298756],[-94.647967,35.29123],[-94.625221,35.297522],[-94.594801,35.327974],[-94.572098,35.327741],[-94.542732,35.304961],[-94.515201,35.308692],[-94.496635,35.326627],[-94.494941,35.352604],[-94.481131,35.372028],[-94.440236,35.376537],[-94.43391,35.387391]]]}},{"type":"Feature","properties":{"name":"Sequoyah"},"geometry":{"type":"Polygon","coordinates":[[[-94.432515,35.392291],[-94.440236,35.376537],[-94.471289,35.376949],[-94.486136,35.367123],[-94.496635,35.326627],[-94.515201,35.308692],[-94.542732,35.304961],[-94.572098,35.327741],[-94.594801,35.327974],[-94.625221,35.297522],[-94.647967,35.29123],[-94.6738,35.298756],[-94.684885,35.32729],[-94.742855,35.355951],[-94.775205,35.353212],[-94.792713,35.32835],[-94.811716,35.32307],[-94.823785,35.329388],[-94.828972,35.361546],[-94.842143,35.371086],[-94.868941,35.355564],[-94.914454,35.347525],[-94.919266,35.354141],[-94.893267,35.375095],[-94.901832,35.39794],[-94.925745,35.392845],[-94.951328,35.408334],[-95.004348,35.413471],[-95.023733,35.430295],[-95.024933,35.453095],[-95.061234,35.465095],[-95.084035,35.460396],[-95.096136,35.485696],[-95.120836,35.505696],[-95.132437,35.526196],[-95.127464,35.638894],[-94.47265,35.638556],[-94.432515,35.392291]]]}},{"type":"Feature","properties":{"name":"Kay"},"geometry":{"type":"Polygon","coordinates":[[[-97.46228,36.998685],[-96.74984,36.998988],[-96.75246,36.782051],[-96.78866,36.781972],[-96.78869,36.767554],[-96.822587,36.767559],[-96.81901,36.755988],[-96.83038,36.744172],[-96.88858,36.751794],[-96.92055,36.717752],[-96.93194,36.686098],[-96.99432,36.687853],[-97.02419,36.693405],[-97.03252,36.701959],[-97.05324,36.69221],[-97.064107,36.684207],[-97.0646,36.66737],[-97.04382,36.600671],[-97.057415,36.593647],[-97.46246,36.593453],[-97.46228,36.998685]]]}},{"type":"Feature","properties":{"name":"Texas"},"geometry":{"type":"Polygon","coordinates":[[[-102.02821,36.993125],[-100.94568,36.998221],[-100.94549,36.848615],[-100.95383,36.848087],[-100.954146,36.499621],[-102.03234,36.500575],[-102.02821,36.993125]]]}},{"type":"Feature","properties":{"name":"Woodward"},"geometry":{"type":"Polygon","coordinates":[[[-99.29519,36.819566],[-99.29368,36.80527],[-99.25324,36.785376],[-99.16528,36.790642],[-99.13985,36.78304],[-99.08449,36.721582],[-99.05723,36.711296],[-99.04435,36.694948],[-99.04843,36.686823],[-99.02295,36.660227],[-99.02254,36.642434],[-98.97391,36.601515],[-98.959973,36.598992],[-98.95586,36.161569],[-99.59596,36.164059],[-99.59582,36.246701],[-99.60479,36.246629],[-99.605565,36.592753],[-99.29526,36.595123],[-99.29519,36.819566]]]}},{"type":"Feature","properties":{"name":"Delaware"},"geometry":{"type":"Polygon","coordinates":[[[-94.61808,36.667863],[-94.61792,36.499414],[-94.5628,36.161749],[-95.0113,36.161798],[-94.99957,36.670684],[-94.61808,36.667863]]]}},{"type":"Feature","properties":{"name":"Noble"},"geometry":{"type":"Polygon","coordinates":[[[-97.057415,36.593647],[-97.00287,36.582571],[-96.92048,36.600664],[-96.888017,36.574886],[-96.90126,36.551741],[-96.92471,36.552558],[-96.95852,36.534306],[-96.98815,36.532378],[-97.005918,36.520918],[-97.009785,36.506935],[-97.0322,36.507023],[-97.03209,36.333366],[-96.92494,36.333258],[-96.92512,36.246533],[-97.14107,36.246362],[-97.14076,36.159212],[-97.46074,36.164463],[-97.46164,36.593454],[-97.057415,36.593647]]]}},{"type":"Feature","properties":{"name":"Ellis"},"geometry":{"type":"Polygon","coordinates":[[[-99.605565,36.592753],[-99.60479,36.246629],[-99.59582,36.246701],[-99.59596,36.164059],[-99.38216,36.1643],[-99.38102,36.012925],[-99.44652,36.006987],[-99.4872,35.985048],[-99.49897,35.973504],[-99.5139,35.92767],[-99.55068,35.898774],[-99.55849,35.865988],[-99.601773,35.855871],[-99.61981,35.842089],[-99.7171,35.859769],[-99.74643,35.881962],[-99.77619,35.888166],[-99.81021,35.928889],[-99.80229,35.971603],[-99.80944,36.000044],[-99.830464,36.006326],[-99.85154,36.005128],[-99.872273,35.98871],[-99.89337,35.985295],[-99.91145,35.961924],[-99.90839,35.928122],[-99.9707,35.889439],[-100.0004,35.880948],[-100.003,36.593195],[-99.605565,36.592753]]]}},{"type":"Feature","properties":{"name":"Payne"},"geometry":{"type":"Polygon","coordinates":[[[-97.14107,36.246362],[-96.818968,36.246513],[-96.81908,36.158917],[-96.62144,36.159929],[-96.6211,35.941519],[-97.14052,35.941817],[-97.14048,35.958935],[-97.15915,35.944723],[-97.18608,35.940921],[-97.205841,35.945959],[-97.23429,35.9696],[-97.278712,35.974544],[-97.30052,36.009307],[-97.32862,36.008187],[-97.35387,35.984934],[-97.354009,36.159141],[-97.14076,36.159212],[-97.14107,36.246362]]]}},{"type":"Feature","properties":{"name":"Logan"},"geometry":{"type":"Polygon","coordinates":[[[-97.675712,36.164663],[-97.35388,36.164292],[-97.35387,35.984934],[-97.33183,36.006499],[-97.30861,36.010986],[-97.29281,36.003493],[-97.278712,35.974544],[-97.22119,35.964572],[-97.20359,35.944795],[-97.17238,35.941006],[-97.14048,35.958935],[-97.140997,35.724442],[-97.67392,35.725985],[-97.675712,36.164663]]]}},{"type":"Feature","properties":{"name":"Cherokee"},"geometry":{"type":"Polygon","coordinates":[[[-94.79728,36.16139],[-94.79721,35.90088],[-94.80733,35.900926],[-94.8073,35.638604],[-95.12746,35.638894],[-95.12751,35.812805],[-95.26568,35.813266],[-95.2665,35.820442],[-95.25333,35.826961],[-95.2275,35.862166],[-95.23232,35.872594],[-95.2577,35.877297],[-95.28156,35.904081],[-95.28182,35.916925],[-95.26861,35.931832],[-95.27761,35.966476],[-95.25219,35.987845],[-95.23444,35.991299],[-95.22547,36.0092],[-95.22534,36.039841],[-95.20797,36.039879],[-95.207946,36.074708],[-95.118198,36.074431],[-95.11846,36.161638],[-94.79728,36.16139]]]}},{"type":"Feature","properties":{"name":"Roger Mills"},"geometry":{"type":"Polygon","coordinates":[[[-99.38102,36.012925],[-99.37695,35.551739],[-99.36399,35.551675],[-99.3641,35.508825],[-99.5756,35.50895],[-99.57572,35.421693],[-100.000389,35.42234],[-100.0004,35.880948],[-99.9707,35.889439],[-99.90839,35.928122],[-99.91145,35.961924],[-99.89337,35.985295],[-99.872273,35.98871],[-99.8473,36.006078],[-99.81381,36.003076],[-99.80229,35.971603],[-99.81021,35.928889],[-99.77619,35.888166],[-99.74643,35.881962],[-99.7171,35.859769],[-99.62056,35.841955],[-99.601773,35.855871],[-99.55849,35.865988],[-99.55068,35.898774],[-99.5139,35.92767],[-99.49897,35.973504],[-99.4872,35.985048],[-99.44652,36.006987],[-99.38102,36.012925]]]}},{"type":"Feature","properties":{"name":"Seminole"},"geometry":{"type":"Polygon","coordinates":[[[-96.44129,35.467673],[-96.44135,35.115792],[-96.49043,35.11592],[-96.49079,34.910585],[-96.50029,34.893465],[-96.51459,34.873386],[-96.52859,34.869586],[-96.549579,34.887112],[-96.55889,34.915284],[-96.57709,34.916584],[-96.61319,34.900484],[-96.63679,34.898784],[-96.66539,34.928383],[-96.69197,34.933312],[-96.71209,34.913883],[-96.68699,34.891283],[-96.69239,34.871184],[-96.716592,34.858284],[-96.73369,34.859684],[-96.75552,34.899809],[-96.77568,34.899958],[-96.7767,35.411374],[-96.774212,35.405957],[-96.74296,35.40681],[-96.73312,35.415856],[-96.73819,35.419723],[-96.724627,35.425084],[-96.717075,35.420073],[-96.71973,35.41206],[-96.703455,35.416664],[-96.69003,35.403823],[-96.652826,35.391778],[-96.6365,35.399257],[-96.63111,35.392457],[-96.62416,35.400973],[-96.5998,35.397092],[-96.58569,35.411607],[-96.57663,35.402132],[-96.55583,35.402567],[-96.55664,35.3949],[-96.53708,35.390663],[-96.53187,35.400092],[-96.53727,35.41101],[-96.55259,35.423076],[-96.55731,35.419048],[-96.555856,35.434567],[-96.56978,35.439671],[-96.55468,35.453724],[-96.54388,35.457592],[-96.519501,35.431559],[-96.49755,35.428627],[-96.48446,35.436369],[-96.48816,35.448269],[-96.47561,35.463426],[-96.4464,35.458442],[-96.44129,35.467673]]]}},{"type":"Feature","properties":{"name":"Washita"},"geometry":{"type":"Polygon","coordinates":[[[-99.36432,35.465381],[-98.62323,35.464419],[-98.61801,35.101703],[-98.62278,35.097581],[-98.63758,35.122688],[-98.64241,35.112222],[-98.64974,35.114309],[-98.64257,35.119918],[-98.65127,35.124181],[-98.67223,35.119009],[-98.677251,35.10797],[-98.68433,35.114314],[-98.68416,35.107169],[-98.69737,35.111932],[-98.71245,35.104761],[-98.72009,35.108401],[-98.716775,35.113349],[-98.73121,35.114124],[-98.73586,35.101044],[-98.74897,35.116452],[-99.36008,35.116684],[-99.36432,35.465381]]]}},{"type":"Feature","properties":{"name":"Haskell"},"geometry":{"type":"Polygon","coordinates":[[[-95.04993,35.458894],[-95.02493,35.453095],[-95.02373,35.430295],[-95.00435,35.413471],[-94.95133,35.408334],[-94.92574,35.392845],[-94.90183,35.39794],[-94.89327,35.375095],[-94.91828,35.355345],[-94.91663,35.348731],[-94.87242,35.354526],[-94.83854,35.370203],[-94.82897,35.361546],[-94.825099,35.331867],[-94.81363,35.323344],[-94.81428,35.202331],[-94.927941,35.202564],[-94.92786,35.058279],[-95.34941,35.05828],[-95.349351,35.160297],[-95.45496,35.160412],[-95.45125,35.296019],[-95.43045,35.302997],[-95.411153,35.323397],[-95.39025,35.327497],[-95.35565,35.304697],[-95.35158,35.290231],[-95.30095,35.301397],[-95.25698,35.265766],[-95.23134,35.265927],[-95.20941,35.28382],[-95.19919,35.303592],[-95.171763,35.305553],[-95.1806,35.344023],[-95.16767,35.353053],[-95.14802,35.345953],[-95.1413,35.355565],[-95.16077,35.369358],[-95.13704,35.380296],[-95.12037,35.372737],[-95.10264,35.396896],[-95.086036,35.405896],[-95.07053,35.447096],[-95.04993,35.458894]]]}},{"type":"Feature","properties":{"name":"Grady"},"geometry":{"type":"Polygon","coordinates":[[[-98.09596,35.377726],[-98.017466,35.381388],[-98.01006,35.364554],[-97.96046,35.347519],[-97.9499,35.352009],[-97.94082,35.376909],[-97.923172,35.356167],[-97.89633,35.345226],[-97.86378,35.361394],[-97.85597,35.342139],[-97.84178,35.333595],[-97.76498,35.342476],[-97.73571,35.324253],[-97.67159,35.335934],[-97.668431,34.681339],[-98.08908,34.681106],[-98.09596,35.377726]]]}},{"type":"Feature","properties":{"name":"Pittsburg"},"geometry":{"type":"Polygon","coordinates":[[[-95.45125,35.296019],[-95.45496,35.160412],[-95.349351,35.160297],[-95.34944,35.029299],[-95.50766,35.029197],[-95.51431,34.594153],[-95.88217,34.593521],[-95.8821,34.680475],[-96.09217,34.680586],[-96.08886,35.049758],[-96.0701,35.055513],[-96.06094,35.091577],[-96.029969,35.120336],[-96.00975,35.118034],[-96.012263,35.145106],[-95.96768,35.152596],[-95.90667,35.143796],[-95.888374,35.155696],[-95.86987,35.186597],[-95.83727,35.184497],[-95.80417,35.196298],[-95.78637,35.195998],[-95.75687,35.176898],[-95.74229,35.192509],[-95.717197,35.188966],[-95.70715,35.202301],[-95.67911,35.203869],[-95.67687,35.224798],[-95.62426,35.247998],[-95.61026,35.249698],[-95.60336,35.240398],[-95.62246,35.224698],[-95.59938,35.221651],[-95.57036,35.245498],[-95.51496,35.263197],[-95.51906,35.281197],[-95.50366,35.299897],[-95.45125,35.296019]]]}},{"type":"Feature","properties":{"name":"Hughes"},"geometry":{"type":"Polygon","coordinates":[[[-95.98138,35.289899],[-95.98371,35.151557],[-96.012263,35.145106],[-96.00975,35.118034],[-96.029969,35.120336],[-96.06094,35.091577],[-96.0701,35.055513],[-96.08884,35.049863],[-96.09212,34.76759],[-96.40648,34.76759],[-96.40625,34.93235],[-96.42629,34.903286],[-96.47027,34.916993],[-96.49079,34.910585],[-96.49043,35.11592],[-96.44135,35.115792],[-96.44139,35.290095],[-95.98138,35.289899]]]}},{"type":"Feature","properties":{"name":"Pontotoc"},"geometry":{"type":"Polygon","coordinates":[[[-96.79908,34.9064],[-96.75552,34.899809],[-96.73249,34.858884],[-96.71239,34.859684],[-96.69418,34.868495],[-96.6863,34.887976],[-96.71149,34.916283],[-96.699493,34.930282],[-96.68161,34.93286],[-96.66399,34.927383],[-96.64699,34.902184],[-96.63679,34.898784],[-96.61319,34.900484],[-96.57709,34.916584],[-96.55889,34.915284],[-96.545984,34.882272],[-96.52259,34.869786],[-96.48927,34.911648],[-96.47027,34.916993],[-96.42629,34.903286],[-96.40625,34.93235],[-96.4065,34.680163],[-96.51213,34.680016],[-96.51248,34.505525],[-96.82729,34.505989],[-96.82729,34.59317],[-96.93242,34.593101],[-96.93059,34.964364],[-96.91084,34.958972],[-96.8854,34.926251],[-96.85237,34.92877],[-96.81587,34.945744],[-96.79821,34.929992],[-96.79908,34.9064]]]}},{"type":"Feature","properties":{"name":"Okfuskee"},"geometry":{"type":"Polygon","coordinates":[[[-96.62065,35.639005],[-96.19256,35.639087],[-96.19284,35.551902],[-96.08779,35.552119],[-96.08737,35.376993],[-95.98131,35.376828],[-95.98138,35.289899],[-96.44139,35.290095],[-96.44129,35.467673],[-96.4464,35.458442],[-96.47561,35.463426],[-96.48816,35.448269],[-96.48446,35.436369],[-96.49755,35.428627],[-96.519501,35.431559],[-96.54388,35.457592],[-96.55468,35.453724],[-96.56978,35.439671],[-96.555856,35.434567],[-96.55731,35.419048],[-96.55259,35.423076],[-96.53727,35.41101],[-96.53635,35.390892],[-96.55664,35.3949],[-96.55583,35.402567],[-96.57663,35.402132],[-96.58569,35.411607],[-96.5998,35.397092],[-96.6237,35.400956],[-96.62065,35.639005]]]}},{"type":"Feature","properties":{"name":"Cotton"},"geometry":{"type":"Polygon","coordinates":[[[-98.14214,34.507042],[-98.139072,34.14187],[-98.15543,34.121795],[-98.16912,34.114171],[-98.20173,34.117058],[-98.23247,34.134641],[-98.29084,34.132424],[-98.32544,34.151025],[-98.36562,34.156993],[-98.38438,34.146317],[-98.38009,34.130831],[-98.39844,34.128456],[-98.39978,34.099973],[-98.41137,34.100324],[-98.41443,34.085074],[-98.44009,34.084311],[-98.44903,34.073462],[-98.46513,34.073729],[-98.48355,34.062277],[-98.56098,34.123922],[-98.55088,34.132583],[-98.59979,34.160571],[-98.610158,34.157098],[-98.609502,34.33369],[-98.661719,34.333467],[-98.662,34.406007],[-98.60938,34.406184],[-98.60939,34.420638],[-98.50473,34.420426],[-98.50474,34.449333],[-98.29582,34.449072],[-98.29582,34.463547],[-98.24415,34.463765],[-98.24402,34.506968],[-98.14214,34.507042]]]}},{"type":"Feature","properties":{"name":"Carter"},"geometry":{"type":"Polygon","coordinates":[[[-97.35211,34.506788],[-97.35216,34.376227],[-97.036488,34.375415],[-97.03136,34.351267],[-97.04282,34.342541],[-97.029013,34.332601],[-96.93346,34.332661],[-96.93367,34.172553],[-96.96841,34.172617],[-96.96808,34.070834],[-97.562388,34.071074],[-97.56236,34.506925],[-97.35211,34.506788]]]}},{"type":"Feature","properties":{"name":"Cleveland"},"geometry":{"type":"Polygon","coordinates":[[[-97.14182,35.376818],[-97.142257,34.928448],[-97.189531,34.92898],[-97.212902,34.94512],[-97.227035,34.93273],[-97.234501,34.945397],[-97.2593,34.95584],[-97.282319,34.954662],[-97.281083,34.965904],[-97.323639,34.953678],[-97.321482,34.968427],[-97.348144,34.972684],[-97.352102,34.989525],[-97.345802,35.008455],[-97.356135,35.032439],[-97.347748,35.039727],[-97.356327,35.079132],[-97.367549,35.085695],[-97.386323,35.080911],[-97.403567,35.090209],[-97.406293,35.137905],[-97.434317,35.145047],[-97.491547,35.202358],[-97.504045,35.202372],[-97.518211,35.216566],[-97.52937,35.209119],[-97.547578,35.217365],[-97.566264,35.244173],[-97.552896,35.24969],[-97.564465,35.257255],[-97.554254,35.278588],[-97.569979,35.298892],[-97.620074,35.303463],[-97.650223,35.332326],[-97.670192,35.332803],[-97.67122,35.37726],[-97.14182,35.376818]]]}},{"type":"Feature","properties":{"name":"Garvin"},"geometry":{"type":"Polygon","coordinates":[[[-96.93263,34.854473],[-96.93245,34.636727],[-97.14267,34.637032],[-97.14237,34.622584],[-97.199431,34.622729],[-97.19045,34.59649],[-97.16679,34.587634],[-97.174431,34.585302],[-97.16431,34.573638],[-97.17574,34.570518],[-97.15717,34.563527],[-97.16449,34.55913],[-97.15773,34.551495],[-97.16523,34.53109],[-97.15682,34.52173],[-97.144282,34.522017],[-97.15263,34.516175],[-97.14387,34.506533],[-97.563027,34.506948],[-97.562757,34.681147],[-97.668431,34.681339],[-97.668,34.855137],[-96.93263,34.854473]]]}},{"type":"Feature","properties":{"name":"Pushmataha"},"geometry":{"type":"Polygon","coordinates":[[[-95.514514,34.681142],[-94.93775,34.680877],[-94.9376,34.506887],[-95.046746,34.507229],[-95.04658,34.243671],[-95.151233,34.243906],[-95.15129,34.157024],[-95.77938,34.156699],[-95.77942,34.506556],[-95.6717,34.506799],[-95.67198,34.593852],[-95.51431,34.594153],[-95.514514,34.681142]]]}},{"type":"Feature","properties":{"name":"Rogers"},"geometry":{"type":"Polygon","coordinates":[[[-95.43551,36.510154],[-95.44012,36.075226],[-95.57152,36.075282],[-95.5799,36.082991],[-95.55705,36.082109],[-95.55259,36.091486],[-95.57013,36.110733],[-95.56785,36.129951],[-95.6047,36.13346],[-95.61748,36.148485],[-95.61853,36.162696],[-95.815357,36.162555],[-95.812252,36.39459],[-95.794284,36.394538],[-95.794403,36.423584],[-95.812423,36.423602],[-95.81245,36.597516],[-95.32842,36.597573],[-95.32803,36.510263],[-95.43551,36.510154]]]}},{"type":"Feature","properties":{"name":"Creek"},"geometry":{"type":"Polygon","coordinates":[[[-96.033121,35.856822],[-96.192482,35.857021],[-96.19256,35.639087],[-96.620648,35.639005],[-96.62133,36.163553],[-96.297883,36.162276],[-96.297793,36.07575],[-96.029569,36.075367],[-96.033121,35.856822]]]}},{"type":"Feature","properties":{"name":"Pawnee"},"geometry":{"type":"Polygon","coordinates":[[[-96.76171,36.564267],[-96.73724,36.550088],[-96.72349,36.520178],[-96.724852,36.503204],[-96.7079,36.489996],[-96.71794,36.45096],[-96.702,36.431369],[-96.67493,36.420428],[-96.63499,36.425668],[-96.60645,36.403268],[-96.60138,36.381461],[-96.5876,36.374068],[-96.5736,36.375061],[-96.54072,36.400402],[-96.525926,36.393559],[-96.51989,36.368359],[-96.570403,36.335649],[-96.57355,36.316234],[-96.566812,36.308367],[-96.54868,36.298644],[-96.51992,36.297149],[-96.48557,36.329976],[-96.45768,36.332664],[-96.42971,36.281845],[-96.38679,36.267137],[-96.34,36.230024],[-96.25396,36.223772],[-96.24305,36.200241],[-96.26918,36.173684],[-96.268368,36.162059],[-96.81908,36.158917],[-96.818968,36.246513],[-96.92512,36.246533],[-96.92494,36.333258],[-97.03209,36.333366],[-97.0322,36.507023],[-97.009785,36.506935],[-97.00547,36.486026],[-96.98196,36.466059],[-96.93528,36.455939],[-96.912476,36.467841],[-96.87374,36.47182],[-96.82057,36.539391],[-96.76171,36.564267]]]}},{"type":"Feature","properties":{"name":"Tulsa"},"geometry":{"type":"Polygon","coordinates":[[[-95.761683,36.162672],[-95.761687,35.900811],[-95.819455,35.901074],[-95.81941,35.856206],[-96.033121,35.856822],[-96.029569,36.075367],[-96.297793,36.07575],[-96.297883,36.162276],[-96.00119,36.161301],[-96.001181,36.423682],[-95.794403,36.423584],[-95.794284,36.394538],[-95.812252,36.39459],[-95.815357,36.162555],[-95.761683,36.162672]]]}},{"type":"Feature","properties":{"name":"Osage"},"geometry":{"type":"Polygon","coordinates":[[[-96.00081,36.99886],[-96.001189,36.1613],[-96.268368,36.162059],[-96.269183,36.173684],[-96.24305,36.200241],[-96.25396,36.223772],[-96.34,36.230024],[-96.38679,36.267137],[-96.42971,36.281845],[-96.45768,36.332664],[-96.48557,36.329976],[-96.51992,36.297149],[-96.54868,36.298644],[-96.566812,36.308367],[-96.57355,36.316234],[-96.570403,36.335649],[-96.51989,36.368359],[-96.525926,36.393559],[-96.54072,36.400402],[-96.5736,36.375061],[-96.5876,36.374068],[-96.60138,36.381461],[-96.60645,36.403268],[-96.63499,36.425668],[-96.67493,36.420428],[-96.702,36.431369],[-96.71794,36.45096],[-96.70764,36.489366],[-96.724852,36.503204],[-96.73267,36.543233],[-96.75355,36.562601],[-96.76947,36.565403],[-96.82057,36.539391],[-96.85474,36.487963],[-96.875314,36.47092],[-96.911686,36.468039],[-96.93913,36.45548],[-96.98196,36.466059],[-97.00696,36.489211],[-97.005918,36.520918],[-96.9818,36.534489],[-96.9528,36.536174],[-96.92471,36.552558],[-96.90126,36.551741],[-96.88802,36.574886],[-96.92048,36.600664],[-97.002875,36.582571],[-97.05588,36.592462],[-97.0571,36.597833],[-97.04382,36.600671],[-97.05211,36.612579],[-97.05152,36.641225],[-97.06307,36.655738],[-97.06411,36.684207],[-97.03252,36.701959],[-97.02419,36.693405],[-96.99432,36.687853],[-96.93194,36.686098],[-96.92055,36.717752],[-96.88858,36.751794],[-96.83038,36.744172],[-96.81901,36.755988],[-96.822587,36.767559],[-96.78869,36.767554],[-96.78866,36.781972],[-96.75246,36.782051],[-96.74984,36.998988],[-96.00081,36.99886]]]}},{"type":"Feature","properties":{"name":"Muskogee"},"geometry":{"type":"Polygon","coordinates":[[[-95.12751,35.812805],[-95.13244,35.526196],[-95.12084,35.505696],[-95.09614,35.485696],[-95.08563,35.461396],[-95.061234,35.465095],[-95.04993,35.458894],[-95.07053,35.447096],[-95.08604,35.405896],[-95.10264,35.396896],[-95.12037,35.372737],[-95.13704,35.380296],[-95.16077,35.369358],[-95.1413,35.355565],[-95.14802,35.345953],[-95.16767,35.353053],[-95.1806,35.344023],[-95.17318,35.303859],[-95.19919,35.303592],[-95.22136,35.272821],[-95.245916,35.261808],[-95.30095,35.301397],[-95.34465,35.293097],[-95.34503,35.552241],[-95.712957,35.551802],[-95.71308,35.725877],[-95.76621,35.725713],[-95.766168,35.856457],[-95.65042,35.856756],[-95.63908,35.834854],[-95.63842,35.787539],[-95.58862,35.764434],[-95.54788,35.789014],[-95.47425,35.804499],[-95.42615,35.798399],[-95.36143,35.820659],[-95.34446,35.813667],[-95.12751,35.812805]]]}},{"type":"Feature","properties":{"name":"Wagoner"},"geometry":{"type":"Polygon","coordinates":[[[-95.76169,35.900811],[-95.761683,36.162503],[-95.61853,36.162696],[-95.61748,36.148485],[-95.6047,36.13346],[-95.56785,36.129951],[-95.57013,36.110733],[-95.55259,36.091486],[-95.55705,36.082109],[-95.5799,36.082991],[-95.57152,36.075282],[-95.20795,36.074708],[-95.20797,36.039879],[-95.22534,36.039841],[-95.22547,36.0092],[-95.23444,35.991299],[-95.25219,35.987845],[-95.2787,35.964102],[-95.26861,35.931832],[-95.28182,35.916925],[-95.28156,35.904081],[-95.2577,35.877297],[-95.23232,35.872594],[-95.2275,35.862166],[-95.25333,35.826961],[-95.2665,35.820442],[-95.26568,35.813266],[-95.34446,35.813667],[-95.36143,35.820659],[-95.42615,35.798399],[-95.477552,35.804199],[-95.55338,35.787227],[-95.58566,35.764686],[-95.63842,35.787539],[-95.63908,35.834854],[-95.65042,35.856756],[-95.81941,35.856206],[-95.819455,35.901074],[-95.76169,35.900811]]]}},{"type":"Feature","properties":{"name":"Kiowa"},"geometry":{"type":"Polygon","coordinates":[[[-99.40929,35.114509],[-98.74897,35.116452],[-98.73586,35.101044],[-98.73121,35.114124],[-98.716775,35.113349],[-98.72009,35.108401],[-98.71245,35.104761],[-98.69737,35.111932],[-98.684943,35.107078],[-98.68478,35.1142],[-98.677251,35.10797],[-98.67223,35.119009],[-98.65191,35.124159],[-98.64257,35.119918],[-98.65068,35.115615],[-98.64341,35.111627],[-98.63892,35.123169],[-98.62105,35.097352],[-98.61982,34.854953],[-98.82629,34.855411],[-98.8262,34.594222],[-99.00089,34.594345],[-99.00103,34.637819],[-99.10315,34.637989],[-99.0938,34.671341],[-99.044,34.676955],[-99.03792,34.69088],[-99.05318,34.70174],[-99.1024,34.695435],[-99.14911,34.702352],[-99.1586,34.710051],[-99.15413,34.722625],[-99.17304,34.755293],[-99.1623,34.751535],[-99.1636,34.759598],[-99.15028,34.762],[-99.16343,34.7686],[-99.16551,34.787451],[-99.14943,34.794777],[-99.15366,34.827669],[-99.14428,34.828354],[-99.15341,34.835708],[-99.14457,34.84954],[-99.16894,34.847874],[-99.17658,34.858113],[-99.19136,34.857999],[-99.19322,34.843753],[-99.21436,34.837565],[-99.21238,34.826411],[-99.22702,34.828445],[-99.238656,34.816073],[-99.25608,34.836341],[-99.27794,34.839373],[-99.31728,34.871489],[-99.31097,34.888743],[-99.2913,34.886233],[-99.29846,34.899119],[-99.289432,34.903122],[-99.29839,34.924067],[-99.314748,34.925886],[-99.31014,34.934089],[-99.33082,34.94476],[-99.33433,34.972769],[-99.34408,34.971102],[-99.347981,34.982415],[-99.33505,34.988453],[-99.32659,35.017103],[-99.33629,35.02478],[-99.32359,35.038493],[-99.34902,35.042803],[-99.35215,35.052813],[-99.3709,35.05342],[-99.37265,35.060284],[-99.36492,35.061644],[-99.36837,35.087867],[-99.37536,35.082882],[-99.37734,35.092217],[-99.398182,35.094195],[-99.39773,35.104708],[-99.40929,35.114509]]]}},{"type":"Feature","properties":{"name":"Greer"},"geometry":{"type":"Polygon","coordinates":[[[-99.40929,35.114509],[-99.39773,35.104708],[-99.398182,35.094195],[-99.37734,35.092217],[-99.37536,35.082882],[-99.36837,35.087867],[-99.36492,35.061644],[-99.37265,35.060284],[-99.3709,35.05342],[-99.35215,35.052813],[-99.34902,35.042803],[-99.32359,35.038493],[-99.33629,35.02478],[-99.32659,35.017103],[-99.33505,34.988453],[-99.347981,34.982415],[-99.34408,34.971102],[-99.33433,34.972769],[-99.33082,34.94476],[-99.31014,34.934089],[-99.314748,34.925886],[-99.29839,34.924067],[-99.289432,34.903122],[-99.29846,34.899119],[-99.2913,34.886233],[-99.31097,34.888743],[-99.31728,34.871489],[-99.27794,34.839373],[-99.25608,34.836341],[-99.24642,34.811991],[-99.40579,34.813032],[-99.405695,34.76901],[-99.43732,34.769133],[-99.44066,34.761469],[-99.44194,34.728055],[-99.42319,34.725031],[-99.6669,34.724638],[-99.66736,34.753712],[-99.68493,34.753645],[-99.68501,34.768281],[-99.72007,34.768298],[-99.72,34.857033],[-99.73107,34.85699],[-99.73124,34.944115],[-99.888425,34.943946],[-99.88857,35.030262],[-99.78295,35.030111],[-99.78283,35.116777],[-99.44066,35.116538],[-99.44103,35.109839],[-99.43066,35.108218],[-99.40929,35.114509]]]}},{"type":"Feature","properties":{"name":"Harper"},"geometry":{"type":"Polygon","coordinates":[[[-100.00256,37.001706],[-99.44341,36.995491],[-99.42479,36.947702],[-99.39748,36.920794],[-99.3748,36.880239],[-99.31429,36.856191],[-99.31655,36.840518],[-99.29524,36.819806],[-99.29526,36.595123],[-100.003,36.593195],[-100.00256,37.001706]]]}},{"type":"Feature","properties":{"name":"Mcintosh"},"geometry":{"type":"Polygon","coordinates":[[[-95.98131,35.376828],[-95.87563,35.37669],[-95.875572,35.463578],[-95.8234,35.463969],[-95.822317,35.551726],[-95.34503,35.552241],[-95.34465,35.293097],[-95.35158,35.290231],[-95.35565,35.304697],[-95.39025,35.327497],[-95.411153,35.323397],[-95.43045,35.302997],[-95.45765,35.293797],[-95.50036,35.300897],[-95.51906,35.281197],[-95.51496,35.263197],[-95.57036,35.245498],[-95.59938,35.221651],[-95.62246,35.224698],[-95.60336,35.240398],[-95.61026,35.249698],[-95.62426,35.247998],[-95.67687,35.224798],[-95.67911,35.203869],[-95.70715,35.202301],[-95.717197,35.188966],[-95.74229,35.192509],[-95.75687,35.176898],[-95.798472,35.196998],[-95.83727,35.184497],[-95.86987,35.186597],[-95.888374,35.155696],[-95.90667,35.143796],[-95.98371,35.151557],[-95.98131,35.376828]]]}},{"type":"Feature","properties":{"name":"Choctaw"},"geometry":{"type":"Polygon","coordinates":[[[-95.99158,34.156816],[-95.15644,34.157027],[-95.15589,33.936831],[-95.23049,33.960764],[-95.23383,33.94771],[-95.25362,33.93184],[-95.2482,33.912327],[-95.25353,33.894198],[-95.26743,33.886305],[-95.26852,33.909979],[-95.27709,33.910921],[-95.28535,33.90165],[-95.27998,33.878202],[-95.29437,33.872542],[-95.33345,33.886286],[-95.33976,33.868752],[-95.44737,33.86885],[-95.464211,33.873372],[-95.46134,33.889219],[-95.5046,33.875634],[-95.51025,33.893738],[-95.5452,33.880294],[-95.559414,33.930179],[-95.59556,33.941643],[-95.603657,33.927195],[-95.63698,33.906613],[-95.66534,33.908132],[-95.694739,33.885813],[-95.746072,33.895917],[-95.75746,33.891824],[-95.765223,33.871026],[-95.8406,33.874163],[-95.86119,33.887385],[-95.87878,33.916019],[-95.91754,33.924178],[-95.93586,33.942283],[-95.9382,34.125591],[-95.95017,34.129454],[-95.95488,34.149595],[-95.99158,34.156816]]]}},{"type":"Feature","properties":{"name":"Love"},"geometry":{"type":"Polygon","coordinates":[[[-96.970006,34.07083],[-96.96972,34.013008],[-96.93479,34.012942],[-96.93484,33.954453],[-96.97287,33.935698],[-96.97941,33.956178],[-96.99429,33.949206],[-96.984691,33.888647],[-97.02346,33.844465],[-97.04355,33.838517],[-97.06457,33.859976],[-97.08749,33.853723],[-97.08946,33.840692],[-97.05672,33.835817],[-97.04797,33.817931],[-97.09211,33.804097],[-97.08619,33.743933],[-97.113265,33.718804],[-97.15422,33.723938],[-97.19328,33.760152],[-97.18779,33.769702],[-97.205431,33.801488],[-97.20499,33.81887],[-97.195831,33.830803],[-97.17163,33.835335],[-97.16663,33.847311],[-97.18084,33.895204],[-97.20614,33.91428],[-97.24209,33.906277],[-97.25662,33.863286],[-97.27911,33.864555],[-97.309172,33.888698],[-97.31244,33.869851],[-97.33206,33.855056],[-97.32334,33.87917],[-97.332457,33.884253],[-97.34721,33.845113],[-97.379325,33.818948],[-97.42649,33.819398],[-97.45306,33.828536],[-97.46291,33.842895],[-97.45095,33.891398],[-97.46142,33.90523],[-97.486505,33.916994],[-97.50096,33.919643],[-97.56069,33.89861],[-97.560927,33.983973],[-97.53682,33.983877],[-97.56087,34.002978],[-97.56076,34.071089],[-96.970006,34.07083]]]}},{"type":"Feature","properties":{"name":"Pottawatomie"},"geometry":{"type":"Polygon","coordinates":[[[-96.62487,35.462726],[-96.6237,35.400956],[-96.63111,35.392457],[-96.6365,35.399257],[-96.652826,35.391778],[-96.69003,35.403823],[-96.703455,35.416664],[-96.71973,35.41206],[-96.717075,35.420073],[-96.724627,35.425084],[-96.73819,35.419723],[-96.73312,35.415856],[-96.74296,35.40681],[-96.774212,35.405957],[-96.7767,35.411374],[-96.77568,34.899958],[-96.79908,34.9064],[-96.79821,34.929992],[-96.81587,34.945744],[-96.85237,34.92877],[-96.8854,34.926251],[-96.91084,34.958972],[-96.931998,34.965797],[-97.011134,34.908742],[-97.087172,34.931956],[-97.115537,34.921396],[-97.123789,34.935056],[-97.142257,34.928448],[-97.14123,35.464064],[-96.62487,35.462726]]]}},{"type":"Feature","properties":{"name":"Jackson"},"geometry":{"type":"Polygon","coordinates":[[[-99.14957,34.794502],[-99.16551,34.787451],[-99.16343,34.7686],[-99.15028,34.762],[-99.1636,34.759598],[-99.1623,34.751535],[-99.17304,34.755293],[-99.154292,34.723129],[-99.15599,34.706843],[-99.09858,34.69523],[-99.05318,34.70174],[-99.03709,34.687215],[-99.044,34.676955],[-99.09507,34.6696],[-99.1031,34.637393],[-99.08028,34.622349],[-99.08064,34.614745],[-99.09195,34.612521],[-99.083103,34.590442],[-99.09479,34.587255],[-99.10169,34.594102],[-99.12459,34.582983],[-99.13221,34.59208],[-99.16332,34.588036],[-99.184897,34.561422],[-99.17111,34.54715],[-99.17875,34.539684],[-99.19567,34.544998],[-99.208391,34.503697],[-99.221889,34.49332],[-99.22432,34.480217],[-99.21486,34.481022],[-99.22118,34.463519],[-99.21305,34.456994],[-99.22925,34.449888],[-99.22164,34.425404],[-99.22802,34.419561],[-99.23762,34.427528],[-99.23575,34.402927],[-99.226051,34.400709],[-99.22825,34.387194],[-99.20955,34.392811],[-99.22054,34.375903],[-99.20764,34.374238],[-99.19399,34.357564],[-99.19828,34.339622],[-99.229994,34.340538],[-99.23659,34.3658],[-99.24822,34.367421],[-99.242945,34.372668],[-99.2587,34.372634],[-99.27493,34.384904],[-99.25898,34.391243],[-99.26132,34.403499],[-99.280088,34.400642],[-99.29465,34.415373],[-99.31961,34.408869],[-99.35671,34.442144],[-99.35553,34.453139],[-99.36961,34.458699],[-99.39496,34.442099],[-99.3969,34.418688],[-99.38693,34.410943],[-99.40516,34.372865],[-99.4246,34.385916],[-99.43076,34.371183],[-99.43798,34.371238],[-99.45348,34.388756],[-99.460741,34.38076],[-99.46608,34.395991],[-99.48722,34.397955],[-99.51428,34.414035],[-99.5697,34.418418],[-99.58006,34.416653],[-99.58544,34.388914],[-99.60003,34.374688],[-99.6242,34.373577],[-99.64651,34.382541],[-99.6627,34.37368],[-99.694528,34.378218],[-99.720259,34.406295],[-99.75425,34.421289],[-99.76723,34.430502],[-99.7656,34.437488],[-99.79368,34.453894],[-99.81431,34.476204],[-99.82184,34.497848],[-99.84458,34.506915],[-99.66656,34.507131],[-99.6669,34.724638],[-99.42319,34.725031],[-99.44194,34.728055],[-99.44066,34.761469],[-99.43732,34.769133],[-99.405695,34.76901],[-99.40579,34.813032],[-99.24642,34.811991],[-99.246462,34.822114],[-99.2351,34.815937],[-99.22702,34.828445],[-99.21238,34.826411],[-99.21436,34.837565],[-99.200193,34.837842],[-99.19316,34.856533],[-99.183079,34.859488],[-99.16997,34.848081],[-99.14457,34.84954],[-99.15341,34.835708],[-99.14428,34.828354],[-99.15366,34.827669],[-99.14957,34.794502]]]}},{"type":"Feature","properties":{"name":"Nowata"},"geometry":{"type":"Polygon","coordinates":[[[-95.78676,36.99931],[-95.40768,36.999241],[-95.40784,36.942649],[-95.431733,36.942778],[-95.43151,36.597552],[-95.80962,36.597476],[-95.809992,36.941875],[-95.786819,36.941919],[-95.78676,36.99931]]]}},{"type":"Feature","properties":{"name":"Cimarron"},"geometry":{"type":"Polygon","coordinates":[[[-102.02821,36.993125],[-102.03234,36.500575],[-103.00243,36.500397],[-103.002199,37.000104],[-102.02821,36.993125]]]}},{"type":"Feature","properties":{"name":"McCurtain"},"geometry":{"type":"Polygon","coordinates":[[[-94.46115,34.507457],[-94.48909,33.626778],[-94.50836,33.621188],[-94.517468,33.633056],[-94.51984,33.618077],[-94.529119,33.61627],[-94.53505,33.625414],[-94.51853,33.63757],[-94.52749,33.641346],[-94.56897,33.627452],[-94.568234,33.637624],[-94.55131,33.64457],[-94.54491,33.655984],[-94.55036,33.660653],[-94.59047,33.645071],[-94.56034,33.666591],[-94.58078,33.666392],[-94.57962,33.677623],[-94.58818,33.686267],[-94.596,33.663867],[-94.60566,33.664351],[-94.62145,33.682594],[-94.6392,33.663737],[-94.66865,33.663846],[-94.66261,33.674946],[-94.64534,33.673644],[-94.6504,33.68444],[-94.638647,33.695812],[-94.64371,33.701522],[-94.651402,33.685843],[-94.6669,33.694582],[-94.68479,33.684353],[-94.71619,33.687902],[-94.71443,33.697189],[-94.70156,33.702878],[-94.73397,33.715688],[-94.71594,33.694918],[-94.71953,33.688857],[-94.73513,33.691267],[-94.7538,33.708663],[-94.73613,33.71608],[-94.733413,33.725191],[-94.74209,33.726692],[-94.75137,33.71354],[-94.75774,33.717817],[-94.74777,33.72508],[-94.75182,33.734326],[-94.768695,33.726989],[-94.788637,33.735669],[-94.77681,33.746437],[-94.758948,33.748532],[-94.763276,33.759896],[-94.77219,33.760356],[-94.78007,33.744469],[-94.802833,33.732699],[-94.81702,33.740007],[-94.81215,33.750936],[-94.820707,33.768964],[-94.83087,33.759985],[-94.82199,33.732878],[-94.82793,33.741053],[-94.8698,33.746053],[-94.87712,33.753123],[-94.86695,33.761862],[-94.86832,33.769144],[-94.87456,33.769618],[-94.876,33.75696],[-94.92153,33.790472],[-94.91088,33.815915],[-94.92109,33.829112],[-94.92662,33.827557],[-94.92329,33.808742],[-94.9462,33.807367],[-94.95352,33.816475],[-94.94389,33.830226],[-94.9644,33.837021],[-94.9702,33.861817],[-94.98849,33.851],[-95.008376,33.866089],[-95.04657,33.862565],[-95.0601,33.901873],[-95.07241,33.902699],[-95.07247,33.895555],[-95.07588,33.901846],[-95.06423,33.910156],[-95.06627,33.9168],[-95.073966,33.915636],[-95.08241,33.879882],[-95.08839,33.880522],[-95.10067,33.895575],[-95.08035,33.907784],[-95.07962,33.919534],[-95.12097,33.904474],[-95.13164,33.913926],[-95.123298,33.933462],[-95.15589,33.936831],[-95.151233,34.243906],[-95.04658,34.243671],[-95.046746,34.507229],[-94.46115,34.507457]]]}},{"type":"Feature","properties":{"name":"Craig"},"geometry":{"type":"Polygon","coordinates":[[[-95.40768,36.999241],[-95.00762,36.999514],[-95.03412,36.994225],[-95.028065,36.97675],[-95.03773,36.974899],[-94.99318,36.949104],[-94.9993,36.943268],[-95.00572,36.509779],[-95.32803,36.510263],[-95.32842,36.597573],[-95.43151,36.597552],[-95.431733,36.942778],[-95.40784,36.942649],[-95.40768,36.999241]]]}},{"type":"Feature","properties":{"name":"Ottawa"},"geometry":{"type":"Polygon","coordinates":[[[-94.99957,36.670684],[-94.9993,36.943268],[-94.99318,36.949104],[-95.03735,36.973988],[-95.028065,36.97675],[-95.03412,36.994225],[-95.00762,36.999514],[-94.61808,36.998135],[-94.61808,36.667863],[-94.99957,36.670684]]]}},{"type":"Feature","properties":{"name":"Grant"},"geometry":{"type":"Polygon","coordinates":[[[-98.11198,36.998133],[-97.46228,36.998685],[-97.46246,36.593453],[-98.109294,36.593679],[-98.11198,36.998133]]]}},{"type":"Feature","properties":{"name":"Alfalfa"},"geometry":{"type":"Polygon","coordinates":[[[-98.54487,36.998997],[-98.11198,36.998133],[-98.10462,36.463164],[-98.53357,36.46333],[-98.54487,36.998997]]]}},{"type":"Feature","properties":{"name":"Garfield"},"geometry":{"type":"Polygon","coordinates":[[[-97.46164,36.593454],[-97.46074,36.164463],[-98.10384,36.164876],[-98.10407,36.593681],[-97.46164,36.593454]]]}},{"type":"Feature","properties":{"name":"Mayes"},"geometry":{"type":"Polygon","coordinates":[[[-95.00572,36.509779],[-95.0113,36.161798],[-95.11846,36.161638],[-95.118198,36.074431],[-95.44012,36.075226],[-95.43551,36.510154],[-95.00572,36.509779]]]}},{"type":"Feature","properties":{"name":"Major"},"geometry":{"type":"Polygon","coordinates":[[[-98.10462,36.463164],[-98.10384,36.164876],[-98.95586,36.161569],[-98.96033,36.506914],[-98.843646,36.506248],[-98.81946,36.470995],[-98.792471,36.453263],[-98.72681,36.445332],[-98.699493,36.416013],[-98.60281,36.390848],[-98.55975,36.401911],[-98.53355,36.397592],[-98.53357,36.46333],[-98.10462,36.463164]]]}},{"type":"Feature","properties":{"name":"Blaine"},"geometry":{"type":"Polygon","coordinates":[[[-98.210544,36.16489],[-98.207293,35.725141],[-98.31337,35.725204],[-98.31325,35.551523],[-98.63207,35.551617],[-98.63686,36.164895],[-98.210544,36.16489]]]}},{"type":"Feature","properties":{"name":"Kingfisher"},"geometry":{"type":"Polygon","coordinates":[[[-98.207293,35.725141],[-98.210544,36.16489],[-97.675712,36.164663],[-97.67392,35.725985],[-98.207293,35.725141]]]}},{"type":"Feature","properties":{"name":"Dewey"},"geometry":{"type":"Polygon","coordinates":[[[-99.38216,36.1643],[-98.63686,36.164895],[-98.63211,35.812366],[-99.37603,35.81218],[-99.38216,36.1643]]]}},{"type":"Feature","properties":{"name":"Adair"},"geometry":{"type":"Polygon","coordinates":[[[-94.5628,36.161749],[-94.47265,35.638556],[-94.8073,35.638604],[-94.80733,35.900926],[-94.79721,35.90088],[-94.79728,36.16139],[-94.5628,36.161749]]]}},{"type":"Feature","properties":{"name":"Lincoln"},"geometry":{"type":"Polygon","coordinates":[[[-96.6211,35.941519],[-96.62487,35.462726],[-97.14123,35.464064],[-97.14052,35.941817],[-96.6211,35.941519]]]}},{"type":"Feature","properties":{"name":"Custer"},"geometry":{"type":"Polygon","coordinates":[[[-98.63211,35.812366],[-98.63207,35.551617],[-98.623149,35.551597],[-98.62323,35.464419],[-99.36432,35.465381],[-99.36399,35.551675],[-99.37695,35.551739],[-99.37603,35.81218],[-98.63211,35.812366]]]}},{"type":"Feature","properties":{"name":"Canadian"},"geometry":{"type":"Polygon","coordinates":[[[-97.67392,35.725985],[-97.67159,35.335934],[-97.73571,35.324253],[-97.76498,35.342476],[-97.84178,35.333595],[-97.85597,35.342139],[-97.86378,35.361394],[-97.89633,35.345226],[-97.923172,35.356167],[-97.94277,35.37723],[-97.9499,35.352009],[-97.96046,35.347519],[-98.01006,35.364554],[-98.017466,35.381388],[-98.30637,35.377177],[-98.31337,35.725204],[-97.67392,35.725985]]]}},{"type":"Feature","properties":{"name":"Beckham"},"geometry":{"type":"Polygon","coordinates":[[[-99.3641,35.508825],[-99.36008,35.116684],[-99.40927,35.116493],[-99.43066,35.108218],[-99.44103,35.109839],[-99.44066,35.116538],[-99.78283,35.116777],[-99.78295,35.030111],[-100.00038,35.030385],[-100.000389,35.42234],[-99.57572,35.421693],[-99.5756,35.50895],[-99.3641,35.508825]]]}},{"type":"Feature","properties":{"name":"Latimer"},"geometry":{"type":"Polygon","coordinates":[[[-94.92786,35.058279],[-94.92783,34.942213],[-94.99807,34.942157],[-94.99765,34.855055],[-95.059512,34.855019],[-95.059616,34.680736],[-95.514514,34.681142],[-95.50766,35.029197],[-95.34944,35.029299],[-95.347159,35.058395],[-94.92786,35.058279]]]}},{"type":"Feature","properties":{"name":"Harmon"},"geometry":{"type":"Polygon","coordinates":[[[-99.88857,35.030262],[-99.888425,34.943946],[-99.73124,34.944115],[-99.73107,34.85699],[-99.72,34.857033],[-99.72007,34.768298],[-99.68501,34.768281],[-99.68493,34.753645],[-99.66736,34.753712],[-99.66656,34.507131],[-99.84458,34.506915],[-99.88874,34.550452],[-99.92728,34.576109],[-99.95457,34.578195],[-99.97155,34.562179],[-100.00038,34.560509],[-100.00038,35.030385],[-99.88857,35.030262]]]}},{"type":"Feature","properties":{"name":"Comanche"},"geometry":{"type":"Polygon","coordinates":[[[-98.09264,34.854919],[-98.08908,34.681106],[-98.14158,34.681098],[-98.14214,34.507042],[-98.24402,34.506968],[-98.24415,34.463765],[-98.29582,34.463547],[-98.29582,34.449072],[-98.50474,34.449333],[-98.50473,34.420426],[-98.60939,34.420638],[-98.60938,34.406184],[-98.662,34.406007],[-98.66175,34.50734],[-98.82606,34.507249],[-98.82629,34.855411],[-98.09264,34.854919]]]}},{"type":"Feature","properties":{"name":"Coal"},"geometry":{"type":"Polygon","coordinates":[[[-96.09212,34.76759],[-96.09187,34.506155],[-96.14534,34.506102],[-96.1451,34.418677],[-96.51379,34.419627],[-96.51213,34.680016],[-96.4065,34.680163],[-96.40648,34.76759],[-96.09212,34.76759]]]}},{"type":"Feature","properties":{"name":"Stephens"},"geometry":{"type":"Polygon","coordinates":[[[-98.14158,34.681098],[-97.562757,34.681147],[-97.56258,34.289048],[-98.13895,34.28978],[-98.14158,34.681098]]]}},{"type":"Feature","properties":{"name":"Atoka"},"geometry":{"type":"Polygon","coordinates":[[[-95.67198,34.593852],[-95.6717,34.506799],[-95.77942,34.506556],[-95.77938,34.156699],[-96.40764,34.157317],[-96.407334,34.41854],[-96.1451,34.418677],[-96.14534,34.506102],[-96.09187,34.506155],[-96.09217,34.680586],[-95.8821,34.680475],[-95.88217,34.593521],[-95.67198,34.593852]]]}},{"type":"Feature","properties":{"name":"Tillman"},"geometry":{"type":"Polygon","coordinates":[[[-98.8262,34.594222],[-98.82606,34.507249],[-98.66175,34.50734],[-98.661719,34.333467],[-98.609502,34.33369],[-98.610158,34.157098],[-98.64807,34.164441],[-98.69007,34.133155],[-98.73429,34.135758],[-98.74197,34.12553],[-98.75704,34.124633],[-98.76557,34.136376],[-98.7884,34.146668],[-98.796203,34.142775],[-98.812954,34.158444],[-98.85558,34.161621],[-98.86012,34.149913],[-98.86812,34.149635],[-98.87292,34.166584],[-98.91833,34.181831],[-98.95136,34.212321],[-98.97273,34.202673],[-98.98829,34.221452],[-99.01307,34.203222],[-99.03627,34.206912],[-99.04714,34.19798],[-99.079535,34.211518],[-99.12657,34.203004],[-99.13061,34.219408],[-99.1535,34.207275],[-99.19089,34.215251],[-99.19715,34.244298],[-99.19165,34.257786],[-99.19948,34.260743],[-99.1956,34.280839],[-99.20913,34.2852],[-99.21348,34.309275],[-99.20578,34.319212],[-99.210766,34.337246],[-99.19566,34.341221],[-99.19275,34.354861],[-99.20764,34.374238],[-99.22025,34.37508],[-99.21019,34.393406],[-99.22886,34.387698],[-99.226051,34.400709],[-99.23514,34.401072],[-99.23806,34.425009],[-99.22208,34.423984],[-99.22989,34.447872],[-99.21302,34.458299],[-99.22118,34.463519],[-99.21486,34.481022],[-99.22432,34.480217],[-99.221889,34.49332],[-99.208391,34.503697],[-99.19567,34.544998],[-99.17875,34.539684],[-99.17111,34.54715],[-99.184897,34.561422],[-99.16393,34.587532],[-99.13221,34.59208],[-99.12459,34.582983],[-99.10083,34.59424],[-99.09479,34.587255],[-99.08415,34.589457],[-99.09195,34.612521],[-99.08064,34.614745],[-99.08028,34.622349],[-99.10315,34.637989],[-99.00103,34.637819],[-99.00089,34.594345],[-98.8262,34.594222]]]}},{"type":"Feature","properties":{"name":"Murray"},"geometry":{"type":"Polygon","coordinates":[[[-96.93245,34.636727],[-96.93242,34.593101],[-96.82729,34.59317],[-96.82729,34.505989],[-96.88082,34.50589],[-96.881,34.332977],[-97.029013,34.332601],[-97.04282,34.342541],[-97.03136,34.351267],[-97.036488,34.375415],[-97.35216,34.376227],[-97.35211,34.506788],[-97.14387,34.506533],[-97.15263,34.516175],[-97.144282,34.522017],[-97.15682,34.52173],[-97.16523,34.53109],[-97.15773,34.551495],[-97.16449,34.55913],[-97.15717,34.563527],[-97.17574,34.570518],[-97.16431,34.573638],[-97.174431,34.585302],[-97.16679,34.587634],[-97.19045,34.59649],[-97.199431,34.622729],[-97.14237,34.622584],[-97.14267,34.637032],[-96.93245,34.636727]]]}},{"type":"Feature","properties":{"name":"Johnston"},"geometry":{"type":"Polygon","coordinates":[[[-96.51386,34.505389],[-96.51379,34.419627],[-96.407334,34.41854],[-96.40764,34.157317],[-96.4539,34.157348],[-96.45384,34.114406],[-96.585355,34.114459],[-96.58225,34.125327],[-96.600152,34.134724],[-96.60299,34.145635],[-96.61327,34.141377],[-96.60779,34.146177],[-96.62078,34.162041],[-96.62882,34.153734],[-96.641157,34.158398],[-96.6386,34.168103],[-96.65615,34.161194],[-96.66996,34.172254],[-96.93367,34.172553],[-96.93346,34.332661],[-96.881,34.332977],[-96.88082,34.50589],[-96.51386,34.505389]]]}},{"type":"Feature","properties":{"name":"Jefferson"},"geometry":{"type":"Polygon","coordinates":[[[-97.56258,34.289048],[-97.56087,34.002978],[-97.53682,33.983877],[-97.560927,33.983973],[-97.56086,33.899645],[-97.587441,33.902479],[-97.59629,33.913769],[-97.5896,33.953554],[-97.63378,33.981257],[-97.67128,33.991553],[-97.69311,33.983699],[-97.72529,33.941045],[-97.76277,33.934396],[-97.76377,33.914241],[-97.78352,33.918302],[-97.78466,33.890632],[-97.79809,33.899064],[-97.80542,33.877167],[-97.81764,33.880992],[-97.83351,33.858106],[-97.87531,33.849721],[-97.93792,33.879662],[-97.96671,33.881949],[-97.98437,33.898024],[-97.9788,33.912548],[-97.96875,33.906023],[-97.95715,33.914454],[-97.95339,33.936445],[-97.97417,33.942832],[-97.96035,33.951928],[-97.94647,33.990732],[-97.95832,33.990846],[-97.97417,34.006716],[-98.02767,33.993357],[-98.08284,34.002412],[-98.08881,34.007176],[-98.08402,34.014369],[-98.10626,34.033696],[-98.082463,34.038672],[-98.11459,34.06228],[-98.12104,34.080327],[-98.09933,34.104295],[-98.08989,34.12931],[-98.10289,34.132605],[-98.10056,34.143486],[-98.10946,34.154111],[-98.123377,34.15454],[-98.139072,34.14187],[-98.13895,34.28978],[-97.56258,34.289048]]]}},{"type":"Feature","properties":{"name":"Marshall"},"geometry":{"type":"Polygon","coordinates":[[[-96.585355,34.114459],[-96.56864,34.084752],[-96.55589,34.081178],[-96.56428,34.077159],[-96.54748,34.06391],[-96.57085,34.04287],[-96.5764,34.042999],[-96.57221,34.050306],[-96.578244,34.048019],[-96.57433,34.03696],[-96.57999,34.031199],[-96.572922,34.02942],[-96.57895,34.00914],[-96.59342,34.016728],[-96.60429,34.007869],[-96.62494,34.008852],[-96.615638,33.990729],[-96.602762,33.987938],[-96.606792,33.98194],[-96.57619,33.963885],[-96.59646,33.945667],[-96.58059,33.923882],[-96.59091,33.919231],[-96.580949,33.915425],[-96.59111,33.903225],[-96.58713,33.896982],[-96.62829,33.894477],[-96.667187,33.91694],[-96.68149,33.894675],[-96.68819,33.854613],[-96.71242,33.831633],[-96.76623,33.825458],[-96.783485,33.863534],[-96.812778,33.872646],[-96.837413,33.871349],[-96.84159,33.852894],[-96.85059,33.847211],[-96.86644,33.853149],[-96.88301,33.868019],[-96.89573,33.896414],[-96.90525,33.947219],[-96.920733,33.959523],[-96.93484,33.954453],[-96.93479,34.012942],[-96.96972,34.013008],[-96.96841,34.172617],[-96.66996,34.172254],[-96.65615,34.161194],[-96.6386,34.168103],[-96.641157,34.158398],[-96.62882,34.153734],[-96.62078,34.162041],[-96.60779,34.146177],[-96.61327,34.141377],[-96.60299,34.145635],[-96.600152,34.134724],[-96.58307,34.126238],[-96.585355,34.114459]]]}},{"type":"Feature","properties":{"name":"Bryan"},"geometry":{"type":"Polygon","coordinates":[[[-95.99158,34.156816],[-95.95488,34.149595],[-95.95017,34.129454],[-95.9382,34.125591],[-95.93539,33.941505],[-95.91754,33.924178],[-95.87878,33.916019],[-95.86119,33.887385],[-95.8406,33.874163],[-95.76205,33.872932],[-95.75357,33.857563],[-95.75802,33.85008],[-95.77328,33.843834],[-95.791596,33.858488],[-95.81917,33.858922],[-95.82078,33.840564],[-95.83752,33.83564],[-95.9352,33.887101],[-95.94127,33.861619],[-95.951609,33.857017],[-95.98497,33.85291],[-95.98493,33.865805],[-96.00292,33.873603],[-95.994869,33.861824],[-95.99771,33.852182],[-96.02062,33.840627],[-96.02008,33.855046],[-96.02697,33.857474],[-96.04883,33.836468],[-96.10009,33.847971],[-96.09936,33.83047],[-96.12295,33.839964],[-96.14653,33.838303],[-96.15076,33.816987],[-96.179122,33.810223],[-96.1703,33.800978],[-96.163765,33.813051],[-96.15672,33.813324],[-96.17806,33.760518],[-96.22113,33.747391],[-96.27072,33.768634],[-96.29248,33.766419],[-96.31692,33.698997],[-96.34831,33.686379],[-96.362198,33.691818],[-96.36959,33.716809],[-96.40847,33.751192],[-96.42264,33.776041],[-96.44804,33.781031],[-96.50076,33.772652],[-96.51591,33.787795],[-96.52665,33.820891],[-96.57294,33.819098],[-96.629854,33.846572],[-96.585981,33.88724],[-96.59111,33.903225],[-96.580949,33.915425],[-96.59091,33.919231],[-96.58059,33.923882],[-96.59646,33.945667],[-96.57593,33.962534],[-96.58558,33.974718],[-96.593646,33.971013],[-96.606792,33.98194],[-96.602762,33.987938],[-96.615638,33.990729],[-96.6248,34.009724],[-96.60429,34.007869],[-96.59342,34.016728],[-96.57895,34.00914],[-96.572922,34.02942],[-96.57999,34.031199],[-96.57433,34.03696],[-96.578244,34.048019],[-96.57221,34.050306],[-96.5764,34.042999],[-96.57085,34.04287],[-96.54748,34.06391],[-96.56428,34.077159],[-96.55589,34.081178],[-96.56864,34.084752],[-96.585355,34.114459],[-96.45384,34.114406],[-96.4539,34.157348],[-95.99158,34.156816]]]}},{"type":"Feature","properties":{"name":"Washington"},"geometry":{"type":"Polygon","coordinates":[[[-95.809992,36.941875],[-95.812423,36.423602],[-96.00118,36.423682],[-96.00081,36.99886],[-95.78676,36.99931],[-95.786819,36.941919],[-95.809992,36.941875]]]}},{"type":"Feature","properties":{"name":"Okmulgee"},"geometry":{"type":"Polygon","coordinates":[[[-95.87557,35.463578],[-95.87563,35.37669],[-96.08737,35.376993],[-96.08779,35.552119],[-96.19284,35.551902],[-96.192482,35.857021],[-95.766168,35.856457],[-95.76621,35.725713],[-95.71308,35.725877],[-95.712957,35.551802],[-95.822317,35.551726],[-95.8234,35.463969],[-95.87557,35.463578]]]}},{"type":"Feature","properties":{"name":"Oklahoma"},"geometry":{"type":"Polygon","coordinates":[[[-97.140997,35.724442],[-97.14182,35.376818],[-97.67122,35.37726],[-97.67392,35.725985],[-97.140997,35.724442]]]}}]}