{"type":"FeatureCollection","name":"OCC completions","crs":{"type":"name","properties":{"name":"urn:ogc:def:crs:OGC:1.3:CRS84"}},"features":[{"type":"Feature","properties":{"county":"Custer","type_of_filing":"Oil","purpose":"New Drill","api_number":"3503922623","operator":"MEWBOURNE","well_name":"COLLINS 6 OA","legal":"07-13N-16W-IM","spud_date":"2023-04-13","completion_date":"2023-06-17"},"geometry":{"type":"Point","coordinates":[-98.938612,35.623407]}},{"type":"Feature","properties":{"county":"Custer","type_of_filing":"Oil","purpose":"New Drill","api_number":"3503922623","operator":"MEWBOURNE","well_name":"COLLINS 6 OA","legal":"07-13N-16W-IM","spud_date":"2023-04-13","completion_date":"2023-06-17"},"geometry":{"type":"Point","coordinates":[-98.938612,35.623407]}},{"type":"Feature","properties":{"county":"Caddo","type_of_filing":"Oil","purpose":"New Drill","api_number":"3501523338","operator":"BLAKE PRODUCTION","well_name":"ALAMEDA 1112 1-8-5XHR","legal":"08-11N-12W-IM","spud_date":"2023-05-06","completion_date":"2023-07-17"},"geometry":{"type":"Point","coordinates":[-98.485693,35.436386]}},{"type":"Feature","properties":{"county":"Caddo","type_of_filing":"Oil","purpose":"New Drill","api_number":"3501523338","operator":"BLAKE PRODUCTION","well_name":"ALAMEDA 1112 1-8-5XHR","legal":"08-11N-12W-IM","spud_date":"2023-05-06","completion_date":"2023-07-17"},"geometry":{"type":"Point","coordinates":[-98.485693,35.436386]}},{"type":"Feature","properties":{"county":"Caddo","type_of_filing":"Injection/Disposal","purpose":"New Drill","api_number":"3501523337","operator":"BLAKE PRODUCTION","well_name":"ALAMEDA 1112 1-8 SWD","legal":"08-11N-12W-IM","spud_date":"2023-04-20","completion_date":"2023-07-26"},"geometry":{"type":"Point","coordinates":[-98.485827,35.436386]}},{"type":"Feature","properties":{"county":"Caddo","type_of_filing":"Injection/Disposal","purpose":"New Drill","api_number":"3501523337","operator":"BLAKE PRODUCTION","well_name":"ALAMEDA 1112 1-8 SWD","legal":"08-11N-12W-IM","spud_date":"2023-04-20","completion_date":"2023-07-26"},"geometry":{"type":"Point","coordinates":[-98.485827,35.436386]}},{"type":"Feature","properties":{"county":"Caddo","type_of_filing":"Injection/Disposal","purpose":"New Drill","api_number":"3501523337","operator":"BLAKE PRODUCTION","well_name":"ALAMEDA 1112 1-8 SWD","legal":"08-11N-12W-IM","spud_date":"2023-04-20","completion_date":"2023-07-26"},"geometry":{"type":"Point","coordinates":[-98.485827,35.436386]}},{"type":"Feature","properties":{"county":"Custer","type_of_filing":"Gas","purpose":"New Drill","api_number":"3503922622","operator":"MEWBOURNE","well_name":"HAGGARD 2/35 MD","legal":"11-13N-17W-IM","spud_date":"2023-02-18","completion_date":"2023-08-07"},"geometry":{"type":"Point","coordinates":[-98.982347,35.623036]}},{"type":"Feature","properties":{"county":"Custer","type_of_filing":"Gas","purpose":"New Drill","api_number":"3503922622","operator":"MEWBOURNE","well_name":"HAGGARD 2/35 MD","legal":"11-13N-17W-IM","spud_date":"2023-02-18","completion_date":"2023-08-07"},"geometry":{"type":"Point","coordinates":[-98.982347,35.623036]}},{"type":"Feature","properties":{"county":"Custer","type_of_filing":"Gas","purpose":"New Drill","api_number":"3503922624","operator":"NADEL & GUSSMAN","well_name":"PUFFIN 1-4-9XH","legal":"04-13N-19W-IM","spud_date":"2023-08-01","completion_date":"2023-11-04"},"geometry":{"type":"Point","coordinates":[-99.22756670000001,35.637839]}},{"type":"Feature","properties":{"county":"Custer","type_of_filing":"Gas","purpose":"New Drill","api_number":"3503922624","operator":"NADEL & GUSSMAN","well_name":"PUFFIN 1-4-9XH","legal":"04-13N-19W-IM","spud_date":"2023-08-01","completion_date":"2023-11-04"},"geometry":{"type":"Point","coordinates":[-99.2275667,35.637839]}},{"type":"Feature","properties":{"county":"Custer","type_of_filing":"Oil","purpose":"New Drill","api_number":"3503922627","operator":"MEWBOURNE","well_name":"SAGE DRAGON 32/5 AP","legal":"29-15N-20W-IM","spud_date":"2023-09-25","completion_date":"2023-12-13"},"geometry":{"type":"Point","coordinates":[-99.344484,35.740806]}},{"type":"Feature","properties":{"county":"Custer","type_of_filing":"Oil","purpose":"New Drill","api_number":"3503922627","operator":"MEWBOURNE","well_name":"SAGE DRAGON 32/5 AP","legal":"29-15N-20W-IM","spud_date":"2023-09-25","completion_date":"2023-12-13"},"geometry":{"type":"Point","coordinates":[-99.344484,35.740806]}},{"type":"Feature","properties":{"county":"Caddo","type_of_filing":"Oil","purpose":"New Drill","api_number":"3501523342","operator":"BLAKE PRODUCTION","well_name":"SWEET CAROLINE 1112 1-5-8XH","legal":"32-12N-12W-IM","spud_date":"2023-09-26","completion_date":"2024-01-06"},"geometry":{"type":"Point","coordinates":[-98.497658,35.464835]}},{"type":"Feature","properties":{"county":"Caddo","type_of_filing":"Oil","purpose":"New Drill","api_number":"3501523342","operator":"BLAKE PRODUCTION","well_name":"SWEET CAROLINE 1112 1-5-8XH","legal":"32-12N-12W-IM","spud_date":"2023-09-26","completion_date":"2024-01-06"},"geometry":{"type":"Point","coordinates":[-98.497658,35.464835]}},{"type":"Feature","properties":{"county":"Caddo","type_of_filing":"Gas","purpose":"New Drill","api_number":"3501523340","operator":"STAGHORN","well_name":"TRIPLE CROWN 11-12-33-28 1HW","legal":"33-11N-12W-IM","spud_date":"2023-08-20","completion_date":"2024-03-25"},"geometry":{"type":"Point","coordinates":[-98.47807875000001,35.37826139]}},{"type":"Feature","properties":{"county":"Caddo","type_of_filing":"Gas","purpose":"New Drill","api_number":"3501523340","operator":"STAGHORN","well_name":"TRIPLE CROWN 11-12-33-28 1HW","legal":"33-11N-12W-IM","spud_date":"2023-08-20","completion_date":"2024-03-25"},"geometry":{"type":"Point","coordinates":[-98.47807875,35.37826139]}},{"type":"Feature","properties":{"county":"Custer","type_of_filing":"Oil","purpose":"New Drill","api_number":"3503922628","operator":"DEVON ENERGY","well_name":"MALLARD 1HX","legal":"26-14N-20W-IM","spud_date":"2024-02-02","completion_date":"2024-05-23"},"geometry":{"type":"Point","coordinates":[-99.288894,35.666503]}},{"type":"Feature","properties":{"county":"Custer","type_of_filing":"Oil","purpose":"New Drill","api_number":"3503922628","operator":"DEVON ENERGY","well_name":"MALLARD 1HX","legal":"26-14N-20W-IM","spud_date":"2024-02-02","completion_date":"2024-05-23"},"geometry":{"type":"Point","coordinates":[-99.288894,35.666503]}},{"type":"Feature","properties":{"county":"Custer","type_of_filing":"Oil","purpose":"New Drill","api_number":"3503922631","operator":"MEWBOURNE","well_name":"HUGHES 17/8 ML","legal":"17-13N-16W-IM","spud_date":"2024-03-28","completion_date":"2024-06-27"},"geometry":{"type":"Point","coordinates":[-98.92859000000001,35.595427]}},{"type":"Feature","properties":{"county":"Custer","type_of_filing":"Oil","purpose":"New Drill","api_number":"3503922631","operator":"MEWBOURNE","well_name":"HUGHES 17/8 ML","legal":"17-13N-16W-IM","spud_date":"2024-03-28","completion_date":"2024-06-27"},"geometry":{"type":"Point","coordinates":[-98.92859,35.595427]}},{"type":"Feature","properties":{"county":"Custer","type_of_filing":"Gas","purpose":"New Drill","api_number":"3503922635","operator":"MEWBOURNE","well_name":"TRIGGER 4 MD","legal":"04-13N-17W-IM","spud_date":"2024-05-02","completion_date":"2024-07-02"},"geometry":{"type":"Point","coordinates":[-99.019105,35.624788]}},{"type":"Feature","properties":{"county":"Custer","type_of_filing":"Gas","purpose":"New Drill","api_number":"3503922635","operator":"MEWBOURNE","well_name":"TRIGGER 4 MD","legal":"04-13N-17W-IM","spud_date":"2024-05-02","completion_date":"2024-07-02"},"geometry":{"type":"Point","coordinates":[-99.019105,35.624788]}},{"type":"Feature","properties":{"county":"Custer","type_of_filing":"Oil","purpose":"New Drill","api_number":"3503922634","operator":"DUNCAN OIL PROPERTIES","well_name":"KR","legal":"03-15N-19W-IM","spud_date":"2024-04-03","completion_date":"2024-08-13"},"geometry":{"type":"Point","coordinates":[-99.20531,35.79931]}},{"type":"Feature","properties":{"county":"Custer","type_of_filing":"Oil","purpose":"New Drill","api_number":"3503922634","operator":"DUNCAN OIL PROPERTIES","well_name":"KR","legal":"03-15N-19W-IM","spud_date":"2024-04-03","completion_date":"2024-08-13"},"geometry":{"type":"Point","coordinates":[-99.20531,35.79931]}},{"type":"Feature","properties":{"county":"Custer","type_of_filing":"Gas","purpose":"New Drill","api_number":"3503922640","operator":"NADEL & GUSSMAN","well_name":"OSPREY 1-10-15XH","legal":"03-13N-19W-IM","spud_date":"2024-07-01","completion_date":"2024-10-21"},"geometry":{"type":"Point","coordinates":[-99.20069086000001,35.62496536]}},{"type":"Feature","properties":{"county":"Custer","type_of_filing":"Gas","purpose":"New Drill","api_number":"3503922640","operator":"NADEL & GUSSMAN","well_name":"OSPREY 1-10-15XH","legal":"03-13N-19W-IM","spud_date":"2024-07-01","completion_date":"2024-10-21"},"geometry":{"type":"Point","coordinates":[-99.20069086,35.62496536]}},{"type":"Feature","properties":{"county":"Custer","type_of_filing":"Oil","purpose":"New Drill","api_number":"3503922633","operator":"MEWBOURNE","well_name":"HAGGARD 2/35 PA","legal":"11-13N-17W-IM","spud_date":"2024-06-22","completion_date":"2024-12-04"},"geometry":{"type":"Point","coordinates":[-98.971958,35.62341]}},{"type":"Feature","properties":{"county":"Custer","type_of_filing":"Oil","purpose":"New Drill","api_number":"3503922633","operator":"MEWBOURNE","well_name":"HAGGARD 2/35 PA","legal":"11-13N-17W-IM","spud_date":"2024-06-22","completion_date":"2024-12-04"},"geometry":{"type":"Point","coordinates":[-98.971958,35.62341]}},{"type":"Feature","properties":{"county":"Custer","purpose":"New Drill","api_number":"3503922655","operator":"NADEL & GUSSMAN","well_name":"QUETZAL 1-6-7XH","legal":"31-14N-19W-IM","spud_date":"2025-01-06","completion_date":"2025-01-11"},"geometry":{"type":"Point","coordinates":[-99.26487336,35.63936327]}},{"type":"Feature","properties":{"county":"Custer","purpose":"New Drill","api_number":"3503922655","operator":"NADEL & GUSSMAN","well_name":"QUETZAL 1-6-7XH","legal":"31-14N-19W-IM","spud_date":"2025-01-06","completion_date":"2025-01-11"},"geometry":{"type":"Point","coordinates":[-99.26487336,35.63936327]}},{"type":"Feature","properties":{"county":"Custer","purpose":"New Drill","api_number":"3503922655","operator":"NADEL & GUSSMAN","well_name":"QUETZAL 1-6-7XH","legal":"31-14N-19W-IM","spud_date":"2025-01-06","completion_date":"2025-01-11"},"geometry":{"type":"Point","coordinates":[-99.26487336,35.63936327]}},{"type":"Feature","properties":{"county":"Custer","type_of_filing":"Oil","purpose":"New Drill","api_number":"3503922642","operator":"MEWBOURNE","well_name":"MOORE 35/2 AP","legal":"35-15N-20W-IM","spud_date":"2024-10-10","completion_date":"2025-02-04"},"geometry":{"type":"Point","coordinates":[-99.28841,35.739413]}},{"type":"Feature","properties":{"county":"Custer","type_of_filing":"Oil","purpose":"New Drill","api_number":"3503922642","operator":"MEWBOURNE","well_name":"MOORE 35/2 AP","legal":"35-15N-20W-IM","spud_date":"2024-10-10","completion_date":"2025-02-04"},"geometry":{"type":"Point","coordinates":[-99.28841,35.739413]}},{"type":"Feature","properties":{"county":"Custer","type_of_filing":"Oil","purpose":"New Drill","api_number":"3503922641","operator":"MEWBOURNE","well_name":"LEROY 36/1 DM","legal":"35-15N-20W-IM","spud_date":"2024-10-08","completion_date":"2025-02-04"},"geometry":{"type":"Point","coordinates":[-99.288275,35.739412]}},{"type":"Feature","properties":{"county":"Custer","type_of_filing":"Oil","purpose":"New Drill","api_number":"3503922641","operator":"MEWBOURNE","well_name":"LEROY 36/1 DM","legal":"35-15N-20W-IM","spud_date":"2024-10-08","completion_date":"2025-02-04"},"geometry":{"type":"Point","coordinates":[-99.288275,35.739412]}},{"type":"Feature","properties":{"county":"Custer","type_of_filing":"Oil","purpose":"New Drill","api_number":"3503922645","operator":"MEWBOURNE","well_name":"STRICKLAN 31/6 AP","legal":"31-15N-20W-IM","spud_date":"2025-01-14","completion_date":"2025-04-10"},"geometry":{"type":"Point","coordinates":[-99.362291,35.739241]}},{"type":"Feature","properties":{"county":"Custer","type_of_filing":"Oil","purpose":"New Drill","api_number":"3503922645","operator":"MEWBOURNE","well_name":"STRICKLAN 31/6 AP","legal":"31-15N-20W-IM","spud_date":"2025-01-14","completion_date":"2025-04-10"},"geometry":{"type":"Point","coordinates":[-99.362291,35.739241]}},{"type":"Feature","properties":{"county":"Custer","type_of_filing":"Oil","purpose":"New Drill","api_number":"3503922644","operator":"MEWBOURNE","well_name":"MOOREWOOD 30/19 PA","legal":"31-15N-20W-IM","spud_date":"2024-11-24","completion_date":"2025-04-10"},"geometry":{"type":"Point","coordinates":[-99.362156,35.739241]}},{"type":"Feature","properties":{"county":"Custer","type_of_filing":"Oil","purpose":"New Drill","api_number":"3503922644","operator":"MEWBOURNE","well_name":"MOOREWOOD 30/19 PA","legal":"31-15N-20W-IM","spud_date":"2024-11-24","completion_date":"2025-04-10"},"geometry":{"type":"Point","coordinates":[-99.362156,35.739241]}},{"type":"Feature","properties":{"county":"Roger Mills","type_of_filing":"Oil","purpose":"New Drill","api_number":"3512924169","operator":"MEWBOURNE","well_name":"CARPENTER 12/1 OB","legal":"12-12N-21W-IM","spud_date":"2025-02-28","completion_date":"2025-05-13"},"geometry":{"type":"Point","coordinates":[-99.36843999999999,35.524048]}},{"type":"Feature","properties":{"county":"Roger Mills","type_of_filing":"Oil","purpose":"New Drill","api_number":"3512924169","operator":"MEWBOURNE","well_name":"CARPENTER 12/1 OB","legal":"12-12N-21W-IM","spud_date":"2025-02-28","completion_date":"2025-05-13"},"geometry":{"type":"Point","coordinates":[-99.36844,35.524048]}},{"type":"Feature","properties":{"county":"Custer","type_of_filing":"Oil","purpose":"New Drill","api_number":"3503922656","operator":"NADEL & GUSSMAN","well_name":"QUETZAL 1-6-7XHR","legal":"31-14N-19W-IM","spud_date":"2025-01-26","completion_date":"2025-06-06"},"geometry":{"type":"Point","coordinates":[-99.26494156999999,35.63936371]}},{"type":"Feature","properties":{"county":"Custer","type_of_filing":"Oil","purpose":"New Drill","api_number":"3503922656","operator":"NADEL & GUSSMAN","well_name":"QUETZAL 1-6-7XHR","legal":"31-14N-19W-IM","spud_date":"2025-01-26","completion_date":"2025-06-06"},"geometry":{"type":"Point","coordinates":[-99.26494157,35.63936371]}},{"type":"Feature","properties":{"county":"Custer","type_of_filing":"Oil","purpose":"New Drill","api_number":"3503922666","operator":"DUNCAN OIL PROPERTIES","well_name":"TOPAZ 1-13HX(R)","legal":"24-14N-19W-IM","spud_date":"2025-03-01","completion_date":"2025-06-16"},"geometry":{"type":"Point","coordinates":[-99.167732,35.680777]}},{"type":"Feature","properties":{"county":"Custer","type_of_filing":"Oil","purpose":"New Drill","api_number":"3503922666","operator":"DUNCAN OIL PROPERTIES","well_name":"TOPAZ 1-13HX(R)","legal":"24-14N-19W-IM","spud_date":"2025-03-01","completion_date":"2025-06-16"},"geometry":{"type":"Point","coordinates":[-99.167732,35.680777]}},{"type":"Feature","properties":{"county":"Custer","type_of_filing":"Gas","purpose":"New Drill","api_number":"3503922663","operator":"NADEL & GUSSMAN","well_name":"COTINGA 1-14-23XH","legal":"26-13N-20W-IM","spud_date":"2025-03-29","completion_date":"2025-06-24"},"geometry":{"type":"Point","coordinates":[-99.29012972000001,35.57995438]}},{"type":"Feature","properties":{"county":"Custer","type_of_filing":"Gas","purpose":"New Drill","api_number":"3503922663","operator":"NADEL & GUSSMAN","well_name":"COTINGA 1-14-23XH","legal":"26-13N-20W-IM","spud_date":"2025-03-29","completion_date":"2025-06-24"},"geometry":{"type":"Point","coordinates":[-99.29012972,35.57995438]}},{"type":"Feature","properties":{"county":"Custer","type_of_filing":"Oil","purpose":"New Drill","api_number":"3503922647","operator":"DEVON ENERGY","well_name":"GADWALL 27_34-13N-20W 1HX","legal":"27-13N-20W-IM","spud_date":"2024-11-30","completion_date":"2025-07-17"},"geometry":{"type":"Point","coordinates":[-99.313604,35.579681]}},{"type":"Feature","properties":{"county":"Custer","type_of_filing":"Oil","purpose":"New Drill","api_number":"3503922647","operator":"DEVON ENERGY","well_name":"GADWALL 27_34-13N-20W 1HX","legal":"27-13N-20W-IM","spud_date":"2024-11-30","completion_date":"2025-07-17"},"geometry":{"type":"Point","coordinates":[-99.313604,35.579681]}},{"type":"Feature","properties":{"county":"Custer","type_of_filing":"Oil","purpose":"New Drill","api_number":"3503922648","operator":"DEVON ENERGY","well_name":"GADWALL 27_34-13N-20W 3HX","legal":"27-13N-20W-IM","spud_date":"2025-03-06","completion_date":"2025-07-18"},"geometry":{"type":"Point","coordinates":[-99.313403,35.579684]}},{"type":"Feature","properties":{"county":"Custer","type_of_filing":"Oil","purpose":"New Drill","api_number":"3503922648","operator":"DEVON ENERGY","well_name":"GADWALL 27_34-13N-20W 3HX","legal":"27-13N-20W-IM","spud_date":"2025-03-06","completion_date":"2025-07-18"},"geometry":{"type":"Point","coordinates":[-99.313403,35.579684]}},{"type":"Feature","properties":{"county":"Custer","type_of_filing":"Oil","purpose":"New Drill","api_number":"3503922649","operator":"DEVON ENERGY","well_name":"GADWALL 27_34-13N-20W 2HX","legal":"27-13N-20W-IM","spud_date":"2025-01-15","completion_date":"2025-07-19"},"geometry":{"type":"Point","coordinates":[-99.313504,35.579633]}},{"type":"Feature","properties":{"county":"Custer","type_of_filing":"Oil","purpose":"New Drill","api_number":"3503922649","operator":"DEVON ENERGY","well_name":"GADWALL 27_34-13N-20W 2HX","legal":"27-13N-20W-IM","spud_date":"2025-01-15","completion_date":"2025-07-19"},"geometry":{"type":"Point","coordinates":[-99.313504,35.579633]}},{"type":"Feature","properties":{"county":"Custer","type_of_filing":"Oil","purpose":"New Drill","api_number":"3503922670","operator":"MEWBOURNE","well_name":"HYMAN 3/10 AP","legal":"03-14N-20W-IM","spud_date":"2025-04-28","completion_date":"2025-08-18"},"geometry":{"type":"Point","coordinates":[-99.309721,35.724935]}},{"type":"Feature","properties":{"county":"Custer","type_of_filing":"Oil","purpose":"New Drill","api_number":"3503922670","operator":"MEWBOURNE","well_name":"HYMAN 3/10 AP","legal":"03-14N-20W-IM","spud_date":"2025-04-28","completion_date":"2025-08-18"},"geometry":{"type":"Point","coordinates":[-99.309721,35.724935]}},{"type":"Feature","properties":{"county":"Custer","type_of_filing":"Oil","purpose":"New Drill","api_number":"3503922667","operator":"MEWBOURNE","well_name":"WELDON 34/27 PA","legal":"03-14N-20W-IM","spud_date":"2025-04-27","completion_date":"2025-08-18"},"geometry":{"type":"Point","coordinates":[-99.309856,35.724935]}},{"type":"Feature","properties":{"county":"Custer","type_of_filing":"Oil","purpose":"New Drill","api_number":"3503922667","operator":"MEWBOURNE","well_name":"WELDON 34/27 PA","legal":"03-14N-20W-IM","spud_date":"2025-04-27","completion_date":"2025-08-18"},"geometry":{"type":"Point","coordinates":[-99.309856,35.724935]}},{"type":"Feature","properties":{"county":"Custer","type_of_filing":"Oil","purpose":"New Drill","api_number":"3503922669","operator":"MEWBOURNE","well_name":"QUARTERMASTER 28/21 PA","legal":"28-15N-20W-IM","spud_date":"2025-03-19","completion_date":"2025-08-19"},"geometry":{"type":"Point","coordinates":[-99.327729,35.740683]}},{"type":"Feature","properties":{"county":"Custer","type_of_filing":"Oil","purpose":"New Drill","api_number":"3503922669","operator":"MEWBOURNE","well_name":"QUARTERMASTER 28/21 PA","legal":"28-15N-20W-IM","spud_date":"2025-03-19","completion_date":"2025-08-19"},"geometry":{"type":"Point","coordinates":[-99.327729,35.740683]}},{"type":"Feature","properties":{"county":"Custer","type_of_filing":"Oil","purpose":"New Drill","api_number":"3503922658","operator":"DUNCAN OIL PROPERTIES","well_name":"EMERALD 1-5HX","legal":"08-15N-19W-IM","spud_date":"2025-05-15","completion_date":"2025-08-22"},"geometry":{"type":"Point","coordinates":[-99.23773700000001,35.796722]}},{"type":"Feature","properties":{"county":"Custer","type_of_filing":"Oil","purpose":"New Drill","api_number":"3503922658","operator":"DUNCAN OIL PROPERTIES","well_name":"EMERALD 1-5HX","legal":"08-15N-19W-IM","spud_date":"2025-05-15","completion_date":"2025-08-22"},"geometry":{"type":"Point","coordinates":[-99.237737,35.796722]}},{"type":"Feature","properties":{"county":"Roger Mills","type_of_filing":"Gas","purpose":"New Drill","api_number":"3512924197","operator":"MEWBOURNE","well_name":"RED ROOSTER 1/12 DM FEE COM","legal":"36-14N-23W-IM","spud_date":"2025-06-26","completion_date":"2025-09-01"},"geometry":{"type":"Point","coordinates":[-99.60173,35.639757]}},{"type":"Feature","properties":{"county":"Roger Mills","type_of_filing":"Gas","purpose":"New Drill","api_number":"3512924197","operator":"MEWBOURNE","well_name":"RED ROOSTER 1/12 DM FEE COM","legal":"36-14N-23W-IM","spud_date":"2025-06-26","completion_date":"2025-09-01"},"geometry":{"type":"Point","coordinates":[-99.60173,35.639757]}},{"type":"Feature","properties":{"county":"Custer","type_of_filing":"Oil","purpose":"New Drill","api_number":"3503922674","operator":"MEWBOURNE","well_name":"NICHOLSON 3/10 BO","legal":"03-13N-17W-IM","spud_date":"2025-04-20","completion_date":"2025-09-03"},"geometry":{"type":"Point","coordinates":[-98.991408,35.638038]}},{"type":"Feature","properties":{"county":"Custer","type_of_filing":"Oil","purpose":"New Drill","api_number":"3503922674","operator":"MEWBOURNE","well_name":"NICHOLSON 3/10 BO","legal":"03-13N-17W-IM","spud_date":"2025-04-20","completion_date":"2025-09-03"},"geometry":{"type":"Point","coordinates":[-98.991408,35.638038]}},{"type":"Feature","properties":{"county":"Custer","type_of_filing":"Oil","purpose":"New Drill","api_number":"3503922668","operator":"MEWBOURNE","well_name":"BRITTON 33/4 AP","legal":"28-15N-20W-IM","spud_date":"2025-03-18","completion_date":"2025-09-14"},"geometry":{"type":"Point","coordinates":[-99.327864,35.740683]}},{"type":"Feature","properties":{"county":"Custer","type_of_filing":"Oil","purpose":"New Drill","api_number":"3503922668","operator":"MEWBOURNE","well_name":"BRITTON 33/4 AP","legal":"28-15N-20W-IM","spud_date":"2025-03-18","completion_date":"2025-09-14"},"geometry":{"type":"Point","coordinates":[-99.327864,35.740683]}},{"type":"Feature","properties":{"county":"Custer","type_of_filing":"Oil","purpose":"New Drill","api_number":"3503922668","operator":"MEWBOURNE","well_name":"BRITTON 33/4 AP","legal":"28-15N-20W-IM","spud_date":"2025-03-18","completion_date":"2025-09-14"},"geometry":{"type":"Point","coordinates":[-99.327864,35.740683]}},{"type":"Feature","properties":{"county":"Custer","type_of_filing":"Gas","purpose":"New Drill","api_number":"3503922673","operator":"MEWBOURNE","well_name":"CLINT 9 DM","legal":"04-13N-17W-IM","spud_date":"2025-05-06","completion_date":"2025-11-09"},"geometry":{"type":"Point","coordinates":[-99.01815400000001,35.625195]}},{"type":"Feature","properties":{"county":"Custer","type_of_filing":"Gas","purpose":"New Drill","api_number":"3503922673","operator":"MEWBOURNE","well_name":"CLINT 9 DM","legal":"04-13N-17W-IM","spud_date":"2025-05-06","completion_date":"2025-11-09"},"geometry":{"type":"Point","coordinates":[-99.018154,35.625195]}},{"type":"Feature","properties":{"county":"Roger Mills","type_of_filing":"Oil","purpose":"New Drill","api_number":"3512900035","operator":"MEWBOURNE","well_name":"DML FARMS 3-10 AP","legal":"34-14N-21W-IM","spud_date":"2025-10-01","completion_date":"2025-11-19"},"geometry":{"type":"Point","coordinates":[-99.414842,35.641512]}},{"type":"Feature","properties":{"county":"Roger Mills","type_of_filing":"Oil","purpose":"New Drill","api_number":"3512900035","operator":"MEWBOURNE","well_name":"DML FARMS 3-10 AP","legal":"34-14N-21W-IM","spud_date":"2025-10-01","completion_date":"2025-11-19"},"geometry":{"type":"Point","coordinates":[-99.414842,35.641512]}},{"type":"Feature","properties":{"county":"Custer","type_of_filing":"Oil","purpose":"New Drill","api_number":"3503922686","operator":"MEWBOURNE","well_name":"WANDA 30/31 DM","legal":"30-15N-19W-IM","spud_date":"2025-08-09","completion_date":"2025-11-21"},"geometry":{"type":"Point","coordinates":[-99.264861,35.75337]}},{"type":"Feature","properties":{"county":"Custer","type_of_filing":"Oil","purpose":"New Drill","api_number":"3503922686","operator":"MEWBOURNE","well_name":"WANDA 30/31 DM","legal":"30-15N-19W-IM","spud_date":"2025-08-09","completion_date":"2025-11-21"},"geometry":{"type":"Point","coordinates":[-99.264861,35.75337]}},{"type":"Feature","properties":{"county":"Custer","type_of_filing":"Oil","purpose":"New Drill","api_number":"3503922685","operator":"MEWBOURNE","well_name":"PATSY 19/18 MD","legal":"30-15N-19W-IM","spud_date":"2025-08-08","completion_date":"2025-11-22"},"geometry":{"type":"Point","coordinates":[-99.264996,35.753371]}},{"type":"Feature","properties":{"county":"Custer","type_of_filing":"Oil","purpose":"New Drill","api_number":"3503922685","operator":"MEWBOURNE","well_name":"PATSY 19/18 MD","legal":"30-15N-19W-IM","spud_date":"2025-08-08","completion_date":"2025-11-22"},"geometry":{"type":"Point","coordinates":[-99.264996,35.753371]}},{"type":"Feature","properties":{"county":"Custer","type_of_filing":"Oil","purpose":"New Drill","api_number":"3503900039","operator":"NADEL & GUSSMAN","well_name":"CARACARA 1-32-29XH","legal":"05-13N-19W-IM","spud_date":"2025-09-20","completion_date":"2025-11-24"},"geometry":{"type":"Point","coordinates":[-99.249079,35.637704]}},{"type":"Feature","properties":{"county":"Custer","type_of_filing":"Oil","purpose":"New Drill","api_number":"3503900039","operator":"NADEL & GUSSMAN","well_name":"CARACARA 1-32-29XH","legal":"05-13N-19W-IM","spud_date":"2025-09-20","completion_date":"2025-11-24"},"geometry":{"type":"Point","coordinates":[-99.249079,35.637704]}},{"type":"Feature","properties":{"county":"Custer","api_number":"3503900036","well_name":"PEREGRINE 1-5-8XH","legal":"05-13N-19W-IM"},"geometry":{"type":"Point","coordinates":[-99.24403617852161,35.631444233845]}},{"type":"Feature","properties":{"county":"Custer","api_number":"3503900036","well_name":"PEREGRINE 1-5-8XH","legal":"05-13N-19W-IM"},"geometry":{"type":"Point","coordinates":[-99.2440361785216,35.631444233845]}},{"type":"Feature","properties":{"county":"Custer","api_number":"3503900036","well_name":"PEREGRINE 1-5-8XH","legal":"05-13N-19W-IM"},"geometry":{"type":"Point","coordinates":[-99.2440361785216,35.631444233845]}},{"type":"Feature","properties":{"county":"Roger Mills","type_of_filing":"Oil","purpose":"New Drill","api_number":"3512900014","operator":"MEWBOURNE","well_name":"DEWAYNE 3-34 NC FEE COM","legal":"03-13N-22W-IM","spud_date":"2025-09-02","completion_date":"2025-12-04"},"geometry":{"type":"Point","coordinates":[-99.530881,35.62462]}},{"type":"Feature","properties":{"county":"Roger Mills","type_of_filing":"Oil","purpose":"New Drill","api_number":"3512900014","operator":"MEWBOURNE","well_name":"DEWAYNE 3-34 NC FEE COM","legal":"03-13N-22W-IM","spud_date":"2025-09-02","completion_date":"2025-12-04"},"geometry":{"type":"Point","coordinates":[-99.530881,35.62462]}},{"type":"Feature","properties":{"county":"Custer","type_of_filing":"Oil","purpose":"New Drill","api_number":"3503922683","operator":"MEWBOURNE","well_name":"UNRUH 17/8 PA","legal":"21-15N-20W-IM","spud_date":"2025-07-27","completion_date":"2025-12-16"},"geometry":{"type":"Point","coordinates":[-99.34035399999999,35.768139]}},{"type":"Feature","properties":{"county":"Custer","type_of_filing":"Oil","purpose":"New Drill","api_number":"3503922683","operator":"MEWBOURNE","well_name":"UNRUH 17/8 PA","legal":"21-15N-20W-IM","spud_date":"2025-07-27","completion_date":"2025-12-16"},"geometry":{"type":"Point","coordinates":[-99.340354,35.768139]}},{"type":"Feature","properties":{"county":"Custer","type_of_filing":"Oil","purpose":"New Drill","api_number":"3503922682","operator":"MEWBOURNE","well_name":"OMMEN 16/9 MD","legal":"21-15N-20W-IM","spud_date":"2025-07-27","completion_date":"2025-12-16"},"geometry":{"type":"Point","coordinates":[-99.34035399999999,35.768056]}},{"type":"Feature","properties":{"county":"Custer","type_of_filing":"Oil","purpose":"New Drill","api_number":"3503922682","operator":"MEWBOURNE","well_name":"OMMEN 16/9 MD","legal":"21-15N-20W-IM","spud_date":"2025-07-27","completion_date":"2025-12-16"},"geometry":{"type":"Point","coordinates":[-99.340354,35.768056]}}]}