{"type":"FeatureCollection","name":"OCC drilling permit points","crs":{"type":"name","properties":{"name":"urn:ogc:def:crs:OGC:1.3:CRS84"}},"features":[{"type":"Feature","properties":{"county":"Custer","type_of_filing":"AP/TE DEPOSIT CLOSED SYSTEM=STEEL PITS PER OPERATOR REQUEST, OBM RETURNED TO VENDOR, CUTTINGS PERMITTED PER DISTRI, C AP/TE DEPOSIT CLOSED SYSTEM=STEEL PITS PER OPERATOR REQUEST, OBM RETURNED TO VENDOR, CUTTINGS PERMITTED PER DISTRI, C AP/TE DEPOSIT CLOS","purpose":"New Drill","approval_date":"2023-06-29","spud":"Y","api_number":"3503922624","operator":"NADEL & GUSSMAN","well_name":"PUFFIN","well_type":"Oil and Gas","legal":"04-13N-19W-IM","filed_date":"2023-06-26"},"geometry":{"type":"Point","coordinates":[-99.2275667,35.637839]}},{"type":"Feature","properties":{"county":"Caddo","type_of_filing":"BED AQUIFER SEE MEMO, C BED AQUIFER SEE MEMO, C BED AQUIFER SEE MEMO","purpose":"New Drill","approval_date":"2023-07-24","spud":"Y","api_number":"3501523340","operator":"STAGHORN","well_name":"TRIPLE CROWN 11-12-33-28","well_type":"Oil and Gas","legal":"33-11N-12W-IM","filed_date":"2023-07-12"},"geometry":{"type":"Point","coordinates":[-98.47807875,35.37826139]}},{"type":"Feature","properties":{"county":"Custer","type_of_filing":", ,","purpose":"RECOMPLETION","approval_date":"2023-08-25","spud":"N","api_number":"3503921857","operator":"FLUX ENERGY LLC","well_name":"CORNELL","well_type":"Oil and Gas","legal":"01-13N-16W-IM","filed_date":"2023-07-26"},"geometry":{"type":"Point","coordinates":[-98.85296,35.634483]}},{"type":"Feature","properties":{"county":"Custer","type_of_filing":"BED AQUIFER SEE MEMO, C BED AQUIFER SEE MEMO, C BED AQUIFER SEE MEMO","purpose":"New Drill","approval_date":"2023-08-29","spud":"Y","api_number":"3503922627","operator":"MEWBOURNE","well_name":"SAGE DRAGON 32/5 AP","well_type":"Oil and Gas","legal":"29-15N-20W-IM","filed_date":"2023-08-22"},"geometry":{"type":"Point","coordinates":[-99.344484,35.740806]}},{"type":"Feature","properties":{"county":"Caddo","type_of_filing":"BED AQUIFER CLOSED SYSTEM=STEEL PITS PER OPERATOR REQUEST, BED AQUIFER CLOSED SYSTEM=STEEL PITS PER OPERATOR REQUEST, C BED AQUIFER CLOSED SYSTEM=STEEL PITS PER OPERATOR REQUEST","purpose":"New Drill","approval_date":"2023-09-18","spud":"Y","api_number":"3501523342","operator":"BLAKE PRODUCTION","well_name":"SWEET CAROLINE 1112","well_type":"Oil and Gas","legal":"32-12N-12W-IM","filed_date":"2023-09-12"},"geometry":{"type":"Point","coordinates":[-98.497658,35.464835]}},{"type":"Feature","properties":{"county":"Custer","type_of_filing":"BED AQUIFER SEE MEMO, C BED AQUIFER SEE MEMO, C BED AQUIFER SEE MEMO","purpose":"Amend","approval_date":"2023-12-06","spud":"Y","api_number":"3503922628","operator":"DEVON ENERGY","well_name":"MALLARD","well_type":"Oil and Gas","legal":"26-14N-20W-IM","filed_date":"2024-01-09"},"geometry":{"type":"Point","coordinates":[-99.288894,35.666503]}},{"type":"Feature","properties":{"county":"Custer","type_of_filing":"AP/TE DEPOSIT SEE MEMO, C AP/TE DEPOSIT SEE MEMO, C AP/TE DEPOSIT SEE MEMO","purpose":"New Drill","approval_date":"2024-02-05","spud":"Y","api_number":"3503922631","operator":"MEWBOURNE","well_name":"HUGHES 17/8 ML","well_type":"Oil and Gas","legal":"17-13N-16W-IM","filed_date":"2024-01-31"},"geometry":{"type":"Point","coordinates":[-98.92859,35.595427]}},{"type":"Feature","properties":{"county":"Custer","type_of_filing":"BED AQUIFER SEE MEMO, C BED AQUIFER SEE MEMO, C BED AQUIFER SEE MEMO","purpose":"New Drill","approval_date":"2024-02-12","spud":"Y","api_number":"3503922632","operator":"MEWBOURNE","well_name":"ABERNATHY 1/12 CN","well_type":"Oil and Gas","legal":"01-13N-17W-IM","filed_date":"2024-02-09"},"geometry":{"type":"Point","coordinates":[-98.962654,35.637797]}},{"type":"Feature","properties":{"county":"Custer","type_of_filing":"AP/TE DEPOSIT SEE MEMO, C AP/TE DEPOSIT SEE MEMO, C AP/TE DEPOSIT SEE MEMO","purpose":"New Drill","approval_date":"2024-02-20","spud":"N","api_number":"3503922633","operator":"MEWBOURNE","well_name":"HAGGARD 2/35 PA","well_type":"Oil and Gas","legal":"11-13N-17W-IM","filed_date":"2024-02-05"},"geometry":{"type":"Point","coordinates":[-98.971958,35.62341]}},{"type":"Feature","properties":{"county":"Custer","type_of_filing":"BED AQUIFER SEE MEMO, C BED AQUIFER SEE MEMO, C BED AQUIFER SEE MEMO","purpose":"New Drill","approval_date":"2024-03-05","spud":"Y","api_number":"3503922634","operator":"DUNCAN OIL PROPERTIES","well_name":"KR","well_type":"Oil and Gas","legal":"03-15N-19W-IM","filed_date":"2024-02-14"},"geometry":{"type":"Point","coordinates":[-99.20531,35.79931]}},{"type":"Feature","properties":{"county":"Custer","type_of_filing":"BED AQUIFER SEE MEMO, C BED AQUIFER SEE MEMO, C BED AQUIFER SEE MEMO","purpose":"New Drill","approval_date":"2024-03-12","spud":"Y","api_number":"3503922635","operator":"MEWBOURNE","well_name":"TRIGGER 4 MD","well_type":"Oil and Gas","legal":"04-13N-17W-IM","filed_date":"2024-03-07"},"geometry":{"type":"Point","coordinates":[-99.019105,35.624788]}},{"type":"Feature","properties":{"county":"Custer","type_of_filing":"AP/TE DEPOSIT SEE MEMO, C AP/TE DEPOSIT SEE MEMO, C AP/TE DEPOSIT SEE MEMO","purpose":"New Drill","approval_date":"2024-06-04","spud":"Y","api_number":"3503922640","operator":"NADEL & GUSSMAN","well_name":"OSPREY","well_type":"Oil and Gas","legal":"03-13N-19W-IM","filed_date":"2024-05-30"},"geometry":{"type":"Point","coordinates":[-99.20069086,35.62496536]}},{"type":"Feature","properties":{"county":"Custer","type_of_filing":"BED AQUIFER SEE MEMO, C BED AQUIFER SEE MEMO, C BED AQUIFER SEE MEMO","purpose":"New Drill","approval_date":"2024-07-08","spud":"Y","api_number":"3503922642","operator":"MEWBOURNE","well_name":"MOORE 35/2 AP","well_type":"Oil and Gas","legal":"35-15N-20W-IM","filed_date":"2024-07-05"},"geometry":{"type":"Point","coordinates":[-99.28841,35.739413]}},{"type":"Feature","properties":{"county":"Custer","type_of_filing":"BED AQUIFER SEE MEMO, C BED AQUIFER SEE MEMO, C BED AQUIFER SEE MEMO","purpose":"New Drill","approval_date":"2024-07-08","spud":"Y","api_number":"3503922641","operator":"MEWBOURNE","well_name":"LEROY 36/1 DM","well_type":"Oil and Gas","legal":"35-15N-20W-IM","filed_date":"2024-07-05"},"geometry":{"type":"Point","coordinates":[-99.288275,35.739412]}},{"type":"Feature","properties":{"county":"Roger Mills","type_of_filing":", ,","purpose":"RECOMPLETION","approval_date":"2024-09-19","spud":"N","api_number":"3512921221","operator":"CADDO EXPIRATION","well_name":"MILLINGTON","well_type":"Oil and Gas","legal":"11-11N-23W-IM","filed_date":"2024-09-18"},"geometry":{"type":"Point","coordinates":[-99.59799,35.439904]}},{"type":"Feature","properties":{"county":"Custer","type_of_filing":"BED AQUIFER SEE MEMO, C BED AQUIFER SEE MEMO, C BED AQUIFER SEE MEMO","purpose":"New Drill","approval_date":"2024-10-08","spud":"Y","api_number":"3503922644","operator":"MEWBOURNE","well_name":"MOOREWOOD 30/19 PA","well_type":"Oil and Gas","legal":"31-15N-20W-IM","filed_date":"2024-10-02"},"geometry":{"type":"Point","coordinates":[-99.362156,35.739241]}},{"type":"Feature","properties":{"county":"Custer","type_of_filing":"BED AQUIFER SEE MEMO, C BED AQUIFER SEE MEMO, C BED AQUIFER SEE MEMO","purpose":"New Drill","approval_date":"2024-10-11","spud":"Y","api_number":"3503922645","operator":"MEWBOURNE","well_name":"STRICKLAN 31/6 AP","well_type":"Oil and Gas","legal":"31-15N-20W-IM","filed_date":"2024-10-02"},"geometry":{"type":"Point","coordinates":[-99.362291,35.739241]}},{"type":"Feature","properties":{"county":"Custer","type_of_filing":"NON HSA SEE MEMO, C NON HSA SEE MEMO, C NON HSA SEE MEMO","purpose":"New Drill","approval_date":"2024-10-30","spud":"Y","api_number":"3503922646","operator":"DEVON ENERGY","well_name":"FOGHORN 34-13N-20W VSW SWD","well_type":"Disposal","legal":"34-13N-20W-IM","filed_date":"2024-10-15"},"geometry":{"type":"Point","coordinates":[-99.311957,35.558293]}},{"type":"Feature","properties":{"county":"Custer","type_of_filing":"BED AQUIFER SEE MEMO, C BED AQUIFER SEE MEMO, C BED AQUIFER SEE MEMO","purpose":"New Drill","approval_date":"2024-11-12","spud":"Y","api_number":"3503922649","operator":"DEVON ENERGY","well_name":"GADWALL 27_34-13N-20W","well_type":"Oil and Gas","legal":"27-13N-20W-IM","filed_date":"2024-11-07"},"geometry":{"type":"Point","coordinates":[-99.313504,35.579633]}},{"type":"Feature","properties":{"county":"Custer","type_of_filing":"BED AQUIFER SEE MEMO, C BED AQUIFER SEE MEMO, C BED AQUIFER SEE MEMO","purpose":"New Drill","approval_date":"2024-11-12","spud":"Y","api_number":"3503922648","operator":"DEVON ENERGY","well_name":"GADWALL 27_34-13N-20W","well_type":"Oil and Gas","legal":"27-13N-20W-IM","filed_date":"2024-11-07"},"geometry":{"type":"Point","coordinates":[-99.313403,35.579684]}},{"type":"Feature","properties":{"county":"Custer","type_of_filing":"BED AQUIFER SEE MEMO, C BED AQUIFER SEE MEMO, C BED AQUIFER SEE MEMO","purpose":"New Drill","approval_date":"2024-11-12","spud":"Y","api_number":"3503922647","operator":"DEVON ENERGY","well_name":"GADWALL 27_34-13N-20W","well_type":"Oil and Gas","legal":"27-13N-20W-IM","filed_date":"2024-11-07"},"geometry":{"type":"Point","coordinates":[-99.313604,35.579681]}},{"type":"Feature","properties":{"county":"Custer","type_of_filing":"AP/TE DEPOSIT SEE MEMO, C AP/TE DEPOSIT SEE MEMO, C AP/TE DEPOSIT SEE MEMO","purpose":"New Drill","approval_date":"2024-12-13","spud":"N","api_number":"3503922654","operator":"VALIDUS ENERGY II MIDCON LLC","well_name":"GOOSE 1314-111423","well_type":"Oil and Gas","legal":"11-13N-14W-IM","filed_date":"2024-12-09"},"geometry":{"type":"Point","coordinates":[-98.659073,35.623102]}},{"type":"Feature","properties":{"county":"Custer","type_of_filing":"AP/TE DEPOSIT SEE MEMO, C AP/TE DEPOSIT SEE MEMO, C AP/TE DEPOSIT SEE MEMO","purpose":"New Drill","approval_date":"2024-12-13","spud":"N","api_number":"3503922653","operator":"VALIDUS ENERGY II MIDCON LLC","well_name":"GOOSE 1314-111423","well_type":"Oil and Gas","legal":"11-13N-14W-IM","filed_date":"2024-12-09"},"geometry":{"type":"Point","coordinates":[-98.659537,35.623153]}},{"type":"Feature","properties":{"county":"Custer","type_of_filing":"AP/TE DEPOSIT SEE MEMO, C AP/TE DEPOSIT SEE MEMO, C AP/TE DEPOSIT SEE MEMO","purpose":"New Drill","approval_date":"2024-12-13","spud":"N","api_number":"3503922652","operator":"VALIDUS ENERGY II MIDCON LLC","well_name":"COBRA CHICKEN 1314-121324","well_type":"Oil and Gas","legal":"12-13N-14W-IM","filed_date":"2024-12-09"},"geometry":{"type":"Point","coordinates":[-98.64916,35.623179]}},{"type":"Feature","properties":{"county":"Custer","type_of_filing":"AP/TE DEPOSIT SEE MEMO, C AP/TE DEPOSIT SEE MEMO, C AP/TE DEPOSIT SEE MEMO","purpose":"New Drill","approval_date":"2024-12-13","spud":"N","api_number":"3503922651","operator":"VALIDUS ENERGY II MIDCON LLC","well_name":"COBRA CHICKEN 1314-121324","well_type":"Oil and Gas","legal":"12-13N-14W-IM","filed_date":"2024-12-09"},"geometry":{"type":"Point","coordinates":[-98.649271,35.623179]}},{"type":"Feature","properties":{"county":"Custer","type_of_filing":"ALLUVIAL SEE MEMO, C ALLUVIAL SEE MEMO, C ALLUVIAL SEE MEMO","purpose":"New Drill","approval_date":"2024-12-30","spud":"Y","api_number":"3503922655","operator":"NADEL & GUSSMAN","well_name":"QUETZAL","well_type":"Oil and Gas","legal":"31-14N-19W-IM","filed_date":"2024-12-13"},"geometry":{"type":"Point","coordinates":[-99.26487336,35.63936327]}},{"type":"Feature","properties":{"county":"Roger Mills","type_of_filing":"BED AQUIFER SEE MEMO, C BED AQUIFER SEE MEMO, C BED AQUIFER SEE MEMO","purpose":"New Drill","approval_date":"2025-01-09","spud":"N","api_number":"3512924168","operator":"MEWBOURNE","well_name":"CARPENTER 1/12 AP","well_type":"Oil and Gas","legal":"01-12N-21W-IM","filed_date":"2025-01-02"},"geometry":{"type":"Point","coordinates":[-99.36763,35.550771]}},{"type":"Feature","properties":{"county":"Custer","type_of_filing":"ALLUVIAL SEE MEMO, C ALLUVIAL SEE MEMO, C ALLUVIAL SEE MEMO","purpose":"New Drill","approval_date":"2025-01-13","spud":"Y","api_number":"3503922656","operator":"NADEL & GUSSMAN","well_name":"QUETZAL","well_type":"Oil and Gas","legal":"31-14N-19W-IM","filed_date":"2025-01-10"},"geometry":{"type":"Point","coordinates":[-99.26494157,35.63936371]}},{"type":"Feature","properties":{"county":"Custer","type_of_filing":"BED AQUIFER SEE MEMO, C BED AQUIFER SEE MEMO, C BED AQUIFER SEE MEMO","purpose":"New Drill","approval_date":"2025-01-17","spud":"Y","api_number":"3503922657","operator":"DUNCAN OIL PROPERTIES","well_name":"TOPAZ","well_type":"Oil and Gas","legal":"24-14N-19W-IM","filed_date":"2025-01-06"},"geometry":{"type":"Point","coordinates":[-99.167732,35.680837]}},{"type":"Feature","properties":{"county":"Roger Mills","operator":"MEWBOURNE","well_name":"BEAVERDAM 24/13 PA FED COM 1H","legal":"-ROGER MILLS-","filed_date":"2025-01-25"},"geometry":{"type":"Point","coordinates":[-99.593827,35.580278]}},{"type":"Feature","properties":{"county":"Roger Mills","type_of_filing":"BED AQUIFER SEE MEMO, C BED AQUIFER SEE MEMO, C BED AQUIFER SEE MEMO","purpose":"New Drill","approval_date":"2025-01-29","spud":"Y","api_number":"3512924169","operator":"MEWBOURNE","well_name":"CARPENTER 12/1 OB","well_type":"Oil and Gas","legal":"12-12N-21W-IM","filed_date":"2025-01-22"},"geometry":{"type":"Point","coordinates":[-99.36844,35.524048]}},{"type":"Feature","properties":{"county":"Custer","type_of_filing":"BED AQUIFER SEE MEMO, C BED AQUIFER SEE MEMO, C BED AQUIFER SEE MEMO","purpose":"New Drill","approval_date":"2025-01-30","spud":"Y","api_number":"3503922658","operator":"DUNCAN OIL PROPERTIES","well_name":"EMERALD","well_type":"Oil and Gas","legal":"08-15N-19W-IM","filed_date":"2025-01-17"},"geometry":{"type":"Point","coordinates":[-99.237737,35.796722]}},{"type":"Feature","properties":{"county":"Custer","type_of_filing":"BED AQUIFER SEE MEMO, C BED AQUIFER SEE MEMO, C BED AQUIFER SEE MEMO","purpose":"New Drill","approval_date":"2025-02-18","spud":"Y","api_number":"3503922663","operator":"NADEL & GUSSMAN","well_name":"COTINGA","well_type":"Oil and Gas","legal":"26-13N-20W-IM","filed_date":"2025-01-29"},"geometry":{"type":"Point","coordinates":[-99.29012972,35.57995438]}},{"type":"Feature","properties":{"county":"Custer","type_of_filing":"BED AQUIFER 1B   MIN. SOIL COMPACTED PIT, NOTIFY DISTRICT PRIOR TO TESTING SOIL PIT LINER, BED AQUIFER 1B   MIN. SOIL COMPACTED PIT, NOTIFY DISTRICT PRIOR TO TESTING SOIL PIT LINER, 1B BED AQUIFER 1B   MIN. SOIL COMPACTED PIT, NOTIFY DISTRICT PRIOR TO TE","purpose":"New Drill","approval_date":"2025-02-26","spud":"N","api_number":"3503922664","operator":"SELECT WATER SOLUTIONS, LLC","well_name":"FLICK SWD","well_type":"Disposal","legal":"10-13N-20W-IM","filed_date":"2025-02-20"},"geometry":{"type":"Point","coordinates":[-99.312303,35.610483]}},{"type":"Feature","properties":{"county":"Custer","type_of_filing":"BED AQUIFER SEE MEMO, C BED AQUIFER SEE MEMO, C BED AQUIFER SEE MEMO","purpose":"New Drill","approval_date":"2025-02-27","spud":"Y","api_number":"3503922666","operator":"DUNCAN OIL PROPERTIES","well_name":"TOPAZ","well_type":"Oil and Gas","legal":"24-14N-19W-IM","filed_date":"2025-03-13"},"geometry":{"type":"Point","coordinates":[-99.167732,35.680777]}},{"type":"Feature","properties":{"county":"Custer","type_of_filing":"BED AQUIFER SEE MEMO, C BED AQUIFER SEE MEMO, C BED AQUIFER SEE MEMO","purpose":"New Drill","approval_date":"2025-03-07","spud":"Y","api_number":"3503922669","operator":"MEWBOURNE","well_name":"QUARTERMASTER 28/21 PA","well_type":"Oil and Gas","legal":"28-15N-20W-IM","filed_date":"2025-02-27"},"geometry":{"type":"Point","coordinates":[-99.327729,35.740683]}},{"type":"Feature","properties":{"county":"Custer","type_of_filing":"BED AQUIFER SEE MEMO, C BED AQUIFER SEE MEMO, C BED AQUIFER SEE MEMO","purpose":"New Drill","approval_date":"2025-03-07","spud":"Y","api_number":"3503922668","operator":"MEWBOURNE","well_name":"BRITTON 33/4 AP","well_type":"Oil and Gas","legal":"28-15N-20W-IM","filed_date":"2025-02-27"},"geometry":{"type":"Point","coordinates":[-99.327864,35.740683]}},{"type":"Feature","properties":{"county":"Custer","type_of_filing":"BED AQUIFER SEE MEMO, C BED AQUIFER SEE MEMO, C BED AQUIFER SEE MEMO","purpose":"New Drill","approval_date":"2025-03-07","spud":"Y","api_number":"3503922667","operator":"MEWBOURNE","well_name":"WELDON 34/27 PA","well_type":"Oil and Gas","legal":"03-14N-20W-IM","filed_date":"2025-02-27"},"geometry":{"type":"Point","coordinates":[-99.309856,35.724935]}},{"type":"Feature","properties":{"county":"Custer","type_of_filing":"BED AQUIFER SEE MEMO, C BED AQUIFER SEE MEMO, C BED AQUIFER SEE MEMO","purpose":"New Drill","approval_date":"2025-03-10","spud":"Y","api_number":"3503922670","operator":"MEWBOURNE","well_name":"HYMAN 3/10 AP","well_type":"Oil and Gas","legal":"03-14N-20W-IM","filed_date":"2025-02-27"},"geometry":{"type":"Point","coordinates":[-99.309721,35.724935]}},{"type":"Feature","properties":{"county":"Custer","type_of_filing":"BED AQUIFER SEE MEMO, C BED AQUIFER SEE MEMO, C BED AQUIFER SEE MEMO","purpose":"New Drill","approval_date":"2025-03-26","spud":"Y","api_number":"3503922673","operator":"MEWBOURNE","well_name":"CLINT 9 DM","well_type":"Oil and Gas","legal":"04-13N-17W-IM","filed_date":"2025-03-21"},"geometry":{"type":"Point","coordinates":[-99.018154,35.625195]}},{"type":"Feature","properties":{"county":"Custer","type_of_filing":"AP/TE DEPOSIT SEE MEMO, C AP/TE DEPOSIT SEE MEMO, C AP/TE DEPOSIT SEE MEMO","purpose":"New Drill","approval_date":"2025-04-01","spud":"Y","api_number":"3503922674","operator":"MEWBOURNE","well_name":"NICHOLSON 3/10 BO","well_type":"Oil and Gas","legal":"03-13N-17W-IM","filed_date":"2025-03-21"},"geometry":{"type":"Point","coordinates":[-98.991408,35.638038]}},{"type":"Feature","properties":{"county":"Custer","type_of_filing":", ,","purpose":"RECOMPLETION","approval_date":"2025-05-09","spud":"N","api_number":"3503921948","operator":"PRIDE ENERGY","well_name":"GOWDY","well_type":"Oil and Gas","legal":"22-13N-20W-IM","filed_date":"2025-05-06"},"geometry":{"type":"Point","coordinates":[-99.31238612,35.58607912]}},{"type":"Feature","properties":{"county":"Custer","type_of_filing":"BED AQUIFER SEE MEMO, C BED AQUIFER SEE MEMO, C BED AQUIFER SEE MEMO","purpose":"Amend","approval_date":"2025-06-19","spud":"Y","api_number":"3503922684","operator":"MEWBOURNE","well_name":"COW HILLS 20/29 AP","well_type":"Oil and Gas","legal":"21-15N-20W-IM","filed_date":"2025-07-28"},"geometry":{"type":"Point","coordinates":[-99.340353,35.768221]}},{"type":"Feature","properties":{"county":"Custer","type_of_filing":"BED AQUIFER SEE MEMO, C BED AQUIFER SEE MEMO, C BED AQUIFER SEE MEMO","purpose":"New Drill","approval_date":"2025-06-19","spud":"Y","api_number":"3503922683","operator":"MEWBOURNE","well_name":"UNRUH 17/8 PA","well_type":"Oil and Gas","legal":"21-15N-20W-IM","filed_date":"2025-05-28"},"geometry":{"type":"Point","coordinates":[-99.340354,35.768139]}},{"type":"Feature","properties":{"county":"Custer","type_of_filing":"BED AQUIFER SEE MEMO, C BED AQUIFER SEE MEMO, C BED AQUIFER SEE MEMO","purpose":"New Drill","approval_date":"2025-06-19","spud":"Y","api_number":"3503922682","operator":"MEWBOURNE","well_name":"OMMEN 16/9 MD","well_type":"Oil and Gas","legal":"21-15N-20W-IM","filed_date":"2025-05-28"},"geometry":{"type":"Point","coordinates":[-99.340354,35.768056]}},{"type":"Feature","properties":{"county":"Custer","type_of_filing":"BED AQUIFER SEE MEMO, C BED AQUIFER SEE MEMO, C BED AQUIFER SEE MEMO","purpose":"New Drill","approval_date":"2025-06-25","spud":"Y","api_number":"3503922686","operator":"MEWBOURNE","well_name":"WANDA 30/31 DM","well_type":"Oil and Gas","legal":"30-15N-19W-IM","filed_date":"2025-06-24"},"geometry":{"type":"Point","coordinates":[-99.264861,35.75337]}},{"type":"Feature","properties":{"county":"Custer","type_of_filing":"BED AQUIFER SEE MEMO, C BED AQUIFER SEE MEMO, C BED AQUIFER SEE MEMO","purpose":"New Drill","approval_date":"2025-06-25","spud":"Y","api_number":"3503922685","operator":"MEWBOURNE","well_name":"PATSY 19/18 MD","well_type":"Oil and Gas","legal":"30-15N-19W-IM","filed_date":"2025-06-24"},"geometry":{"type":"Point","coordinates":[-99.264996,35.753371]}},{"type":"Feature","properties":{"county":"Roger Mills","type_of_filing":",   ,","purpose":"New Drill","approval_date":"2025-07-18","spud":"Y","api_number":"3512900013","operator":"MEWBOURNE","well_name":"STALLION 10-15 CN FEE COM","well_type":"OG","legal":"03-13N-22W-IM","filed_date":"2025-07-18"},"geometry":{"type":"Point","coordinates":[-99.531016,35.62462]}},{"type":"Feature","properties":{"county":"Custer","type_of_filing":", ,","purpose":"New Drill","approval_date":"2025-07-23","spud":"N","api_number":"3503900004","operator":"ARNOLD OIL PROPERTIES","well_name":"AGAN 22-15","well_type":"OG","legal":"26-13N-16W-IM","filed_date":"2025-07-23"},"geometry":{"type":"Point","coordinates":[-98.879611,35.579954]}},{"type":"Feature","properties":{"county":"Custer","type_of_filing":", ,","approval_date":"2025-07-28","spud":"N","api_number":"3503900005","operator":"ARNOLD OIL PROPERTIES","well_name":"AGAN 26-35","well_type":"OG","legal":"26-13N-16W-IM","filed_date":"2025-07-28"},"geometry":{"type":"Point","coordinates":[-98.879527,35.579954]}},{"type":"Feature","properties":{"county":"Custer","type_of_filing":",   ,","purpose":"New Drill","approval_date":"2025-08-29","spud":"Y","api_number":"3503900028","operator":"DEVON ENERGY","well_name":"MALLARD 26_35-14N-20W","well_type":"OG","legal":"26-14N-20W-IM","filed_date":"2025-08-29"},"geometry":{"type":"Point","coordinates":[-99.30483,35.666749]}},{"type":"Feature","properties":{"county":"Custer","type_of_filing":", ,","purpose":"New Drill","approval_date":"2025-09-05","spud":"Y","api_number":"3503900042","operator":"DEVON ENERGY","well_name":"CAYUGA 27_34-14N-20W","well_type":"OG","legal":"26-14N-20W-IM","filed_date":"2025-09-05"},"geometry":{"type":"Point","coordinates":[-99.305032,35.666746]}},{"type":"Feature","properties":{"county":"Custer","type_of_filing":",   ,","purpose":"New Drill","approval_date":"2025-09-11","spud":"Y","api_number":"3503900045","operator":"DEVON ENERGY","well_name":"CAYUGA 27_34-14N-20W","well_type":"OG","legal":"26-14N-20W-IM","filed_date":"2025-09-11"},"geometry":{"type":"Point","coordinates":[-99.304931,35.666747]}},{"type":"Feature","properties":{"county":"Roger Mills","type_of_filing":", ,","purpose":"New Drill","approval_date":"2025-10-27","spud":"Y","api_number":"3512900050","operator":"CRAWLEY PETROLEUM","well_name":"BEATY","well_type":"OG","legal":"02-13N-23W-IM","filed_date":"2025-10-27"},"geometry":{"type":"Point","coordinates":[-99.612756,35.625052]}},{"type":"Feature","properties":{"county":"Roger Mills","type_of_filing":",   ,","purpose":"New Drill","approval_date":"2025-10-28","spud":"Y","api_number":"3512900051","operator":"CRAWLEY PETROLEUM","well_name":"BEATY","well_type":"OG","legal":"02-13N-23W-IM","filed_date":"2025-10-28"},"geometry":{"type":"Point","coordinates":[-99.612689,35.625051]}},{"type":"Feature","properties":{"county":"Roger Mills","type_of_filing":", ,","purpose":"New Drill","approval_date":"2025-11-25","spud":"Y","api_number":"3512900056","operator":"MEWBOURNE","well_name":"QUARTER CIRCLE S 22-34 IP","well_type":"OG","legal":"22-13N-23W-IM","filed_date":"2025-11-25"},"geometry":{"type":"Point","coordinates":[-99.627667,35.588478]}},{"type":"Feature","properties":{"county":"Beckham","type_of_filing":", ,","purpose":"New Drill","approval_date":"2025-11-26","spud":"N","api_number":"3500900005","operator":"KING ENERGY","well_name":"HUTSON","well_type":"OG","legal":"19-11N-23W-IM","filed_date":"2025-11-26"},"geometry":{"type":"Point","coordinates":[-99.666761,35.408369]}},{"type":"Feature","properties":{"county":"Roger Mills","type_of_filing":", ,","purpose":"New Drill","approval_date":"2025-12-01","spud":"Y","api_number":"3512900057","operator":"MEWBOURNE","well_name":"CHIQUITA 22-10 HA FEE COM","well_type":"OG","legal":"22-13N-23W-IM","filed_date":"2025-12-01"},"geometry":{"type":"Point","coordinates":[-99.627683,35.588368]}},{"type":"Feature","properties":{"county":"Custer","operator":"NADEL & GUSSMAN","well_name":"ARACARI 1-12-1XH","legal":"12-13N-20W-IM","filed_date":"2025-12-17"},"geometry":{"type":"Point","coordinates":[-99.282888,35.615906]}},{"type":"Feature","properties":{"county":"Custer","type_of_filing":", ,","purpose":"New Drill","approval_date":"2025-12-19","spud":"N","api_number":"3503900053","operator":"TERRITORY RESOURCES","well_name":"WF CALL 6-7-18","well_type":"OG","legal":"06-12N-17W-IM","filed_date":"2025-12-19"},"geometry":{"type":"Point","coordinates":[-99.041789,35.550914]}},{"type":"Feature","properties":{"county":"Custer","type_of_filing":", ,","purpose":"New Drill","approval_date":"2025-12-22","spud":"N","api_number":"3503900054","operator":"DEVON ENERGY","well_name":"MALLARD 26_35-14N-20W","well_type":"OG","legal":"26-14N-20W-IM","filed_date":"2025-12-22"},"geometry":{"type":"Point","coordinates":[-99.305133,35.666745]}},{"type":"Feature","properties":{"county":"Custer","type_of_filing":",   ,","purpose":"New Drill","approval_date":"2025-12-26","spud":"N","api_number":"3503900055","operator":"DUNCAN OIL PROPERTIES","well_name":"BIOTITE","well_type":"OG","legal":"16-15N-19W-IM","filed_date":"2025-12-26"},"geometry":{"type":"Point","coordinates":[-99.232329,35.769855]}},{"type":"Feature","properties":{"county":"Roger Mills","type_of_filing":", ,","purpose":"New Drill","approval_date":"2025-12-30","spud":"N","api_number":"3512900065","operator":"CRAWLEY PETROLEUM","well_name":"JAMES","well_type":"OG","legal":"03-13N-23W-IM","filed_date":"2025-12-30"},"geometry":{"type":"Point","coordinates":[-99.637924,35.625777]}},{"type":"Feature","properties":{"county":"Custer","type_of_filing":", ,","purpose":"New Drill","approval_date":"2026-01-13","spud":"N","api_number":"3503900057","operator":"MEWBOURNE","well_name":"WILD HORSE CREEK 11-14 BO","well_type":"OG","legal":"02-15N-20W-IM","filed_date":"2026-01-13"},"geometry":{"type":"Point","coordinates":[-99.297226,35.79884]}},{"type":"Feature","properties":{"county":"Custer","type_of_filing":", ,","purpose":"New Drill","approval_date":"2026-01-13","spud":"N","api_number":"3503900056","operator":"MEWBOURNE","well_name":"WILD HORSE CREEK 11-14 CN","well_type":"OG","legal":"02-15N-20W-IM","filed_date":"2026-01-13"},"geometry":{"type":"Point","coordinates":[-99.297226,35.79873]}},{"type":"Feature","properties":{"county":"Custer","type_of_filing":", ,","purpose":"New Drill","approval_date":"2026-01-14","spud":"N","api_number":"3503900059","operator":"NADEL & GUSSMAN","well_name":"HAMERKOP","well_type":"OG","legal":"28-14N-19W-IM","filed_date":"2026-01-14"},"geometry":{"type":"Point","coordinates":[-99.221877,35.667019]}},{"type":"Feature","properties":{"county":"Custer","type_of_filing":", ,","purpose":"New Drill","approval_date":"2026-01-14","spud":"N","api_number":"3503900058","operator":"NADEL & GUSSMAN","well_name":"HAMERKOP","well_type":"OG","legal":"28-14N-19W-IM","filed_date":"2026-01-14"},"geometry":{"type":"Point","coordinates":[-99.221877,35.666965]}},{"type":"Feature","properties":{"county":"Custer","type_of_filing":", ,","purpose":"Amend","approval_date":"2026-01-20","spud":"N","api_number":"3503900057","operator":"MEWBOURNE","well_name":"WILD HORSE CREEK 11-14 BO","well_type":"OG","legal":"02-15N-20W-IM","filed_date":"2026-01-20"},"geometry":{"type":"Point","coordinates":[-99.297226,35.79884]}},{"type":"Feature","properties":{"county":"Custer","type_of_filing":", ,","purpose":"New Drill","approval_date":"2026-01-27","spud":"N","api_number":"3503900060","operator":"ADPARO LLC","well_name":"KEPHART","well_type":"OG","legal":"06-12N-19W-IM","filed_date":"2026-01-27"},"geometry":{"type":"Point","coordinates":[-99.254179,35.550436]}},{"type":"Feature","properties":{"county":"Custer","type_of_filing":", ,","purpose":"New Drill","approval_date":"2026-01-28","spud":"N","api_number":"3503900061","operator":"TERRITORY RESOURCES","well_name":"JOSHUA DEETS 29-32","well_type":"OG","legal":"29-13N-18W-IM","filed_date":"2026-01-28"},"geometry":{"type":"Point","coordinates":[-99.134946,35.579948]}},{"type":"Feature","properties":{"county":"Custer","type_of_filing":",   ,","purpose":"Amend","approval_date":"2026-02-03","spud":"N","api_number":"3503900059","operator":"NADEL & GUSSMAN","well_name":"HAMERKOP","well_type":"OG","legal":"28-14N-19W-IM","filed_date":"2026-02-03"},"geometry":{"type":"Point","coordinates":[-99.221877,35.667019]}},{"type":"Feature","properties":{"county":"Custer","type_of_filing":", ,","purpose":"Amend","approval_date":"2026-02-03","spud":"N","api_number":"3503900058","operator":"NADEL & GUSSMAN","well_name":"HAMERKOP","well_type":"OG","legal":"28-14N-19W-IM","filed_date":"2026-02-03"},"geometry":{"type":"Point","coordinates":[-99.221877,35.666965]}},{"type":"Feature","properties":{"county":"Caddo","type_of_filing":", ,","purpose":"New Drill","approval_date":"2026-02-04","spud":"N","api_number":"3501500134","operator":"NOVO II OPERATING, LLC","well_name":"WRIGLEY 1918","well_type":"OG","legal":"19-11N-11W-IM","filed_date":"2026-02-04"},"geometry":{"type":"Point","coordinates":[-98.409094,35.407119]}},{"type":"Feature","properties":{"county":"Custer","type_of_filing":",   ,","purpose":"New Drill","approval_date":"2026-02-05","spud":"N","api_number":"3503900064","operator":"DEVON ENERGY","well_name":"CINNAMON 14_11_2-13N-20W","well_type":"OG","legal":"14-13N-20W-IM","filed_date":"2026-02-05"},"geometry":{"type":"Point","coordinates":[-99.296118,35.603467]}},{"type":"Feature","properties":{"county":"Custer","type_of_filing":", ,","purpose":"New Drill","approval_date":"2026-02-05","spud":"N","api_number":"3503900063","operator":"DEVON ENERGY","well_name":"CINNAMON 14_11_2-13N-20W","well_type":"OG","legal":"14-13N-20W-IM","filed_date":"2026-02-05"},"geometry":{"type":"Point","coordinates":[-99.29632,35.603465]}},{"type":"Feature","properties":{"county":"Custer","type_of_filing":", ,","purpose":"New Drill","approval_date":"2026-02-05","spud":"N","api_number":"3503900062","operator":"DEVON ENERGY","well_name":"CINNAMON 14_11_2-13N-20W","well_type":"OG","legal":"14-13N-20W-IM","filed_date":"2026-02-05"},"geometry":{"type":"Point","coordinates":[-99.296219,35.603466]}},{"type":"Feature","properties":{"county":"Roger Mills","type_of_filing":",   ,","purpose":"New Drill","approval_date":"2026-02-26","spud":"N","api_number":"3512900080","operator":"MEWBOURNE","well_name":"SOUTH SUDS 27-34 AP","well_type":"OG","legal":"27-13N-21W-IM","filed_date":"2026-02-26"},"geometry":{"type":"Point","coordinates":[-99.41608,35.580156]}},{"type":"Feature","properties":{"county":"Custer","type_of_filing":", ,","purpose":"Amend","approval_date":"2026-02-26","spud":"N","api_number":"3503900057","operator":"MEWBOURNE","well_name":"WILD HORSE CREEK 11-14 BO","well_type":"OG","legal":"02-15N-20W-IM","filed_date":"2026-02-26"},"geometry":{"type":"Point","coordinates":[-99.297226,35.79884]}},{"type":"Feature","properties":{"county":"Custer","type_of_filing":", ,","purpose":"Amend","approval_date":"2026-02-26","spud":"N","api_number":"3503900056","operator":"MEWBOURNE","well_name":"WILD HORSE CREEK 11-14 CN","well_type":"OG","legal":"02-15N-20W-IM","filed_date":"2026-02-26"},"geometry":{"type":"Point","coordinates":[-99.297226,35.79873]}},{"type":"Feature","properties":{"county":"Roger Mills","type_of_filing":", ,","purpose":"New Drill","approval_date":"2026-03-02","spud":"N","api_number":"3512900081","operator":"MEWBOURNE","well_name":"KIOWA CREEK 22-15 PA","well_type":"OG","legal":"27-13N-21W-IM","filed_date":"2026-03-02"},"geometry":{"type":"Point","coordinates":[-99.415945,35.580155]}},{"type":"Feature","properties":{"county":"Custer","type_of_filing":", ,","purpose":"New Drill","approval_date":"2026-03-18","spud":"N","api_number":"3503900075","operator":"NADEL & GUSSMAN","well_name":"ARACARI","well_type":"OG","legal":"12-13N-20W-IM","filed_date":"2026-03-18"},"geometry":{"type":"Point","coordinates":[-99.282888,35.615906]}},{"type":"Feature","properties":{"county":"Custer","type_of_filing":", ,","purpose":"New Drill","approval_date":"2026-03-18","spud":"N","api_number":"3503900074","operator":"NADEL & GUSSMAN","well_name":"ANHINGA","well_type":"OG","legal":"12-13N-20W-IM","filed_date":"2026-03-18"},"geometry":{"type":"Point","coordinates":[-99.282955,35.615905]}},{"type":"Feature","properties":{"county":"Custer","type_of_filing":", ,","purpose":"New Drill","approval_date":"2026-03-30","spud":"N","api_number":"3503900081","operator":"MEWBOURNE","well_name":"AVENE 14-11 PA","well_type":"OG","legal":"14-13N-17W-IM","filed_date":"2026-03-30"},"geometry":{"type":"Point","coordinates":[-98.973923,35.595522]}},{"type":"Feature","properties":{"county":"Custer","type_of_filing":", ,","purpose":"New Drill","approval_date":"2026-04-15","spud":"N","api_number":"3503900083","operator":"BCE-MACH III LLC","well_name":"HUNTER 2-35-13-17","well_type":"OG","legal":"11-12N-17W-IM","filed_date":"2026-04-15"},"geometry":{"type":"Point","coordinates":[-98.9707,35.536951]}},{"type":"Feature","properties":{"county":"Canadian","type_of_filing":", ,","purpose":"New Drill","approval_date":"2026-05-06","spud":"N","api_number":"3501700145","operator":"BCE-MACH LLC","well_name":"JIMMY 30-19-18-11-10","well_type":"OG","legal":"31-11N-10W-IM","filed_date":"2026-05-06"},"geometry":{"type":"Point","coordinates":[-98.305393,35.390782]}},{"type":"Feature","properties":{"county":"Canadian","type_of_filing":", ,","purpose":"New Drill","approval_date":"2026-05-06","spud":"N","api_number":"3501700144","operator":"BCE-MACH LLC","well_name":"JIMMY 25-24-13-11-11","well_type":"OG","legal":"31-11N-10W-IM","filed_date":"2026-05-06"},"geometry":{"type":"Point","coordinates":[-98.30546,35.390782]}},{"type":"Feature","properties":{"county":"Custer","operator":"NADEL & GUSSMAN","well_name":"WARBLER 3-16-21XH","legal":"9-13N-19W-IM","filed_date":"2026-05-19"},"geometry":{"type":"Point","coordinates":[-99.223659,35.610451]}},{"type":"Feature","properties":{"county":"Custer","operator":"NADEL & GUSSMAN","well_name":"WARBLER 1-16-21XH","legal":"9-13N-19W-IM","filed_date":"2026-05-21"},"geometry":{"type":"Point","coordinates":[-99.223793,35.610451]}},{"type":"Feature","properties":{"county":"Caddo","type_of_filing":", ,","purpose":"New Drill","approval_date":"2026-05-26","spud":"N","api_number":"3501500224","operator":"TAMWORTH RESOURCES LLC","well_name":"DORSEY 1111","well_type":"OG","legal":"29-11N-11W-IM","filed_date":"2026-05-26"},"geometry":{"type":"Point","coordinates":[-98.386189,35.405765]}}]}