{"type":"FeatureCollection","name":"Well laterals (Oseberg)","crs":{"type":"name","properties":{"name":"urn:ogc:def:crs:OGC:1.3:CRS84"}},"features":[{"type":"Feature","properties":{"api_number":"3503922624","operator":"NADEL & GUSSMAN","well_name":"PUFFIN 1-4-9XH","lease_name":"PUFFIN","well_number":"1-4-9XH","well_status":"Active","well_type":"Gas","total_depth_ft":19704.0,"lateral_length_ft":7599.0,"spud_date":"2023-08-01","county":"Custer"},"geometry":{"type":"LineString","coordinates":[[-99.22759082,35.63799575],[-99.226823,35.6174295]]}},{"type":"Feature","properties":{"api_number":"3501523340","operator":"STAGHORN","well_name":"TRIPLE CROWN 11-12-33-28 1HW","lease_name":"TRIPLE CROWN 11-12-33-28","well_number":"1HW","well_status":"Active","well_type":"Gas","total_depth_ft":26094.0,"lateral_length_ft":7409.0,"spud_date":"2023-08-20","county":"Caddo"},"geometry":{"type":"LineString","coordinates":[[-98.47815281,35.37825701],[-98.478892,35.399491]]}},{"type":"Feature","properties":{"api_number":"3503922627","operator":"MEWBOURNE","well_name":"SAGE DRAGON 32/5 AP","lease_name":"SAGE DRAGON 32/5 AP","well_number":"1H","well_status":"Active","well_type":"Oil","total_depth_ft":21015.0,"lateral_length_ft":9597.0,"spud_date":"2023-09-25","county":"Custer"},"geometry":{"type":"LineString","coordinates":[[-99.34482747,35.74074903],[-99.3450885,35.7125855]]}},{"type":"Feature","properties":{"api_number":"3501523342","operator":"BLAKE PRODUCTION","well_name":"SWEET CAROLINE 1112 1-5-8XH","lease_name":"SWEET CAROLINE 1112","well_number":"1-5-8XH","well_status":"Active","well_type":"Oil","total_depth_ft":19125.0,"lateral_length_ft":9032.0,"spud_date":"2023-09-26","county":"Caddo"},"geometry":{"type":"LineString","coordinates":[[-98.49761198,35.46493404],[-98.4887425,35.4393155]]}},{"type":"Feature","properties":{"api_number":"3503922628","operator":"DEVON ENERGY","well_name":"MALLARD 1HX","lease_name":"MALLARD","well_number":"1HX","well_status":"Active","well_type":"Oil","total_depth_ft":21548.0,"lateral_length_ft":10057.0,"spud_date":"2024-02-02","county":"Custer"},"geometry":{"type":"LineString","coordinates":[[-99.28895022,35.6666278],[-99.289853,35.639154]]}},{"type":"Feature","properties":{"api_number":"3503922632","operator":"MEWBOURNE","well_name":"ABERNATHY 1/12 CN 2HR","lease_name":"ABERNATHY 1/12 CN","well_number":"2HR","well_status":"Active","well_type":"Oil","total_depth_ft":21549.0,"lateral_length_ft":9710.0,"spud_date":"2024-02-11","county":"Custer"},"geometry":{"type":"LineString","coordinates":[[-98.96311517,35.63796864],[-98.96293721,35.6103995]]}},{"type":"Feature","properties":{"api_number":"3503922631","operator":"MEWBOURNE","well_name":"HUGHES 17/8 ML","lease_name":"HUGHES 17/8 ML","well_number":"1H","well_status":"Active","well_type":"Oil","total_depth_ft":19275.0,"lateral_length_ft":7279.0,"spud_date":"2024-03-28","county":"Custer"},"geometry":{"type":"LineString","coordinates":[[-98.92906086,35.59552522],[-98.9284905,35.615372]]}},{"type":"Feature","properties":{"api_number":"3503922634","operator":"DUNCAN OIL PROPERTIES","well_name":"KR","lease_name":"KR","well_number":"1-10H","well_status":"Active","well_type":"Oil","total_depth_ft":14752.0,"lateral_length_ft":4844.0,"spud_date":"2024-04-03","county":"Custer"},"geometry":{"type":"LineString","coordinates":[[-99.20516884,35.79918329],[-99.20435379,35.78391498]]}},{"type":"Feature","properties":{"api_number":"3503922635","operator":"MEWBOURNE","well_name":"TRIGGER 4 MD","lease_name":"TRIGGER 4 MD","well_number":"1H","well_status":"Active","well_type":"Gas","total_depth_ft":16834.0,"lateral_length_ft":4650.0,"spud_date":"2024-05-02","county":"Custer"},"geometry":{"type":"LineString","coordinates":[[-99.0190223,35.6247041],[-99.0194151,35.62444325]]}},{"type":"Feature","properties":{"api_number":"3503922633","operator":"MEWBOURNE","well_name":"HAGGARD 2/35 PA","lease_name":"HAGGARD 2/35 PA","well_number":"2H","well_status":"Active","well_type":"Oil","total_depth_ft":22109.0,"lateral_length_ft":9969.0,"spud_date":"2024-06-22","county":"Custer"},"geometry":{"type":"LineString","coordinates":[[-98.97227657,35.62362747],[-98.97289469,35.65267575]]}},{"type":"Feature","properties":{"api_number":"3503922640","operator":"NADEL & GUSSMAN","well_name":"OSPREY 1-10-15XH","lease_name":"OSPREY","well_number":"1-10-15XH","well_status":"Active","well_type":"Gas","total_depth_ft":20160.0,"lateral_length_ft":8461.0,"spud_date":"2024-07-01","county":"Custer"},"geometry":{"type":"LineString","coordinates":[[-99.20062284,35.62495073],[-99.2013365,35.601994]]}},{"type":"Feature","properties":{"api_number":"3503922641","operator":"MEWBOURNE","well_name":"LEROY 36/1 DM","lease_name":"LEROY 36/1 DM","well_number":"1H","well_status":"Active","well_type":"Oil","total_depth_ft":21400.0,"lateral_length_ft":9900.0,"spud_date":"2024-10-08","county":"Custer"},"geometry":{"type":"LineString","coordinates":[[-99.28858511,35.73947147],[-99.28417441,35.7114925]]}},{"type":"Feature","properties":{"api_number":"3503922642","operator":"MEWBOURNE","well_name":"MOORE 35/2 AP","lease_name":"MOORE 35/2 AP","well_number":"1H","well_status":"Active","well_type":"Oil","total_depth_ft":21317.0,"lateral_length_ft":9908.0,"spud_date":"2024-10-10","county":"Custer"},"geometry":{"type":"LineString","coordinates":[[-99.28872033,35.73947147],[-99.290769,35.7123965]]}},{"type":"Feature","properties":{"api_number":"3503922644","operator":"MEWBOURNE","well_name":"MOOREWOOD 30/19 PA","lease_name":"MOOREWOOD 30/19 PA","well_number":"1H","well_status":"Active","well_type":"Oil","total_depth_ft":21165.0,"lateral_length_ft":9745.0,"spud_date":"2024-11-24","county":"Custer"},"geometry":{"type":"LineString","coordinates":[[-99.36262482,35.73932113],[-99.36267,35.767593]]}},{"type":"Feature","properties":{"api_number":"3503922647","operator":"DEVON ENERGY","well_name":"GADWALL 27_34-13N-20W 1HX","lease_name":"GADWALL 27_34-13N-20W","well_number":"1HX","well_status":"Active","well_type":"Oil","total_depth_ft":22446.0,"lateral_length_ft":10420.0,"spud_date":"2024-11-30","county":"Custer"},"geometry":{"type":"LineString","coordinates":[[-99.3136505,35.57971906],[-99.31893769,35.55211175]]}},{"type":"Feature","properties":{"api_number":"3503922655","operator":"NADEL & GUSSMAN","well_name":"QUETZAL 1-6-7XH","lease_name":"QUETZAL","well_number":"1-6-7XH","well_status":"Active","well_type":"Oil and Gas","spud_date":"2025-01-08","county":"Custer"},"geometry":{"type":"LineString","coordinates":[[-99.26494747,35.63931079],[-99.26787955,35.61057775]]}},{"type":"Feature","properties":{"api_number":"3512924168","operator":"MEWBOURNE","well_name":"CARPENTER 1/12 AP","lease_name":"CARPENTER 1/12 AP","well_number":"1H","well_status":"Active","well_type":"Oil and Gas","total_depth_ft":22017.0,"lateral_length_ft":9909.0,"county":"Roger Mills"},"geometry":{"type":"LineString","coordinates":[[-99.36763,35.550771],[-99.3685402,35.52382599]]}},{"type":"Feature","properties":{"api_number":"3503922645","operator":"MEWBOURNE","well_name":"STRICKLAN 31/6 AP","lease_name":"STRICKLAN 31/6 AP","well_number":"1H","well_status":"Active","well_type":"Oil","total_depth_ft":21450.0,"lateral_length_ft":9865.0,"spud_date":"2025-01-14","county":"Custer"},"geometry":{"type":"LineString","coordinates":[[-99.36275824,35.73932113],[-99.362852,35.712577]]}},{"type":"Feature","properties":{"api_number":"3503922649","operator":"DEVON ENERGY","well_name":"GADWALL 27_34-13N-20W 2HX","lease_name":"GADWALL 27_34-13N-20W","well_number":"2HX","well_status":"Active","well_type":"Oil","total_depth_ft":22317.0,"lateral_length_ft":10298.0,"spud_date":"2025-01-15","county":"Custer"},"geometry":{"type":"LineString","coordinates":[[-99.31354978,35.57971906],[-99.31339529,35.5521065]]}},{"type":"Feature","properties":{"api_number":"3503922656","operator":"NADEL & GUSSMAN","well_name":"QUETZAL 1-6-7XHR","lease_name":"QUETZAL","well_number":"1-6-7XHR","well_status":"Active","well_type":"Oil","total_depth_ft":21915.0,"lateral_length_ft":10560.0,"spud_date":"2025-01-26","county":"Custer"},"geometry":{"type":"LineString","coordinates":[[-99.26501464,35.63931079],[-99.2678796,35.61012375]]}},{"type":"Feature","properties":{"api_number":"3503922664","operator":"SELECT WATER SOLUTIONS, LLC","well_name":"FLICK SWD","lease_name":"FLICK SWD","well_number":"1","well_status":"Active","well_type":"Injection or Salt Water Disposal","total_depth_ft":9485.0,"lateral_length_ft":0.0,"county":"Custer"},"geometry":{"type":"LineString","coordinates":[[-99.312303,35.610483],[-99.3087761,35.61019875]]}},{"type":"Feature","properties":{"api_number":"3503922657","operator":"DUNCAN OIL PROPERTIES","well_name":"TOPAZ","lease_name":"TOPAZ","well_number":"1-13HX","well_status":"Active","well_type":"Oil and Gas","total_depth_ft":21770.0,"lateral_length_ft":11456.0,"spud_date":"2025-02-26","county":"Custer"},"geometry":{"type":"LineString","coordinates":[[-99.167732,35.680837],[-99.1668824,35.71058175]]}},{"type":"Feature","properties":{"api_number":"3512924169","operator":"MEWBOURNE","well_name":"CARPENTER 12/1 OB","lease_name":"CARPENTER 12/1 OB","well_number":"1H","well_status":"Active","well_type":"Oil","total_depth_ft":22200.0,"lateral_length_ft":9183.0,"spud_date":"2025-02-28","county":"Roger Mills"},"geometry":{"type":"LineString","coordinates":[[-99.36887625,35.52395672],[-99.36797562,35.55132031]]}},{"type":"Feature","properties":{"api_number":"3503922666","operator":"DUNCAN OIL PROPERTIES","well_name":"TOPAZ 1-13HX(R)","lease_name":"TOPAZ","well_number":"1-13HX(R)","well_status":"Active","well_type":"Oil","total_depth_ft":20370.0,"lateral_length_ft":8778.0,"spud_date":"2025-03-01","county":"Custer"},"geometry":{"type":"LineString","coordinates":[[-99.16775913,35.68089895],[-99.1668825,35.7069545]]}},{"type":"Feature","properties":{"api_number":"3503922648","operator":"DEVON ENERGY","well_name":"GADWALL 27_34-13N-20W 3HX","lease_name":"GADWALL 27_34-13N-20W","well_number":"3HX","well_status":"Active","well_type":"Oil","total_depth_ft":22408.0,"lateral_length_ft":10391.0,"spud_date":"2025-03-06","county":"Custer"},"geometry":{"type":"LineString","coordinates":[[-99.31344907,35.57972184],[-99.3078563,35.5521015]]}},{"type":"Feature","properties":{"api_number":"3503922669","operator":"MEWBOURNE","well_name":"QUARTERMASTER 28/21 PA","lease_name":"QUARTERMASTER 28/21 PA","well_number":"1H","well_status":"Active","well_type":"Oil","total_depth_ft":21300.0,"lateral_length_ft":9840.0,"spud_date":"2025-03-19","county":"Custer"},"geometry":{"type":"LineString","coordinates":[[-99.32758191,35.74055652],[-99.3271135,35.7676825]]}},{"type":"Feature","properties":{"api_number":"3503922663","operator":"NADEL & GUSSMAN","well_name":"COTINGA 1-14-23XH","lease_name":"COTINGA","well_number":"1-14-23XH","well_status":"Active","well_type":"Gas","total_depth_ft":22543.0,"lateral_length_ft":10564.0,"spud_date":"2025-03-29","county":"Custer"},"geometry":{"type":"LineString","coordinates":[[-99.29012142,35.58009733],[-99.29001479,35.60924925]]}},{"type":"Feature","properties":{"api_number":"3503922674","operator":"MEWBOURNE","well_name":"NICHOLSON 3/10 BO","lease_name":"NICHOLSON 3/10 BO","well_number":"1H","well_status":"Active","well_type":"Oil","total_depth_ft":22171.0,"lateral_length_ft":9864.0,"spud_date":"2025-04-20","county":"Custer"},"geometry":{"type":"LineString","coordinates":[[-98.99146899,35.63817682],[-98.99172555,35.61038525]]}},{"type":"Feature","properties":{"api_number":"3503922667","operator":"MEWBOURNE","well_name":"WELDON 34/27 PA","lease_name":"WELDON 34/27 PA","well_number":"1H","well_status":"Active","well_type":"Oil","total_depth_ft":21248.0,"lateral_length_ft":9803.0,"spud_date":"2025-04-27","county":"Custer"},"geometry":{"type":"LineString","coordinates":[[-99.31028242,35.72492609],[-99.309516,35.7532055]]}},{"type":"Feature","properties":{"api_number":"3503922670","operator":"MEWBOURNE","well_name":"HYMAN 3/10 AP","lease_name":"HYMAN 3/10 AP","well_number":"1H","well_status":"Active","well_type":"Oil","total_depth_ft":21455.0,"lateral_length_ft":9922.0,"spud_date":"2025-04-28","county":"Custer"},"geometry":{"type":"LineString","coordinates":[[-99.31014804,35.72492609],[-99.30958,35.6980425]]}},{"type":"Feature","properties":{"api_number":"3503922673","operator":"MEWBOURNE","well_name":"CLINT 9 DM","lease_name":"CLINT 9 DM","well_number":"1H","well_status":"Active","well_type":"Gas","total_depth_ft":16887.0,"lateral_length_ft":4618.0,"spud_date":"2025-05-06","county":"Custer"},"geometry":{"type":"LineString","coordinates":[[-99.01852244,35.6252051],[-99.0193975,35.6108335]]}},{"type":"Feature","properties":{"api_number":"3503922658","operator":"DUNCAN OIL PROPERTIES","well_name":"EMERALD 1-5HX","lease_name":"EMERALD","well_number":"1-5HX","well_status":"Active","well_type":"Oil","total_depth_ft":21137.0,"lateral_length_ft":10198.0,"spud_date":"2025-05-15","county":"Custer"},"geometry":{"type":"LineString","coordinates":[[-99.23757585,35.79686958],[-99.2374859,35.82638275]]}},{"type":"Feature","properties":{"api_number":"3512924197","operator":"MEWBOURNE","well_name":"RED ROOSTER 1/12 DM FEE COM","lease_name":"RED ROOSTER 1/12 DM FEE COM","well_number":"1H","well_status":"Active","well_type":"Gas","total_depth_ft":22058.0,"lateral_length_ft":10033.0,"spud_date":"2025-06-26","county":"Roger Mills"},"geometry":{"type":"LineString","coordinates":[[-99.60220819,35.63968066],[-99.6017619,35.61031275]]}},{"type":"Feature","properties":{"api_number":"3503900004","operator":"ARNOLD OIL PROPERTIES","well_name":"AGAN 22-15","lease_name":"AGAN 22-15","well_number":"1H","well_status":"Never Drilled","well_type":"Service","total_depth_ft":12195.0,"lateral_length_ft":0.0,"county":"Custer"},"geometry":{"type":"LineString","coordinates":[[-98.879611,35.579954],[-98.87982215,35.58005982]]}},{"type":"Feature","properties":{"api_number":"3503922683","operator":"MEWBOURNE","well_name":"UNRUH 17/8 PA","lease_name":"UNRUH 17/8 PA","well_number":"1H","well_status":"Active","well_type":"Oil","total_depth_ft":21345.0,"lateral_length_ft":10058.0,"spud_date":"2025-07-27","county":"Custer"},"geometry":{"type":"LineString","coordinates":[[-99.34044503,35.76815935],[-99.34475724,35.79738821]]}},{"type":"Feature","properties":{"api_number":"3503922682","operator":"MEWBOURNE","well_name":"OMMEN 16/9 MD","lease_name":"OMMEN 16/9 MD","well_number":"1H","well_status":"Active","well_type":"Oil","total_depth_ft":21475.0,"lateral_length_ft":10144.0,"spud_date":"2025-07-27","county":"Custer"},"geometry":{"type":"LineString","coordinates":[[-99.34044503,35.76807672],[-99.33809768,35.79743375]]}},{"type":"Feature","properties":{"api_number":"3503922684","operator":"MEWBOURNE","well_name":"COW HILLS 20/29 AP","lease_name":"COW HILLS 20/29 AP","well_number":"1H","well_status":"Active","well_type":"Oil and Gas","total_depth_ft":20725.0,"lateral_length_ft":9396.0,"spud_date":"2025-07-28","county":"Custer"},"geometry":{"type":"LineString","coordinates":[[-99.340353,35.768221],[-99.3259959,35.7554745]]}},{"type":"Feature","properties":{"api_number":"3503922685","operator":"MEWBOURNE","well_name":"PATSY 19/18 MD","lease_name":"PATSY 19/18 MD","well_number":"1H","well_status":"Active","well_type":"Oil","total_depth_ft":21452.0,"lateral_length_ft":10020.0,"spud_date":"2025-08-08","county":"Custer"},"geometry":{"type":"LineString","coordinates":[[-99.26547058,35.75335245],[-99.265247,35.7829405]]}},{"type":"Feature","properties":{"api_number":"3503922686","operator":"MEWBOURNE","well_name":"WANDA 30/31 DM","lease_name":"WANDA 30/31 DM","well_number":"1H","well_status":"Active","well_type":"Oil","total_depth_ft":21615.0,"lateral_length_ft":10183.0,"spud_date":"2025-08-09","county":"Custer"},"geometry":{"type":"LineString","coordinates":[[-99.26533526,35.75335245],[-99.2654214,35.72603175]]}},{"type":"Feature","properties":{"api_number":"3512900014","operator":"MEWBOURNE","well_name":"DEWAYNE 3-34 NC FEE COM","lease_name":"Dewayne 3-34 NC Fee Com","well_number":"1H","well_status":"Active","well_type":"Oil","total_depth_ft":22440.0,"lateral_length_ft":10149.0,"spud_date":"2025-09-02","county":"Roger Mills"},"geometry":{"type":"LineString","coordinates":[[-99.530881,35.62456357],[-99.53096561,35.65292726]]}},{"type":"Feature","properties":{"api_number":"3503900039","operator":"NADEL & GUSSMAN","well_name":"CARACARA 1-32-29XH","lease_name":"CARACARA","well_number":"1-32-29XH","well_status":"Active","well_type":"Oil","total_depth_ft":11400.0,"lateral_length_ft":10225.0,"spud_date":"2025-09-20","county":"Custer"},"geometry":{"type":"LineString","coordinates":[[-99.249079,35.637704],[-99.25007121,35.667194]]}},{"type":"Feature","properties":{"api_number":"3512900035","operator":"MEWBOURNE","well_name":"DML FARMS 3-10 AP","lease_name":"DML Farms 3-10 AP","well_number":"1H","well_status":"Active","well_type":"Oil","total_depth_ft":22439.0,"lateral_length_ft":10258.0,"spud_date":"2025-10-01","county":"Roger Mills"},"geometry":{"type":"LineString","coordinates":[[-99.414842,35.64143846],[-99.4162519,35.61028525]]}},{"type":"Feature","properties":{"api_number":"3503900042","operator":"DEVON ENERGY","well_name":"Cayuga 27_34-14N-20W","lease_name":"Cayuga 27_34-14N-20W","well_number":"2HX","well_status":"Active","well_type":"Service","total_depth_ft":11500.0,"lateral_length_ft":0.0,"spud_date":"2025-11-05","county":"Custer"},"geometry":{"type":"LineString","coordinates":[[-99.305032,35.666746],[-99.30525525,35.66630845]]}},{"type":"Feature","properties":{"api_number":"3512900050","operator":"CRAWLEY PETROLEUM","well_name":"Beaty","lease_name":"Beaty","well_number":"1-2-11-14CHX","well_status":"Active","well_type":"Service","total_depth_ft":11550.0,"lateral_length_ft":0.0,"spud_date":"2025-11-08","county":"Roger Mills"},"geometry":{"type":"LineString","coordinates":[[-99.612756,35.625052],[-99.61264829,35.6247805]]}},{"type":"Feature","properties":{"api_number":"3503900045","operator":"DEVON ENERGY","well_name":"Cayuga 27_34-14N-20W","lease_name":"Cayuga 27_34-14N-20W","well_number":"3HX","well_status":"Active","well_type":"Service","total_depth_ft":11500.0,"lateral_length_ft":0.0,"spud_date":"2025-11-28","county":"Custer"},"geometry":{"type":"LineString","coordinates":[[-99.304931,35.666747],[-99.30525525,35.66630845]]}},{"type":"Feature","properties":{"api_number":"3512900051","operator":"CRAWLEY PETROLEUM","well_name":"Beaty","lease_name":"Beaty","well_number":"1-2-35CHX","well_status":"Active","well_type":"Service","total_depth_ft":11524.0,"lateral_length_ft":0.0,"spud_date":"2026-01-03","county":"Roger Mills"},"geometry":{"type":"LineString","coordinates":[[-99.612689,35.625051],[-99.61264829,35.6247805]]}}]}