{"type":"FeatureCollection","name":"Well surface points (Oseberg)","crs":{"type":"name","properties":{"name":"urn:ogc:def:crs:OGC:1.3:CRS84"}},"features":[{"type":"Feature","properties":{"api_number":"3503922624","operator":"NADEL & GUSSMAN","well_name":"PUFFIN 1-4-9XH","lease_name":"PUFFIN","well_number":"1-4-9XH","well_status":"Active","well_type":"Gas","total_depth_ft":19704.0,"spud_date":"2023-08-01","county":"Custer"},"geometry":{"type":"Point","coordinates":[-99.22759082,35.63799575]}},{"type":"Feature","properties":{"api_number":"3501523340","operator":"STAGHORN","well_name":"TRIPLE CROWN 11-12-33-28 1HW","lease_name":"TRIPLE CROWN 11-12-33-28","well_number":"1HW","well_status":"Active","well_type":"Gas","total_depth_ft":26094.0,"spud_date":"2023-08-20","county":"Caddo"},"geometry":{"type":"Point","coordinates":[-98.47815281,35.37825701]}},{"type":"Feature","properties":{"api_number":"3503922627","operator":"MEWBOURNE","well_name":"SAGE DRAGON 32/5 AP","lease_name":"SAGE DRAGON 32/5 AP","well_number":"1H","well_status":"Active","well_type":"Oil","total_depth_ft":21015.0,"spud_date":"2023-09-25","county":"Custer"},"geometry":{"type":"Point","coordinates":[-99.34482747,35.74074903]}},{"type":"Feature","properties":{"api_number":"3501523342","operator":"BLAKE PRODUCTION","well_name":"SWEET CAROLINE 1112 1-5-8XH","lease_name":"SWEET CAROLINE 1112","well_number":"1-5-8XH","well_status":"Active","well_type":"Oil","total_depth_ft":19125.0,"spud_date":"2023-09-26","county":"Caddo"},"geometry":{"type":"Point","coordinates":[-98.49761198,35.46493404]}},{"type":"Feature","properties":{"api_number":"3503922628","operator":"DEVON ENERGY","well_name":"MALLARD 1HX","lease_name":"MALLARD","well_number":"1HX","well_status":"Active","well_type":"Oil","total_depth_ft":21548.0,"spud_date":"2024-02-02","county":"Custer"},"geometry":{"type":"Point","coordinates":[-99.28895022,35.6666278]}},{"type":"Feature","properties":{"api_number":"3503922632","operator":"MEWBOURNE","well_name":"ABERNATHY 1/12 CN 2HR","lease_name":"ABERNATHY 1/12 CN","well_number":"2HR","well_status":"Active","well_type":"Oil","total_depth_ft":21549.0,"spud_date":"2024-02-11","county":"Custer"},"geometry":{"type":"Point","coordinates":[-98.96311517,35.63796864]}},{"type":"Feature","properties":{"api_number":"3503922631","operator":"MEWBOURNE","well_name":"HUGHES 17/8 ML","lease_name":"HUGHES 17/8 ML","well_number":"1H","well_status":"Active","well_type":"Oil","total_depth_ft":19275.0,"spud_date":"2024-03-28","county":"Custer"},"geometry":{"type":"Point","coordinates":[-98.92906086,35.59552522]}},{"type":"Feature","properties":{"api_number":"3503922634","operator":"DUNCAN OIL PROPERTIES","well_name":"KR","lease_name":"KR","well_number":"1-10H","well_status":"Active","well_type":"Oil","total_depth_ft":14752.0,"spud_date":"2024-04-03","county":"Custer"},"geometry":{"type":"Point","coordinates":[-99.20516884,35.79918329]}},{"type":"Feature","properties":{"api_number":"3503922635","operator":"MEWBOURNE","well_name":"TRIGGER 4 MD","lease_name":"TRIGGER 4 MD","well_number":"1H","well_status":"Active","well_type":"Gas","total_depth_ft":16834.0,"spud_date":"2024-05-02","county":"Custer"},"geometry":{"type":"Point","coordinates":[-99.0190223,35.6247041]}},{"type":"Feature","properties":{"api_number":"3503922633","operator":"MEWBOURNE","well_name":"HAGGARD 2/35 PA","lease_name":"HAGGARD 2/35 PA","well_number":"2H","well_status":"Active","well_type":"Oil","total_depth_ft":22109.0,"spud_date":"2024-06-22","county":"Custer"},"geometry":{"type":"Point","coordinates":[-98.97227657,35.62362747]}},{"type":"Feature","properties":{"api_number":"3503922640","operator":"NADEL & GUSSMAN","well_name":"OSPREY 1-10-15XH","lease_name":"OSPREY","well_number":"1-10-15XH","well_status":"Active","well_type":"Gas","total_depth_ft":20160.0,"spud_date":"2024-07-01","county":"Custer"},"geometry":{"type":"Point","coordinates":[-99.20062284,35.62495073]}},{"type":"Feature","properties":{"api_number":"3503922641","operator":"MEWBOURNE","well_name":"LEROY 36/1 DM","lease_name":"LEROY 36/1 DM","well_number":"1H","well_status":"Active","well_type":"Oil","total_depth_ft":21400.0,"spud_date":"2024-10-08","county":"Custer"},"geometry":{"type":"Point","coordinates":[-99.28858511,35.73947147]}},{"type":"Feature","properties":{"api_number":"3503922642","operator":"MEWBOURNE","well_name":"MOORE 35/2 AP","lease_name":"MOORE 35/2 AP","well_number":"1H","well_status":"Active","well_type":"Oil","total_depth_ft":21317.0,"spud_date":"2024-10-10","county":"Custer"},"geometry":{"type":"Point","coordinates":[-99.28872033,35.73947147]}},{"type":"Feature","properties":{"api_number":"3503922644","operator":"MEWBOURNE","well_name":"MOOREWOOD 30/19 PA","lease_name":"MOOREWOOD 30/19 PA","well_number":"1H","well_status":"Active","well_type":"Oil","total_depth_ft":21165.0,"spud_date":"2024-11-24","county":"Custer"},"geometry":{"type":"Point","coordinates":[-99.36262482,35.73932113]}},{"type":"Feature","properties":{"api_number":"3503922647","operator":"DEVON ENERGY","well_name":"GADWALL 27_34-13N-20W 1HX","lease_name":"GADWALL 27_34-13N-20W","well_number":"1HX","well_status":"Active","well_type":"Oil","total_depth_ft":22446.0,"spud_date":"2024-11-30","county":"Custer"},"geometry":{"type":"Point","coordinates":[-99.3136505,35.57971906]}},{"type":"Feature","properties":{"api_number":"3503922654","operator":"VALIDUS ENERGY II MIDCON LLC","well_name":"GOOSE 1314-111423","lease_name":"GOOSE 1314-111423","well_number":"2HM","well_status":"Active","well_type":"Oil and Gas","total_depth_ft":30560.0,"county":"Custer"},"geometry":{"type":"Point","coordinates":[-98.659073,35.623102]}},{"type":"Feature","properties":{"api_number":"3503922654","operator":"VALIDUS ENERGY II MIDCON LLC","well_name":"GOOSE 1314-111423","lease_name":"GOOSE 1314-111423","well_number":"2HM","well_status":"Active","well_type":"Oil and Gas","total_depth_ft":30560.0,"county":"Custer"},"geometry":{"type":"Point","coordinates":[-98.659073,35.623102]}},{"type":"Feature","properties":{"api_number":"3503922653","operator":"VALIDUS ENERGY II MIDCON LLC","well_name":"GOOSE 1314-111423","lease_name":"GOOSE 1314-111423","well_number":"1HM","well_status":"Active","well_type":"Oil and Gas","total_depth_ft":30910.0,"county":"Custer"},"geometry":{"type":"Point","coordinates":[-98.659537,35.623153]}},{"type":"Feature","properties":{"api_number":"3503922653","operator":"VALIDUS ENERGY II MIDCON LLC","well_name":"GOOSE 1314-111423","lease_name":"GOOSE 1314-111423","well_number":"1HM","well_status":"Active","well_type":"Oil and Gas","total_depth_ft":30910.0,"county":"Custer"},"geometry":{"type":"Point","coordinates":[-98.659537,35.623153]}},{"type":"Feature","properties":{"api_number":"3503922652","operator":"VALIDUS ENERGY II MIDCON LLC","well_name":"COBRA CHICKEN 1314-121324","lease_name":"COBRA CHICKEN 1314-121324","well_number":"2HM","well_status":"Active","well_type":"Oil and Gas","total_depth_ft":30510.0,"county":"Custer"},"geometry":{"type":"Point","coordinates":[-98.64916,35.623179]}},{"type":"Feature","properties":{"api_number":"3503922652","operator":"VALIDUS ENERGY II MIDCON LLC","well_name":"COBRA CHICKEN 1314-121324","lease_name":"COBRA CHICKEN 1314-121324","well_number":"2HM","well_status":"Active","well_type":"Oil and Gas","total_depth_ft":30510.0,"county":"Custer"},"geometry":{"type":"Point","coordinates":[-98.64916,35.623179]}},{"type":"Feature","properties":{"api_number":"3503922651","operator":"VALIDUS ENERGY II MIDCON LLC","well_name":"COBRA CHICKEN 1314-121324","lease_name":"COBRA CHICKEN 1314-121324","well_number":"1HM","well_status":"Active","well_type":"Oil and Gas","total_depth_ft":30510.0,"county":"Custer"},"geometry":{"type":"Point","coordinates":[-98.649271,35.623179]}},{"type":"Feature","properties":{"api_number":"3503922651","operator":"VALIDUS ENERGY II MIDCON LLC","well_name":"COBRA CHICKEN 1314-121324","lease_name":"COBRA CHICKEN 1314-121324","well_number":"1HM","well_status":"Active","well_type":"Oil and Gas","total_depth_ft":30510.0,"county":"Custer"},"geometry":{"type":"Point","coordinates":[-98.649271,35.623179]}},{"type":"Feature","properties":{"api_number":"3503922655","operator":"NADEL & GUSSMAN","well_name":"QUETZAL 1-6-7XH","lease_name":"QUETZAL","well_number":"1-6-7XH","well_status":"Active","well_type":"Oil and Gas","spud_date":"2025-01-08","county":"Custer"},"geometry":{"type":"Point","coordinates":[-99.26494747,35.63931079]}},{"type":"Feature","properties":{"api_number":"3512924168","operator":"MEWBOURNE","well_name":"CARPENTER 1/12 AP","lease_name":"CARPENTER 1/12 AP","well_number":"1H","well_status":"Active","well_type":"Oil and Gas","total_depth_ft":22017.0,"county":"Roger Mills"},"geometry":{"type":"Point","coordinates":[-99.36763,35.550771]}},{"type":"Feature","properties":{"api_number":"3503922645","operator":"MEWBOURNE","well_name":"STRICKLAN 31/6 AP","lease_name":"STRICKLAN 31/6 AP","well_number":"1H","well_status":"Active","well_type":"Oil","total_depth_ft":21450.0,"spud_date":"2025-01-14","county":"Custer"},"geometry":{"type":"Point","coordinates":[-99.36275824,35.73932113]}},{"type":"Feature","properties":{"api_number":"3503922649","operator":"DEVON ENERGY","well_name":"GADWALL 27_34-13N-20W 2HX","lease_name":"GADWALL 27_34-13N-20W","well_number":"2HX","well_status":"Active","well_type":"Oil","total_depth_ft":22317.0,"spud_date":"2025-01-15","county":"Custer"},"geometry":{"type":"Point","coordinates":[-99.31354978,35.57971906]}},{"type":"Feature","properties":{"api_number":"3503922656","operator":"NADEL & GUSSMAN","well_name":"QUETZAL 1-6-7XHR","lease_name":"QUETZAL","well_number":"1-6-7XHR","well_status":"Active","well_type":"Oil","total_depth_ft":21915.0,"spud_date":"2025-01-26","county":"Custer"},"geometry":{"type":"Point","coordinates":[-99.26501464,35.63931079]}},{"type":"Feature","properties":{"api_number":"3503922664","operator":"SELECT WATER SOLUTIONS, LLC","well_name":"FLICK SWD","lease_name":"FLICK SWD","well_number":"1","well_status":"Active","well_type":"Injection or Salt Water Disposal","total_depth_ft":9485.0,"county":"Custer"},"geometry":{"type":"Point","coordinates":[-99.312303,35.610483]}},{"type":"Feature","properties":{"api_number":"3503922657","operator":"DUNCAN OIL PROPERTIES","well_name":"TOPAZ","lease_name":"TOPAZ","well_number":"1-13HX","well_status":"Active","well_type":"Oil and Gas","total_depth_ft":21770.0,"spud_date":"2025-02-26","county":"Custer"},"geometry":{"type":"Point","coordinates":[-99.167732,35.680837]}},{"type":"Feature","properties":{"api_number":"3512924169","operator":"MEWBOURNE","well_name":"CARPENTER 12/1 OB","lease_name":"CARPENTER 12/1 OB","well_number":"1H","well_status":"Active","well_type":"Oil","total_depth_ft":22200.0,"spud_date":"2025-02-28","county":"Roger Mills"},"geometry":{"type":"Point","coordinates":[-99.36887625,35.52395672]}},{"type":"Feature","properties":{"api_number":"3503922666","operator":"DUNCAN OIL PROPERTIES","well_name":"TOPAZ 1-13HX(R)","lease_name":"TOPAZ","well_number":"1-13HX(R)","well_status":"Active","well_type":"Oil","total_depth_ft":20370.0,"spud_date":"2025-03-01","county":"Custer"},"geometry":{"type":"Point","coordinates":[-99.16775913,35.68089895]}},{"type":"Feature","properties":{"api_number":"3503922648","operator":"DEVON ENERGY","well_name":"GADWALL 27_34-13N-20W 3HX","lease_name":"GADWALL 27_34-13N-20W","well_number":"3HX","well_status":"Active","well_type":"Oil","total_depth_ft":22408.0,"spud_date":"2025-03-06","county":"Custer"},"geometry":{"type":"Point","coordinates":[-99.31344907,35.57972184]}},{"type":"Feature","properties":{"api_number":"3503922668","operator":"MEWBOURNE","well_name":"BRITTON 33/4 AP","lease_name":"BRITTON 33/4 AP","well_number":"1H","well_status":"Active","well_type":"Oil","total_depth_ft":21270.0,"spud_date":"2025-03-18","county":"Custer"},"geometry":{"type":"Point","coordinates":[-99.32771777,35.74785565]}},{"type":"Feature","properties":{"api_number":"3503922668","operator":"MEWBOURNE","well_name":"BRITTON 33/4 AP","lease_name":"BRITTON 33/4 AP","well_number":"1H","well_status":"Active","well_type":"Oil","total_depth_ft":21270.0,"spud_date":"2025-03-18","county":"Custer"},"geometry":{"type":"Point","coordinates":[-99.32771777,35.74785565]}},{"type":"Feature","properties":{"api_number":"3503922669","operator":"MEWBOURNE","well_name":"QUARTERMASTER 28/21 PA","lease_name":"QUARTERMASTER 28/21 PA","well_number":"1H","well_status":"Active","well_type":"Oil","total_depth_ft":21300.0,"spud_date":"2025-03-19","county":"Custer"},"geometry":{"type":"Point","coordinates":[-99.32758191,35.74055652]}},{"type":"Feature","properties":{"api_number":"3503922663","operator":"NADEL & GUSSMAN","well_name":"COTINGA 1-14-23XH","lease_name":"COTINGA","well_number":"1-14-23XH","well_status":"Active","well_type":"Gas","total_depth_ft":22543.0,"spud_date":"2025-03-29","county":"Custer"},"geometry":{"type":"Point","coordinates":[-99.29012142,35.58009733]}},{"type":"Feature","properties":{"api_number":"3503922646","operator":"DEVON ENERGY","well_name":"FOGHORN 34-13N-20W VSW SWD","lease_name":"FOGHORN 34-13N-20W VSW SWD","well_number":"1","well_status":"Spud","well_type":"Injection or Salt Water Disposal","total_depth_ft":12349.0,"spud_date":"2025-04-07","county":"Custer"},"geometry":{"type":"Point","coordinates":[-99.311957,35.558293]}},{"type":"Feature","properties":{"api_number":"3503922646","operator":"DEVON ENERGY","well_name":"FOGHORN 34-13N-20W VSW SWD","lease_name":"FOGHORN 34-13N-20W VSW SWD","well_number":"1","well_status":"Spud","well_type":"Injection or Salt Water Disposal","total_depth_ft":12349.0,"spud_date":"2025-04-07","county":"Custer"},"geometry":{"type":"Point","coordinates":[-99.311957,35.558293]}},{"type":"Feature","properties":{"api_number":"3503922674","operator":"MEWBOURNE","well_name":"NICHOLSON 3/10 BO","lease_name":"NICHOLSON 3/10 BO","well_number":"1H","well_status":"Active","well_type":"Oil","total_depth_ft":22171.0,"spud_date":"2025-04-20","county":"Custer"},"geometry":{"type":"Point","coordinates":[-98.99146899,35.63817682]}},{"type":"Feature","properties":{"api_number":"3503922667","operator":"MEWBOURNE","well_name":"WELDON 34/27 PA","lease_name":"WELDON 34/27 PA","well_number":"1H","well_status":"Active","well_type":"Oil","total_depth_ft":21248.0,"spud_date":"2025-04-27","county":"Custer"},"geometry":{"type":"Point","coordinates":[-99.31028242,35.72492609]}},{"type":"Feature","properties":{"api_number":"3503922670","operator":"MEWBOURNE","well_name":"HYMAN 3/10 AP","lease_name":"HYMAN 3/10 AP","well_number":"1H","well_status":"Active","well_type":"Oil","total_depth_ft":21455.0,"spud_date":"2025-04-28","county":"Custer"},"geometry":{"type":"Point","coordinates":[-99.31014804,35.72492609]}},{"type":"Feature","properties":{"api_number":"3503922673","operator":"MEWBOURNE","well_name":"CLINT 9 DM","lease_name":"CLINT 9 DM","well_number":"1H","well_status":"Active","well_type":"Gas","total_depth_ft":16887.0,"spud_date":"2025-05-06","county":"Custer"},"geometry":{"type":"Point","coordinates":[-99.01852244,35.6252051]}},{"type":"Feature","properties":{"api_number":"3503922658","operator":"DUNCAN OIL PROPERTIES","well_name":"EMERALD 1-5HX","lease_name":"EMERALD","well_number":"1-5HX","well_status":"Active","well_type":"Oil","total_depth_ft":21137.0,"spud_date":"2025-05-15","county":"Custer"},"geometry":{"type":"Point","coordinates":[-99.23757585,35.79686958]}},{"type":"Feature","properties":{"api_number":"3512924197","operator":"MEWBOURNE","well_name":"RED ROOSTER 1/12 DM FEE COM","lease_name":"RED ROOSTER 1/12 DM FEE COM","well_number":"1H","well_status":"Active","well_type":"Gas","total_depth_ft":22058.0,"spud_date":"2025-06-26","county":"Roger Mills"},"geometry":{"type":"Point","coordinates":[-99.60220819,35.63968066]}},{"type":"Feature","properties":{"api_number":"3503900004","operator":"ARNOLD OIL PROPERTIES","well_name":"AGAN 22-15","lease_name":"AGAN 22-15","well_number":"1H","well_status":"Never Drilled","well_type":"Service","total_depth_ft":12195.0,"county":"Custer"},"geometry":{"type":"Point","coordinates":[-98.879611,35.579954]}},{"type":"Feature","properties":{"api_number":"3503922683","operator":"MEWBOURNE","well_name":"UNRUH 17/8 PA","lease_name":"UNRUH 17/8 PA","well_number":"1H","well_status":"Active","well_type":"Oil","total_depth_ft":21345.0,"spud_date":"2025-07-27","county":"Custer"},"geometry":{"type":"Point","coordinates":[-99.34044503,35.76815935]}},{"type":"Feature","properties":{"api_number":"3503922682","operator":"MEWBOURNE","well_name":"OMMEN 16/9 MD","lease_name":"OMMEN 16/9 MD","well_number":"1H","well_status":"Active","well_type":"Oil","total_depth_ft":21475.0,"spud_date":"2025-07-27","county":"Custer"},"geometry":{"type":"Point","coordinates":[-99.34044503,35.76807672]}},{"type":"Feature","properties":{"api_number":"3503922684","operator":"MEWBOURNE","well_name":"COW HILLS 20/29 AP","lease_name":"COW HILLS 20/29 AP","well_number":"1H","well_status":"Active","well_type":"Oil and Gas","total_depth_ft":20725.0,"spud_date":"2025-07-28","county":"Custer"},"geometry":{"type":"Point","coordinates":[-99.340353,35.768221]}},{"type":"Feature","properties":{"api_number":"3503900005","operator":"ARNOLD OIL PROPERTIES","well_name":"AGAN 26-35","lease_name":"AGAN 26-35","well_number":"1H","well_status":"Never Drilled","well_type":"Service","total_depth_ft":12195.0,"county":"Custer"},"geometry":{"type":"Point","coordinates":[-98.879527,35.579954]}},{"type":"Feature","properties":{"api_number":"3503900005","operator":"ARNOLD OIL PROPERTIES","well_name":"AGAN 26-35","lease_name":"AGAN 26-35","well_number":"1H","well_status":"Never Drilled","well_type":"Service","total_depth_ft":12195.0,"county":"Custer"},"geometry":{"type":"Point","coordinates":[-98.879527,35.579954]}},{"type":"Feature","properties":{"api_number":"3503922685","operator":"MEWBOURNE","well_name":"PATSY 19/18 MD","lease_name":"PATSY 19/18 MD","well_number":"1H","well_status":"Active","well_type":"Oil","total_depth_ft":21452.0,"spud_date":"2025-08-08","county":"Custer"},"geometry":{"type":"Point","coordinates":[-99.26547058,35.75335245]}},{"type":"Feature","properties":{"api_number":"3503922686","operator":"MEWBOURNE","well_name":"WANDA 30/31 DM","lease_name":"WANDA 30/31 DM","well_number":"1H","well_status":"Active","well_type":"Oil","total_depth_ft":21615.0,"spud_date":"2025-08-09","county":"Custer"},"geometry":{"type":"Point","coordinates":[-99.26533526,35.75335245]}},{"type":"Feature","properties":{"api_number":"3512900013","operator":"MEWBOURNE","well_name":"Stallion 10-15 CN Fee Com","lease_name":"Stallion 10-15 CN Fee Com","well_number":"1H","well_status":"Spud","well_type":"Service","total_depth_ft":12090.0,"spud_date":"2025-09-01","county":"Roger Mills"},"geometry":{"type":"Point","coordinates":[-99.531016,35.62462]}},{"type":"Feature","properties":{"api_number":"3512900013","operator":"MEWBOURNE","well_name":"Stallion 10-15 CN Fee Com","lease_name":"Stallion 10-15 CN Fee Com","well_number":"1H","well_status":"Spud","well_type":"Service","total_depth_ft":12090.0,"spud_date":"2025-09-01","county":"Roger Mills"},"geometry":{"type":"Point","coordinates":[-99.531016,35.62462]}},{"type":"Feature","properties":{"api_number":"3512900014","operator":"MEWBOURNE","well_name":"DEWAYNE 3-34 NC FEE COM","lease_name":"Dewayne 3-34 NC Fee Com","well_number":"1H","well_status":"Active","well_type":"Oil","total_depth_ft":22440.0,"spud_date":"2025-09-02","county":"Roger Mills"},"geometry":{"type":"Point","coordinates":[-99.530881,35.62456357]}},{"type":"Feature","properties":{"api_number":"3503900036","operator":"NADEL & GUSSMAN","well_name":"PEREGRINE 1-5-8XH","lease_name":"PEREGRINE 1-5-8XH","well_number":"1-5-8XH","well_status":"Active","well_type":"Service","total_depth_ft":11730.0,"spud_date":"2025-09-08","county":"Custer"},"geometry":{"type":"Point","coordinates":[-99.24403618,35.63144423]}},{"type":"Feature","properties":{"api_number":"3503900036","operator":"NADEL & GUSSMAN","well_name":"PEREGRINE 1-5-8XH","lease_name":"PEREGRINE 1-5-8XH","well_number":"1-5-8XH","well_status":"Active","well_type":"Service","total_depth_ft":11730.0,"spud_date":"2025-09-08","county":"Custer"},"geometry":{"type":"Point","coordinates":[-99.24403618,35.63144423]}},{"type":"Feature","properties":{"api_number":"3503900039","operator":"NADEL & GUSSMAN","well_name":"CARACARA 1-32-29XH","lease_name":"CARACARA","well_number":"1-32-29XH","well_status":"Active","well_type":"Oil","total_depth_ft":11400.0,"spud_date":"2025-09-20","county":"Custer"},"geometry":{"type":"Point","coordinates":[-99.249079,35.637704]}},{"type":"Feature","properties":{"api_number":"3512900035","operator":"MEWBOURNE","well_name":"DML FARMS 3-10 AP","lease_name":"DML Farms 3-10 AP","well_number":"1H","well_status":"Active","well_type":"Oil","total_depth_ft":22439.0,"spud_date":"2025-10-01","county":"Roger Mills"},"geometry":{"type":"Point","coordinates":[-99.414842,35.64143846]}},{"type":"Feature","properties":{"api_number":"3503900042","operator":"DEVON ENERGY","well_name":"Cayuga 27_34-14N-20W","lease_name":"Cayuga 27_34-14N-20W","well_number":"2HX","well_status":"Active","well_type":"Service","total_depth_ft":11500.0,"spud_date":"2025-11-05","county":"Custer"},"geometry":{"type":"Point","coordinates":[-99.305032,35.666746]}},{"type":"Feature","properties":{"api_number":"3512900050","operator":"CRAWLEY PETROLEUM","well_name":"Beaty","lease_name":"Beaty","well_number":"1-2-11-14CHX","well_status":"Active","well_type":"Service","total_depth_ft":11550.0,"spud_date":"2025-11-08","county":"Roger Mills"},"geometry":{"type":"Point","coordinates":[-99.612756,35.625052]}},{"type":"Feature","properties":{"api_number":"3503900028","operator":"DEVON ENERGY","well_name":"Mallard 26_35-14N-20W","lease_name":"Mallard 26_35-14N-20W","well_number":"2HX","well_status":"Active","well_type":"Service","total_depth_ft":11457.0,"spud_date":"2025-11-19","county":"Custer"},"geometry":{"type":"Point","coordinates":[-99.30483,35.666749]}},{"type":"Feature","properties":{"api_number":"3503900028","operator":"DEVON ENERGY","well_name":"Mallard 26_35-14N-20W","lease_name":"Mallard 26_35-14N-20W","well_number":"2HX","well_status":"Active","well_type":"Service","total_depth_ft":11457.0,"spud_date":"2025-11-19","county":"Custer"},"geometry":{"type":"Point","coordinates":[-99.30483,35.666749]}},{"type":"Feature","properties":{"api_number":"3500900005","operator":"KING ENERGY","well_name":"Hutson","lease_name":"Hutson","well_number":"30-31H","well_status":"Active","well_type":"Service","total_depth_ft":19534.0,"county":"Beckham"},"geometry":{"type":"Point","coordinates":[-99.666761,35.408369]}},{"type":"Feature","properties":{"api_number":"3500900005","operator":"KING ENERGY","well_name":"Hutson","lease_name":"Hutson","well_number":"30-31H","well_status":"Active","well_type":"Service","total_depth_ft":19534.0,"county":"Beckham"},"geometry":{"type":"Point","coordinates":[-99.666761,35.408369]}},{"type":"Feature","properties":{"api_number":"3503900045","operator":"DEVON ENERGY","well_name":"Cayuga 27_34-14N-20W","lease_name":"Cayuga 27_34-14N-20W","well_number":"3HX","well_status":"Active","well_type":"Service","total_depth_ft":11500.0,"spud_date":"2025-11-28","county":"Custer"},"geometry":{"type":"Point","coordinates":[-99.304931,35.666747]}},{"type":"Feature","properties":{"api_number":"3503900033","operator":"DEVON ENERGY","well_name":"Mallard 26_35-14N-20W","lease_name":"Mallard 26_35-14N-20W","well_number":"3HX","well_status":"Active","well_type":"Service","total_depth_ft":11457.0,"spud_date":"2025-12-08","county":"Custer"},"geometry":{"type":"Point","coordinates":[-99.304931,35.666747]}},{"type":"Feature","properties":{"api_number":"3503900033","operator":"DEVON ENERGY","well_name":"Mallard 26_35-14N-20W","lease_name":"Mallard 26_35-14N-20W","well_number":"3HX","well_status":"Active","well_type":"Service","total_depth_ft":11457.0,"spud_date":"2025-12-08","county":"Custer"},"geometry":{"type":"Point","coordinates":[-99.304931,35.666747]}},{"type":"Feature","properties":{"api_number":"3503900053","operator":"TERRITORY RESOURCES","well_name":"WF Call 6-7-18","lease_name":"WF Call 6-7-18","well_number":"1HXX","well_status":"Active","well_type":"Service","total_depth_ft":26812.0,"county":"Custer"},"geometry":{"type":"Point","coordinates":[-99.041789,35.550914]}},{"type":"Feature","properties":{"api_number":"3503900053","operator":"TERRITORY RESOURCES","well_name":"WF Call 6-7-18","lease_name":"WF Call 6-7-18","well_number":"1HXX","well_status":"Active","well_type":"Service","total_depth_ft":26812.0,"county":"Custer"},"geometry":{"type":"Point","coordinates":[-99.041789,35.550914]}},{"type":"Feature","properties":{"api_number":"3512900057","operator":"MEWBOURNE","well_name":"Chiquita 22-10 HA Fee Com","lease_name":"Chiquita 22-10 HA Fee Com","well_number":"1H","well_status":"Active","well_type":"Service","total_depth_ft":24914.0,"spud_date":"2025-12-21","county":"Roger Mills"},"geometry":{"type":"Point","coordinates":[-99.627683,35.588368]}},{"type":"Feature","properties":{"api_number":"3512900057","operator":"MEWBOURNE","well_name":"Chiquita 22-10 HA Fee Com","lease_name":"Chiquita 22-10 HA Fee Com","well_number":"1H","well_status":"Active","well_type":"Service","total_depth_ft":24914.0,"spud_date":"2025-12-21","county":"Roger Mills"},"geometry":{"type":"Point","coordinates":[-99.627683,35.588368]}},{"type":"Feature","properties":{"api_number":"3503900054","operator":"DEVON ENERGY","well_name":"Mallard 26_35-14N-20W","lease_name":"Mallard 26_35-14N-20W","well_number":"3HXR","well_status":"Active","well_type":"Service","total_depth_ft":22325.0,"county":"Custer"},"geometry":{"type":"Point","coordinates":[-99.305133,35.666745]}},{"type":"Feature","properties":{"api_number":"3503900054","operator":"DEVON ENERGY","well_name":"Mallard 26_35-14N-20W","lease_name":"Mallard 26_35-14N-20W","well_number":"3HXR","well_status":"Active","well_type":"Service","total_depth_ft":22325.0,"county":"Custer"},"geometry":{"type":"Point","coordinates":[-99.305133,35.666745]}},{"type":"Feature","properties":{"api_number":"3512900056","operator":"MEWBOURNE","well_name":"Quarter Circle S 22-34 IP","lease_name":"Quarter Circle S 22-34 IP","well_number":"1H","well_status":"Active","well_type":"Service","total_depth_ft":25022.0,"spud_date":"2025-12-23","county":"Roger Mills"},"geometry":{"type":"Point","coordinates":[-99.627667,35.588478]}},{"type":"Feature","properties":{"api_number":"3512900056","operator":"MEWBOURNE","well_name":"Quarter Circle S 22-34 IP","lease_name":"Quarter Circle S 22-34 IP","well_number":"1H","well_status":"Active","well_type":"Service","total_depth_ft":25022.0,"spud_date":"2025-12-23","county":"Roger Mills"},"geometry":{"type":"Point","coordinates":[-99.627667,35.588478]}},{"type":"Feature","properties":{"api_number":"3503900055","operator":"DUNCAN OIL PROPERTIES","well_name":"Biotite","lease_name":"Biotite","well_number":"1-21HX","well_status":"Active","well_type":"Service","total_depth_ft":21748.0,"county":"Custer"},"geometry":{"type":"Point","coordinates":[-99.232329,35.769855]}},{"type":"Feature","properties":{"api_number":"3503900055","operator":"DUNCAN OIL PROPERTIES","well_name":"Biotite","lease_name":"Biotite","well_number":"1-21HX","well_status":"Active","well_type":"Service","total_depth_ft":21748.0,"county":"Custer"},"geometry":{"type":"Point","coordinates":[-99.232329,35.769855]}},{"type":"Feature","properties":{"api_number":"3512900065","operator":"CRAWLEY PETROLEUM","well_name":"James","lease_name":"James","well_number":"1-3-34CHX","well_status":"Active","well_type":"Service","total_depth_ft":21600.0,"county":"Roger Mills"},"geometry":{"type":"Point","coordinates":[-99.637924,35.625777]}},{"type":"Feature","properties":{"api_number":"3512900065","operator":"CRAWLEY PETROLEUM","well_name":"James","lease_name":"James","well_number":"1-3-34CHX","well_status":"Active","well_type":"Service","total_depth_ft":21600.0,"county":"Roger Mills"},"geometry":{"type":"Point","coordinates":[-99.637924,35.625777]}},{"type":"Feature","properties":{"api_number":"3512900051","operator":"CRAWLEY PETROLEUM","well_name":"Beaty","lease_name":"Beaty","well_number":"1-2-35CHX","well_status":"Active","well_type":"Service","total_depth_ft":11524.0,"spud_date":"2026-01-03","county":"Roger Mills"},"geometry":{"type":"Point","coordinates":[-99.612689,35.625051]}},{"type":"Feature","properties":{"api_number":"3503900057","operator":"MEWBOURNE","well_name":"Wild Horse Creek 11-14 BO","lease_name":"Wild Horse Creek 11-14 BO","well_number":"2H","well_status":"Active","well_type":"Service","total_depth_ft":21439.0,"county":"Custer"},"geometry":{"type":"Point","coordinates":[-99.297226,35.79884]}},{"type":"Feature","properties":{"api_number":"3503900057","operator":"MEWBOURNE","well_name":"Wild Horse Creek 11-14 BO","lease_name":"Wild Horse Creek 11-14 BO","well_number":"2H","well_status":"Active","well_type":"Service","total_depth_ft":21439.0,"county":"Custer"},"geometry":{"type":"Point","coordinates":[-99.297226,35.79884]}},{"type":"Feature","properties":{"api_number":"3503900056","operator":"MEWBOURNE","well_name":"Wild Horse Creek 11-14 CN","lease_name":"Wild Horse Creek 11-14 CN","well_number":"1H","well_status":"Active","well_type":"Service","total_depth_ft":21348.0,"county":"Custer"},"geometry":{"type":"Point","coordinates":[-99.297226,35.79873]}},{"type":"Feature","properties":{"api_number":"3503900056","operator":"MEWBOURNE","well_name":"Wild Horse Creek 11-14 CN","lease_name":"Wild Horse Creek 11-14 CN","well_number":"1H","well_status":"Active","well_type":"Service","total_depth_ft":21348.0,"county":"Custer"},"geometry":{"type":"Point","coordinates":[-99.297226,35.79873]}},{"type":"Feature","properties":{"api_number":"3503900059","operator":"NADEL & GUSSMAN","well_name":"HAMERKOP","lease_name":"HAMERKOP","well_number":"1-28-33XH","well_status":"Active","well_type":"Service","total_depth_ft":21800.0,"county":"Custer"},"geometry":{"type":"Point","coordinates":[-99.221877,35.667019]}},{"type":"Feature","properties":{"api_number":"3503900059","operator":"NADEL & GUSSMAN","well_name":"HAMERKOP","lease_name":"HAMERKOP","well_number":"1-28-33XH","well_status":"Active","well_type":"Service","total_depth_ft":21800.0,"county":"Custer"},"geometry":{"type":"Point","coordinates":[-99.221877,35.667019]}},{"type":"Feature","properties":{"api_number":"3503900058","operator":"NADEL & GUSSMAN","well_name":"HAMERKOP","lease_name":"HAMERKOP","well_number":"2-28-33XH","well_status":"Active","well_type":"Service","total_depth_ft":21900.0,"county":"Custer"},"geometry":{"type":"Point","coordinates":[-99.221877,35.666965]}},{"type":"Feature","properties":{"api_number":"3503900058","operator":"NADEL & GUSSMAN","well_name":"HAMERKOP","lease_name":"HAMERKOP","well_number":"2-28-33XH","well_status":"Active","well_type":"Service","total_depth_ft":21900.0,"county":"Custer"},"geometry":{"type":"Point","coordinates":[-99.221877,35.666965]}},{"type":"Feature","properties":{"api_number":"3503900060","operator":"ADPARO LLC","well_name":"Kephart","lease_name":"Kephart","well_number":"1-6-31-30CHX","well_status":"Active","well_type":"Service","total_depth_ft":21800.0,"county":"Custer"},"geometry":{"type":"Point","coordinates":[-99.254179,35.550436]}},{"type":"Feature","properties":{"api_number":"3503900060","operator":"ADPARO LLC","well_name":"Kephart","lease_name":"Kephart","well_number":"1-6-31-30CHX","well_status":"Active","well_type":"Service","total_depth_ft":21800.0,"county":"Custer"},"geometry":{"type":"Point","coordinates":[-99.254179,35.550436]}},{"type":"Feature","properties":{"api_number":"3503900061","operator":"TERRITORY RESOURCES","well_name":"Joshua Deets 29-32","lease_name":"Joshua Deets 29-32","well_number":"1HX","well_status":"Active","well_type":"Service","total_depth_ft":22136.0,"county":"Custer"},"geometry":{"type":"Point","coordinates":[-99.134946,35.579948]}},{"type":"Feature","properties":{"api_number":"3503900061","operator":"TERRITORY RESOURCES","well_name":"Joshua Deets 29-32","lease_name":"Joshua Deets 29-32","well_number":"1HX","well_status":"Active","well_type":"Service","total_depth_ft":22136.0,"county":"Custer"},"geometry":{"type":"Point","coordinates":[-99.134946,35.579948]}},{"type":"Feature","properties":{"api_number":"3501500134","operator":"NOVO II OPERATING, LLC","well_name":"WRIGLEY 1918","lease_name":"WRIGLEY 1918","well_number":"1H","well_status":"Active","well_type":"Service","total_depth_ft":21874.0,"county":"Caddo"},"geometry":{"type":"Point","coordinates":[-98.409094,35.407119]}},{"type":"Feature","properties":{"api_number":"3501500134","operator":"NOVO II OPERATING, LLC","well_name":"WRIGLEY 1918","lease_name":"WRIGLEY 1918","well_number":"1H","well_status":"Active","well_type":"Service","total_depth_ft":21874.0,"county":"Caddo"},"geometry":{"type":"Point","coordinates":[-98.409094,35.407119]}},{"type":"Feature","properties":{"api_number":"3503900064","operator":"DEVON ENERGY","well_name":"Cinnamon 14_11_2-13N-20W","lease_name":"Cinnamon 14_11_2-13N-20W","well_number":"3HXX","well_status":"Active","well_type":"Service","total_depth_ft":25056.0,"county":"Custer"},"geometry":{"type":"Point","coordinates":[-99.296118,35.603467]}},{"type":"Feature","properties":{"api_number":"3503900064","operator":"DEVON ENERGY","well_name":"Cinnamon 14_11_2-13N-20W","lease_name":"Cinnamon 14_11_2-13N-20W","well_number":"3HXX","well_status":"Active","well_type":"Service","total_depth_ft":25056.0,"county":"Custer"},"geometry":{"type":"Point","coordinates":[-99.296118,35.603467]}},{"type":"Feature","properties":{"api_number":"3503900063","operator":"DEVON ENERGY","well_name":"Cinnamon 14_11_2-13N-20W","lease_name":"Cinnamon 14_11_2-13N-20W","well_number":"1HXX","well_status":"Active","well_type":"Service","total_depth_ft":25133.0,"county":"Custer"},"geometry":{"type":"Point","coordinates":[-99.29632,35.603465]}},{"type":"Feature","properties":{"api_number":"3503900063","operator":"DEVON ENERGY","well_name":"Cinnamon 14_11_2-13N-20W","lease_name":"Cinnamon 14_11_2-13N-20W","well_number":"1HXX","well_status":"Active","well_type":"Service","total_depth_ft":25133.0,"county":"Custer"},"geometry":{"type":"Point","coordinates":[-99.29632,35.603465]}},{"type":"Feature","properties":{"api_number":"3503900062","operator":"DEVON ENERGY","well_name":"Cinnamon 14_11_2-13N-20W","lease_name":"Cinnamon 14_11_2-13N-20W","well_number":"2HXX","well_status":"Active","well_type":"Service","total_depth_ft":25133.0,"county":"Custer"},"geometry":{"type":"Point","coordinates":[-99.296219,35.603466]}},{"type":"Feature","properties":{"api_number":"3503900062","operator":"DEVON ENERGY","well_name":"Cinnamon 14_11_2-13N-20W","lease_name":"Cinnamon 14_11_2-13N-20W","well_number":"2HXX","well_status":"Active","well_type":"Service","total_depth_ft":25133.0,"county":"Custer"},"geometry":{"type":"Point","coordinates":[-99.296219,35.603466]}},{"type":"Feature","properties":{"api_number":"3512900080","operator":"MEWBOURNE","well_name":"South Suds 27-34 AP","lease_name":"South Suds 27-34 AP","well_number":"1H","well_status":"Active","well_type":"Service","total_depth_ft":22160.0,"county":"Roger Mills"},"geometry":{"type":"Point","coordinates":[-99.41608,35.580156]}},{"type":"Feature","properties":{"api_number":"3512900080","operator":"MEWBOURNE","well_name":"South Suds 27-34 AP","lease_name":"South Suds 27-34 AP","well_number":"1H","well_status":"Active","well_type":"Service","total_depth_ft":22160.0,"county":"Roger Mills"},"geometry":{"type":"Point","coordinates":[-99.41608,35.580156]}},{"type":"Feature","properties":{"api_number":"3512900081","operator":"MEWBOURNE","well_name":"Kiowa Creek 22-15 PA","lease_name":"Kiowa Creek 22-15 PA","well_number":"2H","well_status":"Active","well_type":"Service","total_depth_ft":22660.0,"county":"Roger Mills"},"geometry":{"type":"Point","coordinates":[-99.415945,35.580155]}},{"type":"Feature","properties":{"api_number":"3512900081","operator":"MEWBOURNE","well_name":"Kiowa Creek 22-15 PA","lease_name":"Kiowa Creek 22-15 PA","well_number":"2H","well_status":"Active","well_type":"Service","total_depth_ft":22660.0,"county":"Roger Mills"},"geometry":{"type":"Point","coordinates":[-99.415945,35.580155]}},{"type":"Feature","properties":{"api_number":"3503900075","operator":"NADEL & GUSSMAN","well_name":"ARACARI","lease_name":"ARACARI","well_number":"1-12-1XH","well_status":"Active","well_type":"Service","total_depth_ft":20800.0,"county":"Custer"},"geometry":{"type":"Point","coordinates":[-99.282888,35.615906]}},{"type":"Feature","properties":{"api_number":"3503900075","operator":"NADEL & GUSSMAN","well_name":"ARACARI","lease_name":"ARACARI","well_number":"1-12-1XH","well_status":"Active","well_type":"Service","total_depth_ft":20800.0,"county":"Custer"},"geometry":{"type":"Point","coordinates":[-99.282888,35.615906]}},{"type":"Feature","properties":{"api_number":"3503900074","operator":"NADEL & GUSSMAN","well_name":"ANHINGA","lease_name":"ANHINGA","well_number":"1-12-13XH","well_status":"Active","well_type":"Service","total_depth_ft":20800.0,"county":"Custer"},"geometry":{"type":"Point","coordinates":[-99.282955,35.615905]}},{"type":"Feature","properties":{"api_number":"3503900074","operator":"NADEL & GUSSMAN","well_name":"ANHINGA","lease_name":"ANHINGA","well_number":"1-12-13XH","well_status":"Active","well_type":"Service","total_depth_ft":20800.0,"county":"Custer"},"geometry":{"type":"Point","coordinates":[-99.282955,35.615905]}},{"type":"Feature","properties":{"api_number":"3503900081","operator":"MEWBOURNE","well_name":"Avene 14-11 PA","lease_name":"Avene 14-11 PA","well_number":"1H","well_status":"Active","well_type":"Service","total_depth_ft":22060.0,"county":"Custer"},"geometry":{"type":"Point","coordinates":[-98.973923,35.595522]}},{"type":"Feature","properties":{"api_number":"3503900081","operator":"MEWBOURNE","well_name":"Avene 14-11 PA","lease_name":"Avene 14-11 PA","well_number":"1H","well_status":"Active","well_type":"Service","total_depth_ft":22060.0,"county":"Custer"},"geometry":{"type":"Point","coordinates":[-98.973923,35.595522]}},{"type":"Feature","properties":{"api_number":"3503900083","operator":"BCE-MACH III LLC","well_name":"HUNTER 2-35-13-17","lease_name":"HUNTER 2-35-13-17","well_number":"1RFH","well_status":"Active","well_type":"Service","total_depth_ft":23110.0,"county":"Custer"},"geometry":{"type":"Point","coordinates":[-98.9707,35.536951]}},{"type":"Feature","properties":{"api_number":"3503900083","operator":"BCE-MACH III LLC","well_name":"HUNTER 2-35-13-17","lease_name":"HUNTER 2-35-13-17","well_number":"1RFH","well_status":"Active","well_type":"Service","total_depth_ft":23110.0,"county":"Custer"},"geometry":{"type":"Point","coordinates":[-98.9707,35.536951]}},{"type":"Feature","properties":{"api_number":"3501700145","operator":"BCE-MACH LLC","well_name":"Jimmy 30-19-18-11-10","lease_name":"Jimmy 30-19-18-11-10","well_number":"2MH","well_status":"Active","well_type":"Service","total_depth_ft":31000.0,"county":"Canadian"},"geometry":{"type":"Point","coordinates":[-98.305393,35.390782]}},{"type":"Feature","properties":{"api_number":"3501700145","operator":"BCE-MACH LLC","well_name":"Jimmy 30-19-18-11-10","lease_name":"Jimmy 30-19-18-11-10","well_number":"2MH","well_status":"Active","well_type":"Service","total_depth_ft":31000.0,"county":"Canadian"},"geometry":{"type":"Point","coordinates":[-98.305393,35.390782]}},{"type":"Feature","properties":{"api_number":"3501700144","operator":"BCE-MACH LLC","well_name":"Jimmy 25-24-13-11-11","lease_name":"Jimmy 25-24-13-11-11","well_number":"1MH","well_status":"Active","well_type":"Service","total_depth_ft":31000.0,"county":"Canadian"},"geometry":{"type":"Point","coordinates":[-98.30546,35.390782]}},{"type":"Feature","properties":{"api_number":"3501700144","operator":"BCE-MACH LLC","well_name":"Jimmy 25-24-13-11-11","lease_name":"Jimmy 25-24-13-11-11","well_number":"1MH","well_status":"Active","well_type":"Service","total_depth_ft":31000.0,"county":"Canadian"},"geometry":{"type":"Point","coordinates":[-98.30546,35.390782]}}]}